{
"type": "FeatureCollection",
"name": "aoi_shapefile",
"crs": { "type": "name", "properties": { "name": "urn:ogc:def:crs:OGC:1.3:CRS84" } },
"features": [
{ "type": "Feature", "properties": { "FEAT_TYPE": "Mapping extent", "UFI": 2662856, "Q_INFO": 0, "DATASET_ID": 138, "DB_DATE_CR": "2010-06-01", "GEOMETRY_A": 0.0, "GEOMETRY_L": 0.0 }, "geometry": { "type": "MultiPolygon", "coordinates": [ [ [ [ 110.678629109194731, -66.21457789167566 ], [ 111.134974726055034, -66.43161048889074 ], [ 111.007848998542656, -66.501936634432369 ], [ 110.968723721280966, -66.518069292612594 ], [ 110.932296739002837, -66.531505192213359 ], [ 110.852697036987649, -66.554061176828569 ], [ 110.746437061182604, -66.589416491688596 ], [ 110.685775769970391, -66.60606385320159 ], [ 110.676246628291977, -66.604156471885432 ], [ 110.592750526540698, -66.552375819130233 ], [ 110.547149665011403, -66.521690371039142 ], [ 110.510795570471302, -66.50885771860743 ], [ 110.508842456558042, -66.507751461006535 ], [ 110.379837012022747, -66.432975772969272 ], [ 110.318031334861686, -66.332008373242246 ], [ 110.144088740516779, -66.228767410115893 ], [ 110.14677427214751, -66.222175597107594 ], [ 110.405891418819024, -66.17327882907415 ], [ 110.422859176267025, -66.173568700910408 ], [ 110.67500306579764, -66.21118161999425 ], [ 110.677658073329596, -66.211410497184019 ], [ 110.678039571013244, -66.211380026636292 ], [ 110.678382886797905, -66.211395288685694 ], [ 110.678787250780104, -66.211471545381556 ], [ 110.67897034182171, -66.211585983976448 ], [ 110.679183956962092, -66.211677556272775 ], [ 110.679504406448189, -66.211746208719504 ], [ 110.679862984282238, -66.211769128569102 ], [ 110.680343604960328, -66.211807256917055 ], [ 110.680915851485807, -66.21183012321562 ], [ 110.681312557667781, -66.211845385265008 ], [ 110.681716921649993, -66.211906433462545 ], [ 110.681976322938539, -66.211990347958661 ], [ 110.682205200128308, -66.2120666582056 ], [ 110.682312034474023, -66.212257407047417 ], [ 110.682113627831981, -66.212654113229405 ], [ 110.681701659600606, -66.212913514517979 ], [ 110.681228643171679, -66.213287354401388 ], [ 110.680747968942526, -66.213607803887484 ], [ 110.680145251869334, -66.213920595573384 ], [ 110.67961884504308, -66.214164734812528 ], [ 110.6790695183672, -66.214408874051685 ], [ 110.678629109194731, -66.21457789167566 ] ] ] ] } }
]
}
