{
"type": "FeatureCollection",
"name": "Bryophyte_dominated",
"crs": { "type": "name", "properties": { "name": "urn:ogc:def:crs:OGC:1.3:CRS84" } },
"features": [
{ "type": "Feature", "properties": { "id": 4, "Species": "Bryophyte dominated" }, "geometry": { "type": "MultiPolygon", "coordinates": [ [ [ [ 110.586500091904696, -66.367304021325111 ], [ 110.586546440524089, -66.367124415104243 ], [ 110.587104339999172, -66.366986785298593 ], [ 110.588155765933038, -66.366900766286363 ], [ 110.589271564883205, -66.366866358598855 ], [ 110.58985092203045, -66.366935173926663 ], [ 110.590301533144924, -66.367055600295856 ], [ 110.590580482882487, -66.367219035157362 ], [ 110.590595554369031, -66.36731570315051 ], [ 110.590387363833372, -66.367382468953465 ], [ 110.590030576090271, -66.367573170644235 ], [ 110.589443226260158, -66.367649121807233 ], [ 110.588348884982111, -66.367649121807233 ], [ 110.587812443179132, -66.367631918482914 ], [ 110.587686558371686, -66.367625610778703 ], [ 110.587812443179089, -66.367348061927018 ], [ 110.587469120425183, -66.367210433349101 ], [ 110.586954136294324, -66.367210433349101 ], [ 110.586610813540418, -66.36724484056441 ], [ 110.586500091904696, -66.367304021325111 ] ] ] ] } },
{ "type": "Feature", "properties": { "id": 4, "Species": "Bryophyte dominated" }, "geometry": { "type": "MultiPolygon", "coordinates": [ [ [ [ 110.600033851951153, -66.36654101530857 ], [ 110.59989311258218, -66.366496472975754 ], [ 110.599839468401882, -66.366341635513223 ], [ 110.599936027926418, -66.3661867970945 ], [ 110.600300808352429, -66.366010452175132 ], [ 110.600858707827513, -66.365890020785741 ], [ 110.60141660730261, -66.365877117388266 ], [ 110.602113981646497, -66.365868515119629 ], [ 110.602596779269163, -66.365881418521496 ], [ 110.602907915514919, -66.365894321916755 ], [ 110.603573103350612, -66.365971742148787 ], [ 110.603841324252087, -66.366044861037281 ], [ 110.603946496652227, -66.366154484022601 ], [ 110.6035194591703, -66.36641905436403 ], [ 110.602746982973997, -66.366625503464064 ], [ 110.601974506777722, -66.36662550346405 ], [ 110.601717014712278, -66.366522279126514 ], [ 110.601202030581419, -66.366522279126514 ], [ 110.600033851951153, -66.36654101530857 ] ] ] ] } },
{ "type": "Feature", "properties": { "id": 20, "Species": "Bryophyte dominated" }, "geometry": { "type": "MultiPolygon", "coordinates": [ [ [ [ 110.533266702847769, -66.249681981328294 ], [ 110.534397145548922, -66.250102238793758 ], [ 110.534737046880821, -66.250348646035619 ], [ 110.534193204749755, -66.25073194140262 ], [ 110.532969559954893, -66.251142608543304 ], [ 110.531813895426438, -66.251169986114817 ], [ 110.531066112496248, -66.250950964710171 ], [ 110.53059025063159, -66.250540294447589 ], [ 110.530608571697258, -66.250326317112254 ], [ 110.531813895426396, -66.24993796596118 ], [ 110.533266702847769, -66.249681981328294 ] ] ] ] } },
{ "type": "Feature", "properties": { "id": 4, "Species": "Bryophyte dominated" }, "geometry": { "type": "MultiPolygon", "coordinates": [ [ [ [ 110.615407569725747, -66.244041510911728 ], [ 110.617905513480068, -66.244727599088165 ], [ 110.61756488478629, -66.245367931211831 ], [ 110.615748198419553, -66.246008247075579 ], [ 110.613477340461074, -66.245596617315442 ], [ 110.613363797563153, -66.244407426928746 ], [ 110.615407569725747, -66.244041510911728 ] ] ] ] } },
{ "type": "Feature", "properties": { "id": 4, "Species": "Bryophyte dominated" }, "geometry": { "type": "MultiPolygon", "coordinates": [ [ [ [ 110.62040345723436, -66.243035214487165 ], [ 110.62222014360114, -66.242989472786519 ], [ 110.62278785809076, -66.243126697639596 ], [ 110.623128486784495, -66.243584108423832 ], [ 110.622901400988638, -66.243950031077858 ], [ 110.621425343315678, -66.244361687716989 ], [ 110.619381571153042, -66.244224469583941 ], [ 110.618813856663422, -66.243904291036472 ], [ 110.619040942459307, -66.243446886059687 ], [ 110.62040345723436, -66.243035214487165 ] ] ] ] } },
{ "type": "Feature", "properties": { "id": 4, "Species": "Bryophyte dominated" }, "geometry": { "type": "MultiPolygon", "coordinates": [ [ [ [ 110.595537562589328, -66.24847788452945 ], [ 110.596332362874747, -66.248157759986768 ], [ 110.597581334751922, -66.248157759986768 ], [ 110.59860322083324, -66.248615079517776 ], [ 110.598035506343606, -66.249072390753767 ], [ 110.598035506343606, -66.249072390753767 ], [ 110.597127163160224, -66.249072390753767 ], [ 110.596218819976869, -66.249209582507049 ], [ 110.595537562589328, -66.24847788452945 ] ] ] ] } }
]
}
