{
"type": "FeatureCollection",
"name": "buellia_pseudephebe_usnea_bryophytes",
"crs": { "type": "name", "properties": { "name": "urn:ogc:def:crs:OGC:1.3:CRS84" } },
"features": [
{ "type": "Feature", "properties": { "id": 1, "Species": "Buellia frigida, Pseudephebe minuscula, Usnea antarctica, bryophytes" }, "geometry": { "type": "MultiPolygon", "coordinates": [ [ [ [ 110.583606739443724, -66.372921384448986 ], [ 110.585237522524807, -66.372714987192765 ], [ 110.585752506655652, -66.37268058748478 ], [ 110.586954136294324, -66.372852585552451 ], [ 110.587469120425183, -66.373162179099864 ], [ 110.587469120425183, -66.37336857267367 ], [ 110.587383289736692, -66.373781354722482 ], [ 110.586782474917371, -66.374056538978181 ], [ 110.586009998721067, -66.374262925187125 ], [ 110.585151691836302, -66.374400515048933 ], [ 110.583692570132229, -66.374813280102202 ], [ 110.583520908755276, -66.375122849430937 ], [ 110.585666675967161, -66.375432414935815 ], [ 110.586009998721067, -66.375707581063338 ], [ 110.585409183901746, -66.376257904254601 ], [ 110.584379215640027, -66.376498666850665 ], [ 110.582490940493557, -66.376601850112309 ], [ 110.581632633608791, -66.376361088507565 ], [ 110.581289310854885, -66.375879558358818 ], [ 110.581289310854885, -66.37515724578698 ], [ 110.581890125674192, -66.374366117654304 ], [ 110.583606739443724, -66.372921384448986 ] ] ] ] } },
{ "type": "Feature", "properties": { "id": 1, "Species": "Buellia frigida, Pseudephebe minuscula, Usnea antarctica, bryophytes" }, "geometry": { "type": "MultiPolygon", "coordinates": [ [ [ [ 110.582490940493557, -66.369377995694677 ], [ 110.583005924624416, -66.368689900968263 ], [ 110.583520908755276, -66.368208223421917 ], [ 110.584722538393933, -66.367967381178161 ], [ 110.585924168032605, -66.368001787354615 ], [ 110.587125797671277, -66.368586685130296 ], [ 110.587640781802136, -66.369343591406945 ], [ 110.587554951113646, -66.370066071534339 ], [ 110.587039966982786, -66.370754128487576 ], [ 110.585580845278699, -66.371235757117717 ], [ 110.583435078066771, -66.37082293314414 ], [ 110.582490940493557, -66.369377995694677 ] ] ] ] } },
{ "type": "Feature", "properties": { "id": 1, "Species": "Buellia frigida, Pseudephebe minuscula, Usnea antarctica, bryophytes" }, "geometry": { "type": "MultiPolygon", "coordinates": [ [ [ [ 110.58970071832556, -66.368173817528756 ], [ 110.590215702456419, -66.367657723464973 ], [ 110.591245670718138, -66.36724484056441 ], [ 110.5925331310453, -66.366935173926663 ], [ 110.594078083437878, -66.366728727376611 ], [ 110.596223850649793, -66.366625503464064 ], [ 110.596996326846067, -66.366625503464064 ], [ 110.59828378717323, -66.366591095398761 ], [ 110.600343723696668, -66.366556687286248 ], [ 110.601631184023816, -66.366556687286248 ], [ 110.601717014712278, -66.366763135252981 ], [ 110.601717014712278, -66.367176026086568 ], [ 110.601631184023816, -66.36745128286465 ], [ 110.601116199892971, -66.368139411588345 ], [ 110.600257893008163, -66.368930736270912 ], [ 110.599742908877346, -66.369309187071963 ], [ 110.599485416811902, -66.369618824386919 ], [ 110.599056263369533, -66.370169281281306 ], [ 110.598369617861692, -66.37082293314414 ], [ 110.597511310976927, -66.371201355379597 ], [ 110.596481342715208, -66.371063747954992 ], [ 110.595623035830442, -66.37051331070225 ], [ 110.595365543765027, -66.370444505195778 ], [ 110.594764728945677, -66.371029345980801 ], [ 110.59433557550328, -66.371510969322912 ], [ 110.592962284487669, -66.371682975416732 ], [ 110.592103977602903, -66.371098149881945 ], [ 110.59193231622595, -66.370582116019818 ], [ 110.592275638979856, -66.370066071534339 ], [ 110.5925331310453, -66.369446804128543 ], [ 110.592189808291394, -66.368999545932411 ], [ 110.59030153314491, -66.368861926420507 ], [ 110.58970071832556, -66.368173817528756 ] ] ] ] } },
{ "type": "Feature", "properties": { "id": 1, "Species": "Buellia frigida, Pseudephebe minuscula, Usnea antarctica, bryophytes" }, "geometry": { "type": "MultiPolygon", "coordinates": [ [ [ [ 110.60128786126991, -66.372714987192765 ], [ 110.60068704645056, -66.37237098798866 ], [ 110.600000400942761, -66.371889381171272 ], [ 110.599914570254256, -66.371407765100074 ], [ 110.600858707827513, -66.370857335401652 ], [ 110.601631184023816, -66.371029345980801 ], [ 110.602661152285535, -66.371338962048782 ], [ 110.603433628481824, -66.371338962048782 ], [ 110.604291935366575, -66.371407765100074 ], [ 110.60437776605508, -66.371682975416732 ], [ 110.603347797793347, -66.37192378196508 ], [ 110.602489490908582, -66.372302187581283 ], [ 110.60128786126991, -66.372714987192765 ] ] ] ] } },
{ "type": "Feature", "properties": { "id": 1, "Species": "Buellia frigida, Pseudephebe minuscula, Usnea antarctica, bryophytes" }, "geometry": { "type": "MultiPolygon", "coordinates": [ [ [ [ 110.603261967104856, -66.367038396564226 ], [ 110.604034443301174, -66.366247012148762 ], [ 110.605236072939832, -66.366247012148762 ], [ 110.606180210513045, -66.366556687286248 ], [ 110.606609363955457, -66.366900766286363 ], [ 110.607725162905652, -66.367485689749415 ], [ 110.608926792544324, -66.368105005600754 ], [ 110.609184284609739, -66.368586685130296 ], [ 110.609012623232786, -66.368965141125273 ], [ 110.607467670840208, -66.369171569259905 ], [ 110.605751057070691, -66.369033950692341 ], [ 110.605236072939832, -66.368793116381298 ], [ 110.604463596743528, -66.368689900968263 ], [ 110.603691120547268, -66.368689900968263 ], [ 110.603090305727903, -66.367898568683529 ], [ 110.603261967104856, -66.367038396564226 ] ] ] ] } }
]
}
