{
"type": "FeatureCollection",
"name": "building_footprint",
"crs": { "type": "name", "properties": { "name": "urn:ogc:def:crs:OGC:1.3:CRS84" } },
"features": [
{ "type": "Feature", "properties": { "SHAPE_Leng": 0.00129184436, "SHAPE_Area": 9.909e-08, "Area": 496, "Station": "Casey", "Ice_free": 1, "Name": null, "Status": 5 }, "geometry": { "type": "MultiPolygon", "coordinates": [ [ [ [ 110.535170590000064, -66.278302526999937 ], [ 110.535229997000044, -66.278559821999977 ], [ 110.534848455000088, -66.278575397999987 ], [ 110.534789051000075, -66.278318102999947 ], [ 110.535170590000064, -66.278302526999937 ] ] ] ] } },
{ "type": "Feature", "properties": { "SHAPE_Leng": 0.00097199102, "SHAPE_Area": 3.456e-08, "Area": 173, "Station": "Casey", "Ice_free": 1, "Name": null, "Status": 5 }, "geometry": { "type": "MultiPolygon", "coordinates": [ [ [ [ 110.536126175000049, -66.277988774999983 ], [ 110.536254474000089, -66.278027797999982 ], [ 110.535950251000088, -66.278204649999964 ], [ 110.535821951000059, -66.278165625999975 ], [ 110.536126175000049, -66.277988774999983 ] ] ] ] } },
{ "type": "Feature", "properties": { "SHAPE_Leng": 0.00040832437, "SHAPE_Area": 7.57e-09, "Area": 38, "Station": "Casey", "Ice_free": 1, "Name": null, "Status": 5 }, "geometry": { "type": "MultiPolygon", "coordinates": [ [ [ [ 110.535611767000034, -66.278215819999957 ], [ 110.535456287000045, -66.278215455999941 ], [ 110.535456931000056, -66.278166778999946 ], [ 110.535612411000045, -66.278167141999973 ], [ 110.535611767000034, -66.278215819999957 ] ] ] ] } },
{ "type": "Feature", "properties": { "SHAPE_Leng": 0.00040896703, "SHAPE_Area": 5.53e-09, "Area": 28, "Station": "Casey", "Ice_free": 1, "Name": null, "Status": 5 }, "geometry": { "type": "MultiPolygon", "coordinates": [ [ [ [ 110.534241412000085, -66.278162254999984 ], [ 110.534241442000052, -66.278130189999956 ], [ 110.534413860000086, -66.278130217999944 ], [ 110.534413831000052, -66.278162282999972 ], [ 110.534241412000085, -66.278162254999984 ] ] ] ] } },
{ "type": "Feature", "properties": { "SHAPE_Leng": 0.00014572951, "SHAPE_Area": 9.5e-10, "Area": 5, "Station": "Casey", "Ice_free": 1, "Name": null, "Status": 5 }, "geometry": { "type": "MultiPolygon", "coordinates": [ [ [ [ 110.534456701000067, -66.27814129099994 ], [ 110.534420598000054, -66.278119260999972 ], [ 110.534449961000064, -66.278110751999975 ], [ 110.534486064000077, -66.278132782999933 ], [ 110.534456701000067, -66.27814129099994 ] ] ] ] } },
{ "type": "Feature", "properties": { "SHAPE_Leng": 0.00025683487, "SHAPE_Area": 3.21e-09, "Area": 16, "Station": "Casey", "Ice_free": 1, "Name": null, "Status": 5 }, "geometry": { "type": "MultiPolygon", "coordinates": [ [ [ [ 110.534486064000077, -66.278132782999933 ], [ 110.534480358000053, -66.278098730999943 ], [ 110.534574207000048, -66.278095949999965 ], [ 110.534579913000073, -66.278130002999944 ], [ 110.534486064000077, -66.278132782999933 ] ] ] ] } },
{ "type": "Feature", "properties": { "SHAPE_Leng": 0.00124265308, "SHAPE_Area": 4.069e-08, "Area": 204, "Station": "Casey", "Ice_free": 1, "Name": null, "Status": 5 }, "geometry": { "type": "MultiPolygon", "coordinates": [ [ [ [ 110.535914329000036, -66.279406973999983 ], [ 110.536422189000064, -66.279292805999944 ], [ 110.536501415000089, -66.279355113999941 ], [ 110.535993555000061, -66.27946928199998 ], [ 110.535914329000036, -66.279406973999983 ] ] ] ] } },
{ "type": "Feature", "properties": { "SHAPE_Leng": 0.00059581174, "SHAPE_Area": 1.209e-08, "Area": 61, "Station": "Casey", "Ice_free": 1, "Name": null, "Status": 5 }, "geometry": { "type": "MultiPolygon", "coordinates": [ [ [ [ 110.53602309200005, -66.279599548999954 ], [ 110.536272114000042, -66.279605373999971 ], [ 110.536265711000055, -66.279653767999946 ], [ 110.536016689000064, -66.279647942999986 ], [ 110.53602309200005, -66.279599548999954 ] ] ] ] } },
{ "type": "Feature", "properties": { "SHAPE_Leng": 0.00032073439, "SHAPE_Area": 5.1e-09, "Area": 26, "Station": "Casey", "Ice_free": 1, "Name": null, "Status": 5 }, "geometry": { "type": "MultiPolygon", "coordinates": [ [ [ [ 110.536270642000034, -66.27961649599996 ], [ 110.536387101000059, -66.279618329999948 ], [ 110.53638320500005, -66.279662050999946 ], [ 110.536266746000081, -66.279660215999968 ], [ 110.536270642000034, -66.27961649599996 ] ] ] ] } },
{ "type": "Feature", "properties": { "SHAPE_Leng": 0.00043625915, "SHAPE_Area": 8.78e-09, "Area": 44, "Station": "Casey", "Ice_free": 1, "Name": null, "Status": 5 }, "geometry": { "type": "MultiPolygon", "coordinates": [ [ [ [ 110.536431696000079, -66.279552277999983 ], [ 110.536516773000073, -66.279498488999934 ], [ 110.536629908000066, -66.279530124999951 ], [ 110.536544831000072, -66.279583913999943 ], [ 110.536431696000079, -66.279552277999983 ] ] ] ] } },
{ "type": "Feature", "properties": { "SHAPE_Leng": 0.0006517943, "SHAPE_Area": 1.601e-08, "Area": 80, "Station": "Casey", "Ice_free": 1, "Name": null, "Status": 5 }, "geometry": { "type": "MultiPolygon", "coordinates": [ [ [ [ 110.535343441000066, -66.279236312999956 ], [ 110.535302372000046, -66.279178094999963 ], [ 110.53555506500004, -66.279146578999985 ], [ 110.535596134000059, -66.279204797999967 ], [ 110.535343441000066, -66.279236312999956 ] ] ] ] } },
{ "type": "Feature", "properties": { "SHAPE_Leng": 0.00029459722, "SHAPE_Area": 2.9e-09, "Area": 15, "Station": "Casey", "Ice_free": 1, "Name": null, "Status": 5 }, "geometry": { "type": "MultiPolygon", "coordinates": [ [ [ [ 110.538091376000068, -66.278166885999951 ], [ 110.538214866000033, -66.278170732999968 ], [ 110.538210746000061, -66.278194120999956 ], [ 110.53808725500005, -66.27819027399994 ], [ 110.538091376000068, -66.278166885999951 ] ] ] ] } },
{ "type": "Feature", "properties": { "SHAPE_Leng": 0.00025616137, "SHAPE_Area": 3.17e-09, "Area": 16, "Station": "Casey", "Ice_free": 1, "Name": null, "Status": 5 }, "geometry": { "type": "MultiPolygon", "coordinates": [ [ [ [ 110.538255964000086, -66.277484409999943 ], [ 110.538199721000069, -66.277435793999985 ], [ 110.538252369000077, -66.277425023999967 ], [ 110.538308612000037, -66.277473639999982 ], [ 110.538255964000086, -66.277484409999943 ] ] ] ] } },
{ "type": "Feature", "properties": { "SHAPE_Leng": 0.00030148709, "SHAPE_Area": 3.26e-09, "Area": 16, "Station": "Casey", "Ice_free": 1, "Name": null, "Status": 5 }, "geometry": { "type": "MultiPolygon", "coordinates": [ [ [ [ 110.536422585000082, -66.277738066999973 ], [ 110.536397579000038, -66.277714130999982 ], [ 110.536511775000065, -66.27769303599996 ], [ 110.536536781000052, -66.277716971999951 ], [ 110.536422585000082, -66.277738066999973 ] ] ] ] } },
{ "type": "Feature", "properties": { "SHAPE_Leng": 0.000236109, "SHAPE_Area": 2.4e-09, "Area": 12, "Station": "Casey", "Ice_free": 1, "Name": null, "Status": 5 }, "geometry": { "type": "MultiPolygon", "coordinates": [ [ [ [ 110.536561895000034, -66.277703694999957 ], [ 110.536558636000052, -66.277677642999947 ], [ 110.536650413000075, -66.277675612999985 ], [ 110.536653672000057, -66.277701664999938 ], [ 110.536561895000034, -66.277703694999957 ] ] ] ] } },
{ "type": "Feature", "properties": { "SHAPE_Leng": 0.0002436835, "SHAPE_Area": 2.7e-09, "Area": 14, "Station": "Casey", "Ice_free": 1, "Name": null, "Status": 5 }, "geometry": { "type": "MultiPolygon", "coordinates": [ [ [ [ 110.536679053000057, -66.277691452999989 ], [ 110.536677053000062, -66.277662271999986 ], [ 110.536769638000067, -66.277661149999972 ], [ 110.536771638000062, -66.277690331999963 ], [ 110.536679053000057, -66.277691452999989 ] ] ] ] } },
{ "type": "Feature", "properties": { "SHAPE_Leng": 0.00077633138, "SHAPE_Area": 3.757e-08, "Area": 188, "Station": "Casey", "Ice_free": 1, "Name": null, "Status": 5 }, "geometry": { "type": "MultiPolygon", "coordinates": [ [ [ [ 110.531752016000041, -66.281752907999987 ], [ 110.53195233200006, -66.28175534099995 ], [ 110.531939456000089, -66.281942732999937 ], [ 110.531739138000034, -66.281940299999974 ], [ 110.531752016000041, -66.281752907999987 ] ] ] ] } },
{ "type": "Feature", "properties": { "SHAPE_Leng": 0.00028332049, "SHAPE_Area": 1.9e-09, "Area": 10, "Station": "Casey", "Ice_free": 1, "Name": null, "Status": 5 }, "geometry": { "type": "MultiPolygon", "coordinates": [ [ [ [ 110.531778212000063, -66.281940774999953 ], [ 110.531777180000063, -66.281955782999944 ], [ 110.531650573000036, -66.281954244999952 ], [ 110.531651604000047, -66.28193923699996 ], [ 110.531778212000063, -66.281940774999953 ] ] ] ] } },
{ "type": "Feature", "properties": { "SHAPE_Leng": 0.00020245527, "SHAPE_Area": 1.2e-09, "Area": 6, "Station": "Casey", "Ice_free": 1, "Name": null, "Status": 5 }, "geometry": { "type": "MultiPolygon", "coordinates": [ [ [ [ 110.531739138000034, -66.281940299999974 ], [ 110.531651604000047, -66.28193923699996 ], [ 110.531652542000074, -66.281925581999985 ], [ 110.531740076000062, -66.281926644999942 ], [ 110.531739138000034, -66.281940299999974 ] ] ] ] } },
{ "type": "Feature", "properties": { "SHAPE_Leng": 0.00026235996, "SHAPE_Area": 1.43e-09, "Area": 7, "Station": "Casey", "Ice_free": 1, "Name": null, "Status": 5 }, "geometry": { "type": "MultiPolygon", "coordinates": [ [ [ [ 110.531685020000054, -66.281925975999968 ], [ 110.531565832000069, -66.28192452899998 ], [ 110.531566653000084, -66.281912573999932 ], [ 110.531685842000059, -66.281914021999967 ], [ 110.531685020000054, -66.281925975999968 ] ] ] ] } },
{ "type": "Feature", "properties": { "SHAPE_Leng": 0.00271665757, "SHAPE_Area": 2.2788e-07, "Area": 1141, "Station": "Casey", "Ice_free": 1, "Name": null, "Status": 5 }, "geometry": { "type": "MultiPolygon", "coordinates": [ [ [ [ 110.531994645000054, -66.282504314999983 ], [ 110.530832557000053, -66.282513137999956 ], [ 110.530824141000039, -66.282317106999983 ], [ 110.531986219000089, -66.282308282999963 ], [ 110.531994645000054, -66.282504314999983 ] ] ] ] } },
{ "type": "Feature", "properties": { "SHAPE_Leng": 0.00061081259, "SHAPE_Area": 2.149e-08, "Area": 108, "Station": "Casey", "Ice_free": 1, "Name": null, "Status": 5 }, "geometry": { "type": "MultiPolygon", "coordinates": [ [ [ [ 110.53199281600007, -66.282461756999965 ], [ 110.53198808500008, -66.282351698999946 ], [ 110.532183325000062, -66.282350214999951 ], [ 110.532188057000042, -66.282460273999959 ], [ 110.53199281600007, -66.282461756999965 ] ] ] ] } },
{ "type": "Feature", "properties": { "SHAPE_Leng": 0.00076822879, "SHAPE_Area": 2.265e-08, "Area": 113, "Station": "Casey", "Ice_free": 1, "Name": null, "Status": 5 }, "geometry": { "type": "MultiPolygon", "coordinates": [ [ [ [ 110.532220704000054, -66.282554153999968 ], [ 110.532229599000061, -66.282481461999964 ], [ 110.532540407000056, -66.282488184999977 ], [ 110.532531512000048, -66.282560875999934 ], [ 110.532220704000054, -66.282554153999968 ] ] ] ] } },
{ "type": "Feature", "properties": { "SHAPE_Leng": 0.00091556767, "SHAPE_Area": 6.671e-08, "Area": 156, "Station": "Casey", "Ice_free": 1, "Name": null, "Status": 5 }, "geometry": { "type": "MultiPolygon", "coordinates": [ [ [ [ 110.530387046000044, -66.281277891999935 ], [ 110.530385297298409, -66.281252552099261 ], [ 110.530387975391051, -66.281227293509758 ], [ 110.530394998905479, -66.281202883700885 ], [ 110.530406154435781, -66.281180064352355 ], [ 110.530421103026796, -66.281159528818492 ], [ 110.530439390473148, -66.281141901061133 ], [ 110.530460461120043, -66.281127716690747 ], [ 110.530483674746534, -66.28111740669226 ], [ 110.530508326018335, -66.281111284329754 ], [ 110.530533665919009, -66.281109535628119 ], [ 110.530558924508512, -66.28111221372076 ], [ 110.530583334317384, -66.281119237235188 ], [ 110.530606153665914, -66.28113039276549 ], [ 110.530626689199778, -66.281145341356506 ], [ 110.530644316957137, -66.281163628802858 ], [ 110.530658501327522, -66.281184699449753 ], [ 110.530668811326009, -66.281207913076244 ], [ 110.530674933688516, -66.281232564348045 ], [ 110.530676682390151, -66.281257904248719 ], [ 110.530674004297509, -66.281283162838221 ], [ 110.530666980783081, -66.281307572647094 ], [ 110.530655825252779, -66.281330391995624 ], [ 110.530640876661764, -66.281350927529488 ], [ 110.530622589215412, -66.281368555286846 ], [ 110.530601518568517, -66.281382739657232 ], [ 110.530578304942026, -66.281393049655719 ], [ 110.530553653670225, -66.281399172018226 ], [ 110.530528313769551, -66.281400920719861 ], [ 110.530503055180048, -66.281398242627219 ], [ 110.530478645371176, -66.281391219112791 ], [ 110.530455826022646, -66.281380063582489 ], [ 110.530435290488782, -66.281365114991473 ], [ 110.530417662731423, -66.281346827545121 ], [ 110.530403478361038, -66.281325756898227 ], [ 110.530393168362551, -66.281302543271735 ], [ 110.530387046000044, -66.281277891999935 ] ] ] ] } },
{ "type": "Feature", "properties": { "SHAPE_Leng": 0.0002810069, "SHAPE_Area": 4.82e-09, "Area": 24, "Station": "Casey", "Ice_free": 1, "Name": null, "Status": 5 }, "geometry": { "type": "MultiPolygon", "coordinates": [ [ [ [ 110.530783756000062, -66.28124520199998 ], [ 110.530795502000046, -66.281306779999966 ], [ 110.530717731000038, -66.281309401999977 ], [ 110.530705985000054, -66.281247823999934 ], [ 110.530783756000062, -66.28124520199998 ] ] ] ] } },
{ "type": "Feature", "properties": { "SHAPE_Leng": 0.0003352781, "SHAPE_Area": 6.79e-09, "Area": 34, "Station": "Casey", "Ice_free": 1, "Name": null, "Status": 5 }, "geometry": { "type": "MultiPolygon", "coordinates": [ [ [ [ 110.530276803000049, -66.281647334999946 ], [ 110.530345322000073, -66.281647842999973 ], [ 110.530341166000085, -66.281746873999964 ], [ 110.530272647000061, -66.281746365999936 ], [ 110.530276803000049, -66.281647334999946 ] ] ] ] } },
{ "type": "Feature", "properties": { "SHAPE_Leng": 0.00028425303, "SHAPE_Area": 4.16e-09, "Area": 21, "Station": "Casey", "Ice_free": 1, "Name": null, "Status": 5 }, "geometry": { "type": "MultiPolygon", "coordinates": [ [ [ [ 110.530343672000072, -66.28168715299995 ], [ 110.53044458100004, -66.281687900999941 ], [ 110.530442853000068, -66.281729079999934 ], [ 110.530341944000043, -66.281728330999954 ], [ 110.530343672000072, -66.28168715299995 ] ] ] ] } },
{ "type": "Feature", "properties": { "SHAPE_Leng": 0.00084724605, "SHAPE_Area": 1.426e-08, "Area": 71, "Station": "Casey", "Ice_free": 1, "Name": null, "Status": 5 }, "geometry": { "type": "MultiPolygon", "coordinates": [ [ [ [ 110.531464790000086, -66.28219293799998 ], [ 110.531078047000051, -66.282194285999935 ], [ 110.531077320000065, -66.282157414999972 ], [ 110.531464062000055, -66.28215606699996 ], [ 110.531464790000086, -66.28219293799998 ] ] ] ] } },
{ "type": "Feature", "properties": { "SHAPE_Leng": 0.00035434468, "SHAPE_Area": 4.13e-09, "Area": 21, "Station": "Casey", "Ice_free": 1, "Name": null, "Status": 5 }, "geometry": { "type": "MultiPolygon", "coordinates": [ [ [ [ 110.531025571000043, -66.282031682999957 ], [ 110.53087607100008, -66.282033215999945 ], [ 110.530874468000036, -66.282005597999955 ], [ 110.531023968000056, -66.282004064999967 ], [ 110.531025571000043, -66.282031682999957 ] ] ] ] } },
{ "type": "Feature", "properties": { "SHAPE_Leng": 0.00065599093, "SHAPE_Area": 1.807e-08, "Area": 90, "Station": "Casey", "Ice_free": 1, "Name": null, "Status": 5 }, "geometry": { "type": "MultiPolygon", "coordinates": [ [ [ [ 110.533037739000065, -66.282546923999973 ], [ 110.533292858000038, -66.282559564999985 ], [ 110.533273270000052, -66.282629433999944 ], [ 110.533018150000089, -66.282616792999988 ], [ 110.533037739000065, -66.282546923999973 ] ] ] ] } },
{ "type": "Feature", "properties": { "SHAPE_Leng": 0.00053988477, "SHAPE_Area": 1.389e-08, "Area": 70, "Station": "Casey", "Ice_free": 1, "Name": null, "Status": 5 }, "geometry": { "type": "MultiPolygon", "coordinates": [ [ [ [ 110.533669145000033, -66.282630793999942 ], [ 110.533661980000034, -66.282700009999985 ], [ 110.533461657000089, -66.282696344999977 ], [ 110.533468822000088, -66.282627128999934 ], [ 110.533669145000033, -66.282630793999942 ] ] ] ] } },
{ "type": "Feature", "properties": { "SHAPE_Leng": 0.00143647519, "SHAPE_Area": 7.698e-08, "Area": 385, "Station": "Casey", "Ice_free": 1, "Name": null, "Status": 5 }, "geometry": { "type": "MultiPolygon", "coordinates": [ [ [ [ 110.530831098000078, -66.282479147999936 ], [ 110.530244096000047, -66.282483600999967 ], [ 110.530238471000075, -66.282352500999934 ], [ 110.530825469000035, -66.28234804799996 ], [ 110.530831098000078, -66.282479147999936 ] ] ] ] } },
{ "type": "Feature", "properties": { "SHAPE_Leng": 0.0009649673, "SHAPE_Area": 4.271e-08, "Area": 214, "Station": "Casey", "Ice_free": 1, "Name": null, "Status": 5 }, "geometry": { "type": "MultiPolygon", "coordinates": [ [ [ [ 110.52982994000007, -66.282262642999967 ], [ 110.529830120000042, -66.282379441999979 ], [ 110.529464434000033, -66.282379540999955 ], [ 110.52946425600004, -66.282262742999933 ], [ 110.52982994000007, -66.282262642999967 ] ] ] ] } },
{ "type": "Feature", "properties": { "SHAPE_Leng": 0.00169654305, "SHAPE_Area": 1.2029e-07, "Area": 602, "Station": "Casey", "Ice_free": 1, "Name": null, "Status": 5 }, "geometry": { "type": "MultiPolygon", "coordinates": [ [ [ [ 110.529628224000078, -66.281932479999966 ], [ 110.529622837000034, -66.282112478999977 ], [ 110.528954652000039, -66.282108942999969 ], [ 110.528960044000087, -66.281928943999958 ], [ 110.529628224000078, -66.281932479999966 ] ] ] ] } },
{ "type": "Feature", "properties": { "SHAPE_Leng": 0.00035081114, "SHAPE_Area": 7.64e-09, "Area": 38, "Station": "Casey", "Ice_free": 1, "Name": null, "Status": 5 }, "geometry": { "type": "MultiPolygon", "coordinates": [ [ [ [ 110.529626461000078, -66.281991374999961 ], [ 110.529720867000037, -66.281991873999971 ], [ 110.529718444000082, -66.282072835999941 ], [ 110.529624038000065, -66.282072336999988 ], [ 110.529626461000078, -66.281991374999961 ] ] ] ] } },
{ "type": "Feature", "properties": { "SHAPE_Leng": 0.00035984622, "SHAPE_Area": 6e-09, "Area": 30, "Station": "Casey", "Ice_free": 1, "Name": null, "Status": 5 }, "geometry": { "type": "MultiPolygon", "coordinates": [ [ [ [ 110.529253253000036, -66.281548821999934 ], [ 110.529255400000068, -66.281593026999985 ], [ 110.529119739000066, -66.281594191999943 ], [ 110.529117592000034, -66.281549986999948 ], [ 110.529253253000036, -66.281548821999934 ] ] ] ] } },
{ "type": "Feature", "properties": { "SHAPE_Leng": 0.00032303646, "SHAPE_Area": 4.18e-09, "Area": 21, "Station": "Casey", "Ice_free": 1, "Name": null, "Status": 5 }, "geometry": { "type": "MultiPolygon", "coordinates": [ [ [ [ 110.529055214000039, -66.281562913999949 ], [ 110.529055419000088, -66.281595251999988 ], [ 110.528926239000043, -66.281595395999943 ], [ 110.528926034000051, -66.28156305899995 ], [ 110.529055214000039, -66.281562913999949 ] ] ] ] } },
{ "type": "Feature", "properties": { "SHAPE_Leng": 0.00379589531, "SHAPE_Area": 2.9669e-07, "Area": 1486, "Station": "Casey", "Ice_free": 1, "Name": null, "Status": 5 }, "geometry": { "type": "MultiPolygon", "coordinates": [ [ [ [ 110.527699906000066, -66.282534283999951 ], [ 110.52770421200006, -66.282706161999954 ], [ 110.525978207000037, -66.28271379399996 ], [ 110.525973913000087, -66.282541915999957 ], [ 110.527699906000066, -66.282534283999951 ] ] ] ] } },
{ "type": "Feature", "properties": { "SHAPE_Leng": 0.00076080451, "SHAPE_Area": 2.137e-08, "Area": 107, "Station": "Casey", "Ice_free": 1, "Name": null, "Status": 5 }, "geometry": { "type": "MultiPolygon", "coordinates": [ [ [ [ 110.527916196000035, -66.282503341999984 ], [ 110.527604366000048, -66.28250583099998 ], [ 110.527601273000073, -66.282437337999966 ], [ 110.52791310200007, -66.282434848999969 ], [ 110.527916196000035, -66.282503341999984 ] ] ] ] } },
{ "type": "Feature", "properties": { "SHAPE_Leng": 0.00086922109, "SHAPE_Area": 3.799e-08, "Area": 190, "Station": "Casey", "Ice_free": 1, "Name": null, "Status": 5 }, "geometry": { "type": "MultiPolygon", "coordinates": [ [ [ [ 110.525484748000054, -66.282191762999958 ], [ 110.525496420000081, -66.282313045999956 ], [ 110.525183697000045, -66.282318364999981 ], [ 110.525172026000064, -66.282197082999971 ], [ 110.525484748000054, -66.282191762999958 ] ] ] ] } },
{ "type": "Feature", "properties": { "SHAPE_Leng": 0.00041099884, "SHAPE_Area": 9.16e-09, "Area": 46, "Station": "Casey", "Ice_free": 1, "Name": null, "Status": 5 }, "geometry": { "type": "MultiPolygon", "coordinates": [ [ [ [ 110.525326420000056, -66.282499377999955 ], [ 110.525327235000077, -66.282564751999985 ], [ 110.525187115000051, -66.282565060999957 ], [ 110.525186300000087, -66.282499686999984 ], [ 110.525326420000056, -66.282499377999955 ] ] ] ] } },
{ "type": "Feature", "properties": { "SHAPE_Leng": 0.00039209674, "SHAPE_Area": 4.93e-09, "Area": 25, "Station": "Casey", "Ice_free": 1, "Name": null, "Status": 5 }, "geometry": { "type": "MultiPolygon", "coordinates": [ [ [ [ 110.525142961000086, -66.282504954999979 ], [ 110.525142752000079, -66.282534559999988 ], [ 110.524976309000067, -66.282534351999971 ], [ 110.524976519000063, -66.282504746999962 ], [ 110.525142961000086, -66.282504954999979 ] ] ] ] } },
{ "type": "Feature", "properties": { "SHAPE_Leng": 0.00025940945, "SHAPE_Area": 3.21e-09, "Area": 16, "Station": "Casey", "Ice_free": 1, "Name": null, "Status": 5 }, "geometry": { "type": "MultiPolygon", "coordinates": [ [ [ [ 110.524965665000082, -66.282442771999968 ], [ 110.524964956000076, -66.282476085999974 ], [ 110.524868574000038, -66.282475723999937 ], [ 110.524869283000044, -66.282442408999941 ], [ 110.524965665000082, -66.282442771999968 ] ] ] ] } },
{ "type": "Feature", "properties": { "SHAPE_Leng": 0.00100985329, "SHAPE_Area": 5.826e-08, "Area": 292, "Station": "Casey", "Ice_free": 1, "Name": null, "Status": 5 }, "geometry": { "type": "MultiPolygon", "coordinates": [ [ [ [ 110.525313492000066, -66.282791872999951 ], [ 110.525298989000078, -66.282970583999941 ], [ 110.524973393000039, -66.282965912999941 ], [ 110.524987899000052, -66.282787201999952 ], [ 110.525313492000066, -66.282791872999951 ] ] ] ] } },
{ "type": "Feature", "properties": { "SHAPE_Leng": 0.00027057433, "SHAPE_Area": 3.86e-09, "Area": 19, "Station": "Casey", "Ice_free": 1, "Name": null, "Status": 5 }, "geometry": { "type": "MultiPolygon", "coordinates": [ [ [ [ 110.524566736000054, -66.282778932999975 ], [ 110.524572552000052, -66.282819821999965 ], [ 110.524478594000072, -66.282822182999951 ], [ 110.524472779000064, -66.28278129499995 ], [ 110.524566736000054, -66.282778932999975 ] ] ] ] } },
{ "type": "Feature", "properties": { "SHAPE_Leng": 0.00142368461, "SHAPE_Area": 6.56e-08, "Area": 328, "Station": "Casey", "Ice_free": 1, "Name": null, "Status": 5 }, "geometry": { "type": "MultiPolygon", "coordinates": [ [ [ [ 110.524300149000055, -66.282558391999942 ], [ 110.524303481000061, -66.282667166999943 ], [ 110.523700472000087, -66.282670429999939 ], [ 110.523697143000049, -66.282561654999938 ], [ 110.524300149000055, -66.282558391999942 ] ] ] ] } },
{ "type": "Feature", "properties": { "SHAPE_Leng": 0.00031189381, "SHAPE_Area": 4.91e-09, "Area": 25, "Station": "Casey", "Ice_free": 1, "Name": null, "Status": 5 }, "geometry": { "type": "MultiPolygon", "coordinates": [ [ [ [ 110.523620518000087, -66.282624970999962 ], [ 110.523628417000054, -66.282668782999963 ], [ 110.523517045000062, -66.282672331999947 ], [ 110.523509146000038, -66.282628519999946 ], [ 110.523620518000087, -66.282624970999962 ] ] ] ] } },
{ "type": "Feature", "properties": { "SHAPE_Leng": 0.00084729743, "SHAPE_Area": 1.522e-08, "Area": 76, "Station": "Casey", "Ice_free": 1, "Name": null, "Status": 5 }, "geometry": { "type": "MultiPolygon", "coordinates": [ [ [ [ 110.52401040400008, -66.282701848999977 ], [ 110.524013035000053, -66.282741462999979 ], [ 110.523629114000073, -66.282745968999961 ], [ 110.523626483000044, -66.282706354999959 ], [ 110.52401040400008, -66.282701848999977 ] ] ] ] } },
{ "type": "Feature", "properties": { "SHAPE_Leng": 0.00162096973, "SHAPE_Area": 8.956e-08, "Area": 448, "Station": "Casey", "Ice_free": 1, "Name": null, "Status": 5 }, "geometry": { "type": "MultiPolygon", "coordinates": [ [ [ [ 110.523464154000067, -66.282059347999962 ], [ 110.523470536000048, -66.282191331999968 ], [ 110.52279221200007, -66.282197126999961 ], [ 110.522785834000047, -66.282065142999954 ], [ 110.523464154000067, -66.282059347999962 ] ] ] ] } },
{ "type": "Feature", "properties": { "SHAPE_Leng": 0.00075930144, "SHAPE_Area": 3.068e-08, "Area": 154, "Station": "Casey", "Ice_free": 1, "Name": null, "Status": 5 }, "geometry": { "type": "MultiPolygon", "coordinates": [ [ [ [ 110.523413594000033, -66.281716271999983 ], [ 110.523423722000075, -66.281833034999977 ], [ 110.523161303000052, -66.281837057999951 ], [ 110.523151176000056, -66.281720294999957 ], [ 110.523413594000033, -66.281716271999983 ] ] ] ] } },
{ "type": "Feature", "properties": { "SHAPE_Leng": 0.000560682, "SHAPE_Area": 2.502e-08, "Area": 59, "Station": "Casey", "Ice_free": 1, "Name": null, "Status": 5 }, "geometry": { "type": "MultiPolygon", "coordinates": [ [ [ [ 110.522519084000066, -66.282670947999975 ], [ 110.522518014222385, -66.282655430090955 ], [ 110.522519655353648, -66.282639962168886 ], [ 110.522523957528932, -66.28262501421878 ], [ 110.522530790028782, -66.282611040426517 ], [ 110.522539945251182, -66.282598465378697 ], [ 110.522551145019321, -66.282587671161806 ], [ 110.522564049033903, -66.282578985752636 ], [ 110.522578265212985, -66.282572673052982 ], [ 110.522593361605161, -66.282568924871001 ], [ 110.522608879514181, -66.282567855093319 ], [ 110.522624347436249, -66.282569496224582 ], [ 110.522639295386355, -66.282573798399866 ], [ 110.522653269178619, -66.282580630899716 ], [ 110.522665844226438, -66.282589786122116 ], [ 110.522676638443329, -66.282600985890255 ], [ 110.5226853238525, -66.282613889904837 ], [ 110.522691636552153, -66.282628106083919 ], [ 110.522695384734135, -66.282643202476095 ], [ 110.522696454511816, -66.282658720385115 ], [ 110.522694813380554, -66.282674188307183 ], [ 110.522690511205269, -66.282689136257289 ], [ 110.52268367870542, -66.282703110049553 ], [ 110.522674523483019, -66.282715685097372 ], [ 110.52266332371488, -66.282726479314263 ], [ 110.522650419700298, -66.282735164723434 ], [ 110.522636203521216, -66.282741477423087 ], [ 110.522621107129041, -66.282745225605069 ], [ 110.522605589220021, -66.282746295382751 ], [ 110.522590121297952, -66.282744654251488 ], [ 110.522575173347846, -66.282740352076203 ], [ 110.522561199555582, -66.282733519576354 ], [ 110.522548624507763, -66.282724364353953 ], [ 110.522537830290872, -66.282713164585815 ], [ 110.522529144881702, -66.282700260571232 ], [ 110.522522832182048, -66.28268604439215 ], [ 110.522519084000066, -66.282670947999975 ] ] ] ] } },
{ "type": "Feature", "properties": { "SHAPE_Leng": 0.00040950805, "SHAPE_Area": 6.93e-09, "Area": 35, "Station": "Casey", "Ice_free": 1, "Name": null, "Status": 5 }, "geometry": { "type": "MultiPolygon", "coordinates": [ [ [ [ 110.523315526000033, -66.282958767999958 ], [ 110.523316485000066, -66.283001517999935 ], [ 110.52315449300005, -66.283002159999967 ], [ 110.523153534000073, -66.282959409999933 ], [ 110.523315526000033, -66.282958767999958 ] ] ] ] } },
{ "type": "Feature", "properties": { "SHAPE_Leng": 0.00058396757, "SHAPE_Area": 1.924e-08, "Area": 96, "Station": "Casey", "Ice_free": 1, "Name": null, "Status": 5 }, "geometry": { "type": "MultiPolygon", "coordinates": [ [ [ [ 110.524322278000056, -66.281438118999972 ], [ 110.524324165000053, -66.281538539999985 ], [ 110.524132621000035, -66.281539175999967 ], [ 110.524130734000039, -66.281438754999954 ], [ 110.524322278000056, -66.281438118999972 ] ] ] ] } },
{ "type": "Feature", "properties": { "SHAPE_Leng": 0.00077776885, "SHAPE_Area": 1.576e-08, "Area": 79, "Station": "Casey", "Ice_free": 1, "Name": null, "Status": 5 }, "geometry": { "type": "MultiPolygon", "coordinates": [ [ [ [ 110.524972534000085, -66.281512840999937 ], [ 110.524922323000055, -66.281550751999987 ], [ 110.52460493600006, -66.281476447999978 ], [ 110.524655147000033, -66.281438536999985 ], [ 110.524972534000085, -66.281512840999937 ] ] ] ] } },
{ "type": "Feature", "properties": { "SHAPE_Leng": 0.00080275853, "SHAPE_Area": 1.848e-08, "Area": 93, "Station": "Casey", "Ice_free": 1, "Name": null, "Status": 5 }, "geometry": { "type": "MultiPolygon", "coordinates": [ [ [ [ 110.525318559000084, -66.281677385999956 ], [ 110.525251023000067, -66.281716568999968 ], [ 110.524941758000068, -66.281622347999985 ], [ 110.525009294000085, -66.281583163999983 ], [ 110.525318559000084, -66.281677385999956 ] ] ] ] } },
{ "type": "Feature", "properties": { "SHAPE_Leng": 0.00023433577, "SHAPE_Area": 2.51e-09, "Area": 13, "Station": "Casey", "Ice_free": 1, "Name": null, "Status": 5 }, "geometry": { "type": "MultiPolygon", "coordinates": [ [ [ [ 110.524967047000075, -66.281607674999975 ], [ 110.524917408000078, -66.28163647599996 ], [ 110.524860224000065, -66.281619053999975 ], [ 110.524909864000051, -66.28159025399998 ], [ 110.524967047000075, -66.281607674999975 ] ] ] ] } },
{ "type": "Feature", "properties": { "SHAPE_Leng": 0.00071439266, "SHAPE_Area": 1.144e-08, "Area": 57, "Station": "Casey", "Ice_free": 1, "Name": null, "Status": 5 }, "geometry": { "type": "MultiPolygon", "coordinates": [ [ [ [ 110.524819378000075, -66.281577331999983 ], [ 110.524778566000066, -66.281605114999934 ], [ 110.524480621000066, -66.281527749999952 ], [ 110.524521433000075, -66.281499967999935 ], [ 110.524819378000075, -66.281577331999983 ] ] ] ] } },
{ "type": "Feature", "properties": { "SHAPE_Leng": 0.00044441513, "SHAPE_Area": 7.22e-09, "Area": 36, "Station": "Casey", "Ice_free": 1, "Name": null, "Status": 5 }, "geometry": { "type": "MultiPolygon", "coordinates": [ [ [ [ 110.525366223000049, -66.281772398999976 ], [ 110.52532195200007, -66.281806981999978 ], [ 110.525160016000086, -66.281770340999969 ], [ 110.525204286000076, -66.281735756999979 ], [ 110.525366223000049, -66.281772398999976 ] ] ] ] } },
{ "type": "Feature", "properties": { "SHAPE_Leng": 0.00038019074, "SHAPE_Area": 5.18e-09, "Area": 26, "Station": "Casey", "Ice_free": 1, "Name": null, "Status": 5 }, "geometry": { "type": "MultiPolygon", "coordinates": [ [ [ [ 110.525132218000067, -66.281725354999935 ], [ 110.525087836000068, -66.281750616999943 ], [ 110.52495506300005, -66.281709384999942 ], [ 110.524999445000049, -66.28168412399998 ], [ 110.525132218000067, -66.281725354999935 ] ] ] ] } },
{ "type": "Feature", "properties": { "SHAPE_Leng": 0.00064856902, "SHAPE_Area": 1.175e-08, "Area": 59, "Station": "Casey", "Ice_free": 1, "Name": null, "Status": 5 }, "geometry": { "type": "MultiPolygon", "coordinates": [ [ [ [ 110.524736662000066, -66.281658694999976 ], [ 110.524995432000082, -66.281721920999985 ], [ 110.524948519000077, -66.281755859999976 ], [ 110.524689749000061, -66.281692633999967 ], [ 110.524736662000066, -66.281658694999976 ] ] ] ] } },
{ "type": "Feature", "properties": { "SHAPE_Leng": 0.00024917497, "SHAPE_Area": 2.82e-09, "Area": 14, "Station": "Casey", "Ice_free": 1, "Name": null, "Status": 5 }, "geometry": { "type": "MultiPolygon", "coordinates": [ [ [ [ 110.525264065000044, -66.281856821999952 ], [ 110.525206951000087, -66.281889189999958 ], [ 110.525150685000085, -66.281871640999952 ], [ 110.525207799000043, -66.281839272999946 ], [ 110.525264065000044, -66.281856821999952 ] ] ] ] } },
{ "type": "Feature", "properties": { "SHAPE_Leng": 0.00033265314, "SHAPE_Area": 4.17e-09, "Area": 21, "Station": "Casey", "Ice_free": 1, "Name": null, "Status": 5 }, "geometry": { "type": "MultiPolygon", "coordinates": [ [ [ [ 110.525108594000073, -66.281831588999978 ], [ 110.52506644500005, -66.281855475999976 ], [ 110.524953912000058, -66.281820377999964 ], [ 110.524996060000035, -66.281796490999966 ], [ 110.525108594000073, -66.281831588999978 ] ] ] ] } },
{ "type": "Feature", "properties": { "SHAPE_Leng": 0.00071280216, "SHAPE_Area": 3.153e-08, "Area": 158, "Station": "Casey", "Ice_free": 1, "Name": null, "Status": 5 }, "geometry": { "type": "MultiPolygon", "coordinates": [ [ [ [ 110.524334261000035, -66.28156359999997 ], [ 110.524356714000078, -66.281734030999985 ], [ 110.524172266000051, -66.281738325999981 ], [ 110.524149814000054, -66.281567894999966 ], [ 110.524334261000035, -66.28156359999997 ] ] ] ] } },
{ "type": "Feature", "properties": { "SHAPE_Leng": 0.00033769892, "SHAPE_Area": 5.75e-09, "Area": 29, "Station": "Casey", "Ice_free": 1, "Name": null, "Status": 5 }, "geometry": { "type": "MultiPolygon", "coordinates": [ [ [ [ 110.525467087000038, -66.281748755999956 ], [ 110.525345599000048, -66.281749238999964 ], [ 110.525344533000066, -66.281701890999955 ], [ 110.525466021000057, -66.281701406999957 ], [ 110.525467087000038, -66.281748755999956 ] ] ] ] } },
{ "type": "Feature", "properties": { "SHAPE_Leng": 0.0008242056, "SHAPE_Area": 2.413e-08, "Area": 121, "Station": "Casey", "Ice_free": 1, "Name": null, "Status": 5 }, "geometry": { "type": "MultiPolygon", "coordinates": [ [ [ [ 110.523960727000087, -66.281384744999968 ], [ 110.523619350000047, -66.281387217999963 ], [ 110.523616454000035, -66.281316559999937 ], [ 110.523957830000086, -66.281314086999942 ], [ 110.523960727000087, -66.281384744999968 ] ] ] ] } },
{ "type": "Feature", "properties": { "SHAPE_Leng": 0.0006577558, "SHAPE_Area": 1.591e-08, "Area": 80, "Station": "Casey", "Ice_free": 1, "Name": null, "Status": 5 }, "geometry": { "type": "MultiPolygon", "coordinates": [ [ [ [ 110.523319113000071, -66.281510580999964 ], [ 110.523313982000047, -66.281569510999987 ], [ 110.52304428900004, -66.281565359999945 ], [ 110.523049420000063, -66.281506429999979 ], [ 110.523319113000071, -66.281510580999964 ] ] ] ] } },
{ "type": "Feature", "properties": { "SHAPE_Leng": 0.00032133649, "SHAPE_Area": 4.48e-09, "Area": 22, "Station": "Casey", "Ice_free": 1, "Name": null, "Status": 5 }, "geometry": { "type": "MultiPolygon", "coordinates": [ [ [ [ 110.523330963000035, -66.281432606999942 ], [ 110.523332578000065, -66.281468507999932 ], [ 110.523207851000052, -66.281469498999968 ], [ 110.523206236000078, -66.281433597999978 ], [ 110.523330963000035, -66.281432606999942 ] ] ] ] } },
{ "type": "Feature", "properties": { "SHAPE_Leng": 0.00051484625, "SHAPE_Area": 1.246e-08, "Area": 62, "Station": "Casey", "Ice_free": 1, "Name": null, "Status": 5 }, "geometry": { "type": "MultiPolygon", "coordinates": [ [ [ [ 110.522912369000039, -66.282223850999969 ], [ 110.522910988000035, -66.282288495999978 ], [ 110.522718226000052, -66.282287767999946 ], [ 110.522719607000056, -66.282223122999937 ], [ 110.522912369000039, -66.282223850999969 ] ] ] ] } },
{ "type": "Feature", "properties": { "SHAPE_Leng": 0.0003213508, "SHAPE_Area": 5.52e-09, "Area": 28, "Station": "Casey", "Ice_free": 1, "Name": null, "Status": 5 }, "geometry": { "type": "MultiPolygon", "coordinates": [ [ [ [ 110.521763932000056, -66.281102720999968 ], [ 110.521656630000052, -66.281096309999953 ], [ 110.521673661000079, -66.281045927999969 ], [ 110.521780962000037, -66.281052338999984 ], [ 110.521763932000056, -66.281102720999968 ] ] ] ] } },
{ "type": "Feature", "properties": { "SHAPE_Leng": 0.00030953957, "SHAPE_Area": 3.69e-09, "Area": 18, "Station": "Casey", "Ice_free": 1, "Name": null, "Status": 5 }, "geometry": { "type": "MultiPolygon", "coordinates": [ [ [ [ 110.521025780000059, -66.28119688299995 ], [ 110.521022722000055, -66.281226279999942 ], [ 110.520897529000081, -66.281223977999957 ], [ 110.520900587000085, -66.281194580999966 ], [ 110.521025780000059, -66.28119688299995 ] ] ] ] } },
{ "type": "Feature", "properties": { "SHAPE_Leng": 0.00042815114, "SHAPE_Area": 5.49e-09, "Area": 28, "Station": "Casey", "Ice_free": 1, "Name": null, "Status": 5 }, "geometry": { "type": "MultiPolygon", "coordinates": [ [ [ [ 110.522019237000052, -66.281307067999933 ], [ 110.522019715000056, -66.281336885999963 ], [ 110.52183546200007, -66.281337406999967 ], [ 110.521834984000066, -66.281307588999937 ], [ 110.522019237000052, -66.281307067999933 ] ] ] ] } },
{ "type": "Feature", "properties": { "SHAPE_Leng": 0.00026162246, "SHAPE_Area": 2.63e-09, "Area": 13, "Station": "Casey", "Ice_free": 1, "Name": null, "Status": 5 }, "geometry": { "type": "MultiPolygon", "coordinates": [ [ [ [ 110.522132648000081, -66.281289218999973 ], [ 110.522123529000055, -66.281313883999985 ], [ 110.522019237000052, -66.281307067999933 ], [ 110.522028356000078, -66.281282402999977 ], [ 110.522132648000081, -66.281289218999973 ] ] ] ] } },
{ "type": "Feature", "properties": { "SHAPE_Leng": 0.00025509744, "SHAPE_Area": 2.96e-09, "Area": 15, "Station": "Casey", "Ice_free": 1, "Name": null, "Status": 5 }, "geometry": { "type": "MultiPolygon", "coordinates": [ [ [ [ 110.521431718000088, -66.281075939999937 ], [ 110.521380795000084, -66.281089230999953 ], [ 110.521318763000068, -66.281047218999959 ], [ 110.521369686000071, -66.281033927999943 ], [ 110.521431718000088, -66.281075939999937 ] ] ] ] } },
{ "type": "Feature", "properties": { "SHAPE_Leng": 0.00062287339, "SHAPE_Area": 1.642e-08, "Area": 82, "Station": "Casey", "Ice_free": 1, "Name": null, "Status": 5 }, "geometry": { "type": "MultiPolygon", "coordinates": [ [ [ [ 110.52361094400004, -66.282847318999984 ], [ 110.523610323000071, -66.282914552999955 ], [ 110.523366123000073, -66.282914153999968 ], [ 110.523366744000043, -66.282846920999987 ], [ 110.52361094400004, -66.282847318999984 ] ] ] ] } },
{ "type": "Feature", "properties": { "SHAPE_Leng": 0.00037437255, "SHAPE_Area": 4.13e-09, "Area": 21, "Station": "Casey", "Ice_free": 1, "Name": null, "Status": 5 }, "geometry": { "type": "MultiPolygon", "coordinates": [ [ [ [ 110.535952587000054, -66.283139745999961 ], [ 110.535937924000052, -66.283164366999983 ], [ 110.535780265000085, -66.28314777199995 ], [ 110.535794929000076, -66.283123150999984 ], [ 110.535952587000054, -66.283139745999961 ] ] ] ] } },
{ "type": "Feature", "properties": { "SHAPE_Leng": 0.00039099583, "SHAPE_Area": 5.83e-09, "Area": 29, "Station": "Casey", "Ice_free": 1, "Name": null, "Status": 5 }, "geometry": { "type": "MultiPolygon", "coordinates": [ [ [ [ 110.535307597000042, -66.282189173999939 ], [ 110.535358586000086, -66.282217698999943 ], [ 110.535227882000072, -66.28225899399996 ], [ 110.535176893000084, -66.282230468999956 ], [ 110.535307597000042, -66.282189173999939 ] ] ] ] } },
{ "type": "Feature", "properties": { "SHAPE_Leng": 0.0003040426, "SHAPE_Area": 3.27e-09, "Area": 16, "Station": "Casey", "Ice_free": 1, "Name": null, "Status": 5 }, "geometry": { "type": "MultiPolygon", "coordinates": [ [ [ [ 110.533978884000078, -66.282069105999938 ], [ 110.533975416000033, -66.282095054999957 ], [ 110.533849610000061, -66.282092083999942 ], [ 110.53385307800005, -66.282066133999933 ], [ 110.533978884000078, -66.282069105999938 ] ] ] ] } },
{ "type": "Feature", "properties": { "SHAPE_Leng": 0.00057737032, "SHAPE_Area": 6.68e-09, "Area": 33, "Station": "Wilkes", "Ice_free": 1, "Name": null, "Status": 1 }, "geometry": { "type": "MultiPolygon", "coordinates": [ [ [ [ 110.524852002000046, -66.257614939999939 ], [ 110.525114303000066, -66.257602087999942 ], [ 110.525121253000066, -66.257627213999967 ], [ 110.524858952000045, -66.257640065999965 ], [ 110.524852002000046, -66.257614939999939 ] ] ] ] } },
{ "type": "Feature", "properties": { "SHAPE_Leng": 0.0005921511, "SHAPE_Area": 7.72e-09, "Area": 39, "Station": "Wilkes", "Ice_free": 1, "Name": null, "Status": 1 }, "geometry": { "type": "MultiPolygon", "coordinates": [ [ [ [ 110.525134196000067, -66.25760024799996 ], [ 110.525398529000086, -66.257579308999937 ], [ 110.525411150000082, -66.257607528999984 ], [ 110.525146816000074, -66.25762846899994 ], [ 110.525134196000067, -66.25760024799996 ] ] ] ] } },
{ "type": "Feature", "properties": { "SHAPE_Leng": 0.00057131704, "SHAPE_Area": 7.59e-09, "Area": 38, "Station": "Wilkes", "Ice_free": 1, "Name": null, "Status": 1 }, "geometry": { "type": "MultiPolygon", "coordinates": [ [ [ [ 110.525432255000055, -66.257568816999935 ], [ 110.525425452000036, -66.257539363999967 ], [ 110.525680669000053, -66.257528921999949 ], [ 110.525687472000072, -66.257558373999984 ], [ 110.525432255000055, -66.257568816999935 ] ] ] ] } },
{ "type": "Feature", "properties": { "SHAPE_Leng": 0.00178406376, "SHAPE_Area": 6.312e-08, "Area": 316, "Station": "Wilkes", "Ice_free": 1, "Name": null, "Status": 1 }, "geometry": { "type": "MultiPolygon", "coordinates": [ [ [ [ 110.52718675300008, -66.257137333999935 ], [ 110.527177362000089, -66.257214681999983 ], [ 110.526363433000085, -66.257197174999988 ], [ 110.526372826000056, -66.257119827999986 ], [ 110.52718675300008, -66.257137333999935 ] ] ] ] } },
{ "type": "Feature", "properties": { "SHAPE_Leng": 0.00031079753, "SHAPE_Area": 5.96e-09, "Area": 30, "Station": "Wilkes", "Ice_free": 1, "Name": null, "Status": 1 }, "geometry": { "type": "MultiPolygon", "coordinates": [ [ [ [ 110.52696889200007, -66.257325253999966 ], [ 110.52705222600008, -66.257327655999973 ], [ 110.527048638000053, -66.257395532999965 ], [ 110.526962062000052, -66.257397784999966 ], [ 110.52696889200007, -66.257325253999966 ] ] ] ] } },
{ "type": "Feature", "properties": { "SHAPE_Leng": 0.00067084505, "SHAPE_Area": 1.545e-08, "Area": 77, "Station": "Wilkes", "Ice_free": 1, "Name": null, "Status": 1 }, "geometry": { "type": "MultiPolygon", "coordinates": [ [ [ [ 110.526937310000051, -66.257347835999951 ], [ 110.526943438000046, -66.257410039999968 ], [ 110.52682827600006, -66.257410582999967 ], [ 110.526832336000041, -66.257398551999984 ], [ 110.526671058000034, -66.25739704199998 ], [ 110.526672202000043, -66.257343011999978 ], [ 110.526937310000051, -66.257347835999951 ] ] ] ] } },
{ "type": "Feature", "properties": { "SHAPE_Leng": 0.0018258596, "SHAPE_Area": 5.65e-08, "Area": 283, "Station": "Wilkes", "Ice_free": 1, "Name": null, "Status": 1 }, "geometry": { "type": "MultiPolygon", "coordinates": [ [ [ [ 110.527211555000065, -66.25692870599994 ], [ 110.526365815000077, -66.256912859999943 ], [ 110.526372868000067, -66.256846188999987 ], [ 110.527218605000087, -66.256862034999983 ], [ 110.527211555000065, -66.25692870599994 ] ] ] ] } },
{ "type": "Feature", "properties": { "SHAPE_Leng": 0.00056381575, "SHAPE_Area": 1.53e-08, "Area": 77, "Station": "Wilkes", "Ice_free": 1, "Name": null, "Status": 1 }, "geometry": { "type": "MultiPolygon", "coordinates": [ [ [ [ 110.526762369000039, -66.256920290999972 ], [ 110.526741816000083, -66.257127474999947 ], [ 110.526668120000068, -66.257126179999943 ], [ 110.52668867400007, -66.256918995999968 ], [ 110.526762369000039, -66.256920290999972 ] ] ] ] } },
{ "type": "Feature", "properties": { "SHAPE_Leng": 0.0007673177, "SHAPE_Area": 2.105e-08, "Area": 105, "Station": "Wilkes", "Ice_free": 1, "Name": null, "Status": 1 }, "geometry": { "type": "MultiPolygon", "coordinates": [ [ [ [ 110.526674065000066, -66.257066259999988 ], [ 110.526357057000041, -66.257060687999967 ], [ 110.526363633000074, -66.256994410999937 ], [ 110.526680640000052, -66.256999982999957 ], [ 110.526674065000066, -66.257066259999988 ] ] ] ] } },
{ "type": "Feature", "properties": { "SHAPE_Leng": 0.00044782521, "SHAPE_Area": 7.39e-09, "Area": 37, "Station": "Wilkes", "Ice_free": 1, "Name": null, "Status": 1 }, "geometry": { "type": "MultiPolygon", "coordinates": [ [ [ [ 110.526368614000035, -66.256886399999985 ], [ 110.526185169000087, -66.256882961999963 ], [ 110.526189423000062, -66.256842750999965 ], [ 110.526372868000067, -66.256846188999987 ], [ 110.526368614000035, -66.256886399999985 ] ] ] ] } },
{ "type": "Feature", "properties": { "SHAPE_Leng": 0.00085582941, "SHAPE_Area": 2.217e-08, "Area": 111, "Station": "Wilkes", "Ice_free": 1, "Name": null, "Status": 1 }, "geometry": { "type": "MultiPolygon", "coordinates": [ [ [ [ 110.526493543000072, -66.25677985599998 ], [ 110.526499399000045, -66.256719591999968 ], [ 110.526866711000082, -66.256725913999958 ], [ 110.526860856000042, -66.25678617799997 ], [ 110.526493543000072, -66.25677985599998 ] ] ] ] } },
{ "type": "Feature", "properties": { "SHAPE_Leng": 0.00060803413, "SHAPE_Area": 1.377e-08, "Area": 69, "Station": "Wilkes", "Ice_free": 1, "Name": null, "Status": 1 }, "geometry": { "type": "MultiPolygon", "coordinates": [ [ [ [ 110.526405906000036, -66.256769847999976 ], [ 110.526158068000086, -66.25676230199997 ], [ 110.526167566000083, -66.256707046999963 ], [ 110.526415402000055, -66.25671459299997 ], [ 110.526405906000036, -66.256769847999976 ] ] ] ] } },
{ "type": "Feature", "properties": { "SHAPE_Leng": 0.00037683258, "SHAPE_Area": 5.45e-09, "Area": 27, "Station": "Wilkes", "Ice_free": 1, "Name": null, "Status": 1 }, "geometry": { "type": "MultiPolygon", "coordinates": [ [ [ [ 110.526253738000037, -66.256765214999973 ], [ 110.526405906000036, -66.256769847999976 ], [ 110.526399778000041, -66.256805502999953 ], [ 110.526247610000041, -66.25680086999995 ], [ 110.526253738000037, -66.256765214999973 ] ] ] ] } },
{ "type": "Feature", "properties": { "SHAPE_Leng": 0.00027527977, "SHAPE_Area": 2.71e-09, "Area": 14, "Station": "Wilkes", "Ice_free": 1, "Name": null, "Status": 1 }, "geometry": { "type": "MultiPolygon", "coordinates": [ [ [ [ 110.526247610000041, -66.25680086999995 ], [ 110.526361096000073, -66.256804324999962 ], [ 110.526357014000041, -66.256828077999955 ], [ 110.526243527000076, -66.256824621999954 ], [ 110.526247610000041, -66.25680086999995 ] ] ] ] } },
{ "type": "Feature", "properties": { "SHAPE_Leng": 0.00065657818, "SHAPE_Area": 1.331e-08, "Area": 67, "Station": "Wilkes", "Ice_free": 1, "Name": null, "Status": 1 }, "geometry": { "type": "MultiPolygon", "coordinates": [ [ [ [ 110.52693378400005, -66.256693910999957 ], [ 110.526865796000038, -66.256669129999977 ], [ 110.527095977000045, -66.256557258999976 ], [ 110.527163964000067, -66.256582039999955 ], [ 110.52693378400005, -66.256693910999957 ] ] ] ] } },
{ "type": "Feature", "properties": { "SHAPE_Leng": 0.00039192488, "SHAPE_Area": 6.56e-09, "Area": 33, "Station": "Wilkes", "Ice_free": 1, "Name": null, "Status": 1 }, "geometry": { "type": "MultiPolygon", "coordinates": [ [ [ [ 110.526973389000034, -66.256616838999946 ], [ 110.526865796000038, -66.256669129999977 ], [ 110.526794076000044, -66.256642988999943 ], [ 110.52690166900004, -66.256590697999968 ], [ 110.526973389000034, -66.256616838999946 ] ] ] ] } },
{ "type": "Feature", "properties": { "SHAPE_Leng": 0.00026662272, "SHAPE_Area": 4.04e-09, "Area": 20, "Station": "Wilkes", "Ice_free": 1, "Name": null, "Status": 1 }, "geometry": { "type": "MultiPolygon", "coordinates": [ [ [ [ 110.526585855000064, -66.256721079999977 ], [ 110.526499399000045, -66.256719591999968 ], [ 110.526503929000057, -66.256672968999965 ], [ 110.526590385000077, -66.256674456999974 ], [ 110.526585855000064, -66.256721079999977 ] ] ] ] } },
{ "type": "Feature", "properties": { "SHAPE_Leng": 0.0002973701, "SHAPE_Area": 5.17e-09, "Area": 26, "Station": "Wilkes", "Ice_free": 1, "Name": null, "Status": 1 }, "geometry": { "type": "MultiPolygon", "coordinates": [ [ [ [ 110.526107464000063, -66.256683288999966 ], [ 110.526106773000038, -66.25662792199995 ], [ 110.526200086000074, -66.256627714999979 ], [ 110.526200778000089, -66.256683081999938 ], [ 110.526107464000063, -66.256683288999966 ] ] ] ] } },
{ "type": "Feature", "properties": { "SHAPE_Leng": 0.00048080961, "SHAPE_Area": 1.052e-08, "Area": 53, "Station": "Wilkes", "Ice_free": 1, "Name": null, "Status": 1 }, "geometry": { "type": "MultiPolygon", "coordinates": [ [ [ [ 110.527605622000067, -66.256890422999959 ], [ 110.527599703000078, -66.256947914999955 ], [ 110.527417124000067, -66.256944584999985 ], [ 110.527423044000045, -66.256887092999932 ], [ 110.527605622000067, -66.256890422999959 ] ] ] ] } },
{ "type": "Feature", "properties": { "SHAPE_Leng": 0.00026765933, "SHAPE_Area": 3.68e-09, "Area": 18, "Station": "Wilkes", "Ice_free": 1, "Name": null, "Status": 1 }, "geometry": { "type": "MultiPolygon", "coordinates": [ [ [ [ 110.527453524000066, -66.256945248999955 ], [ 110.527471140000046, -66.257037955999976 ], [ 110.527431699000033, -66.257039283999973 ], [ 110.527414083000053, -66.256946575999962 ], [ 110.527453524000066, -66.256945248999955 ] ] ] ] } },
{ "type": "Feature", "properties": { "SHAPE_Leng": 0.00081137822, "SHAPE_Area": 2.131e-08, "Area": 107, "Station": "Wilkes", "Ice_free": 1, "Name": null, "Status": 1 }, "geometry": { "type": "MultiPolygon", "coordinates": [ [ [ [ 110.527585226000042, -66.257033439999987 ], [ 110.52792856700006, -66.257027169999958 ], [ 110.527934955000035, -66.257089131999976 ], [ 110.527591613000084, -66.257095401999948 ], [ 110.527585226000042, -66.257033439999987 ] ] ] ] } },
{ "type": "Feature", "properties": { "SHAPE_Leng": 0.00062217814, "SHAPE_Area": 1.323e-08, "Area": 66, "Station": "Wilkes", "Ice_free": 1, "Name": null, "Status": 1 }, "geometry": { "type": "MultiPolygon", "coordinates": [ [ [ [ 110.527676539000083, -66.256900993999977 ], [ 110.527669088000039, -66.256850258999975 ], [ 110.527928810000049, -66.25684350299997 ], [ 110.527936261000036, -66.256894237999973 ], [ 110.527676539000083, -66.256900993999977 ] ] ] ] } },
{ "type": "Feature", "properties": { "SHAPE_Leng": 0.00018053485, "SHAPE_Area": 1.0000000000000001e-09, "Area": 5, "Station": "Wilkes", "Ice_free": 1, "Name": null, "Status": 1 }, "geometry": { "type": "MultiPolygon", "coordinates": [ [ [ [ 110.527676539000083, -66.256900993999977 ], [ 110.527679748000082, -66.256913901999951 ], [ 110.527602856000044, -66.256917287999954 ], [ 110.527599647000045, -66.25690437999998 ], [ 110.527676539000083, -66.256900993999977 ] ] ] ] } },
{ "type": "Feature", "properties": { "SHAPE_Leng": 0.00035471988, "SHAPE_Area": 2.97e-09, "Area": 15, "Station": "Wilkes", "Ice_free": 1, "Name": null, "Status": 1 }, "geometry": { "type": "MultiPolygon", "coordinates": [ [ [ [ 110.527590153000062, -66.25708124099998 ], [ 110.527431699000033, -66.257039283999973 ], [ 110.527471140000046, -66.257037955999976 ], [ 110.527586489000043, -66.257045695999977 ], [ 110.527590153000062, -66.25708124099998 ] ] ] ] } },
{ "type": "Feature", "properties": { "SHAPE_Leng": 0.00039979506, "SHAPE_Area": 7.74e-09, "Area": 39, "Station": "Wilkes", "Ice_free": 1, "Name": null, "Status": 1 }, "geometry": { "type": "MultiPolygon", "coordinates": [ [ [ [ 110.529176780000057, -66.256415933999961 ], [ 110.529185020000057, -66.256363372999942 ], [ 110.529331658000046, -66.256367445999956 ], [ 110.529323418000047, -66.256420006999974 ], [ 110.529176780000057, -66.256415933999961 ] ] ] ] } },
{ "type": "Feature", "properties": { "SHAPE_Leng": 0.00030800755, "SHAPE_Area": 4.37e-09, "Area": 22, "Station": "Wilkes", "Ice_free": 1, "Name": null, "Status": 1 }, "geometry": { "type": "MultiPolygon", "coordinates": [ [ [ [ 110.527603943000088, -66.25623133299996 ], [ 110.527580646000047, -66.256193880999945 ], [ 110.52768988300005, -66.256181843999968 ], [ 110.527713179000045, -66.256219294999937 ], [ 110.527603943000088, -66.25623133299996 ] ] ] ] } },
{ "type": "Feature", "properties": { "SHAPE_Leng": 0.00018800009, "SHAPE_Area": 2.19e-09, "Area": 11, "Station": "Wilkes", "Ice_free": 1, "Name": null, "Status": 1 }, "geometry": { "type": "MultiPolygon", "coordinates": [ [ [ [ 110.526568756000074, -66.256275508999977 ], [ 110.526620072000071, -66.256275030999973 ], [ 110.526622312000086, -66.256317653999986 ], [ 110.526570996000089, -66.256318131999933 ], [ 110.526568756000074, -66.256275508999977 ] ] ] ] } },
{ "type": "Feature", "properties": { "SHAPE_Leng": 0.00039665689, "SHAPE_Area": 7.29e-09, "Area": 37, "Station": "Wilkes", "Ice_free": 1, "Name": null, "Status": 1 }, "geometry": { "type": "MultiPolygon", "coordinates": [ [ [ [ 110.523541674000057, -66.256589203999965 ], [ 110.523551049000048, -66.256540475999941 ], [ 110.523699669000052, -66.25654554099998 ], [ 110.523690294000062, -66.256594269999937 ], [ 110.523541674000057, -66.256589203999965 ] ] ] ] } },
{ "type": "Feature", "properties": { "SHAPE_Leng": 0.00021100161, "SHAPE_Area": 3.54e-09, "Area": 8, "Station": "Wilkes", "Ice_free": 1, "Name": null, "Status": 1 }, "geometry": { "type": "MultiPolygon", "coordinates": [ [ [ [ 110.530897694000089, -66.256212347999963 ], [ 110.530897290011396, -66.25620650823754 ], [ 110.530897906224297, -66.256200687042323 ], [ 110.53089952391548, -66.256195061288395 ], [ 110.530902093932227, -66.256189801911432 ], [ 110.530905538185863, -66.256185068714956 ], [ 110.530909752024485, -66.256181005514719 ], [ 110.530914607412754, -66.256177735769043 ], [ 110.530919956822146, -66.256175358827463 ], [ 110.530925637713551, -66.256173946912156 ], [ 110.530931477475974, -66.256173542923463 ], [ 110.530937298671191, -66.256174159136364 ], [ 110.530942924425119, -66.256175776827547 ], [ 110.530948183802082, -66.256178346844294 ], [ 110.530952916998558, -66.25618179109793 ], [ 110.530956980198795, -66.256186004936552 ], [ 110.530960249944471, -66.256190860324821 ], [ 110.530962626886051, -66.256196209734213 ], [ 110.530964038801358, -66.256201890625618 ], [ 110.530964442790051, -66.256207730388041 ], [ 110.53096382657715, -66.256213551583258 ], [ 110.530962208885967, -66.256219177337186 ], [ 110.53095963886922, -66.256224436714149 ], [ 110.530956194615584, -66.256229169910625 ], [ 110.530951980776962, -66.256233233110862 ], [ 110.530947125388693, -66.256236502856538 ], [ 110.530941775979301, -66.256238879798119 ], [ 110.530936095087895, -66.256240291713425 ], [ 110.530930255325472, -66.256240695702118 ], [ 110.530924434130256, -66.256240079489217 ], [ 110.530918808376327, -66.256238461798034 ], [ 110.530913548999365, -66.256235891781287 ], [ 110.530908815802889, -66.256232447527651 ], [ 110.530904752602652, -66.256228233689029 ], [ 110.530901482856976, -66.25622337830076 ], [ 110.530899105915395, -66.256218028891368 ], [ 110.530897694000089, -66.256212347999963 ] ] ] ] } },
{ "type": "Feature", "properties": { "SHAPE_Leng": 0.00055482959, "SHAPE_Area": 1.216e-08, "Area": 61, "Station": "Wilkes", "Ice_free": 1, "Name": null, "Status": 1 }, "geometry": { "type": "MultiPolygon", "coordinates": [ [ [ [ 110.535248874000047, -66.256491805999985 ], [ 110.535078568000074, -66.25656655399996 ], [ 110.534993786000086, -66.256532334999974 ], [ 110.535164092000059, -66.256457586999943 ], [ 110.535248874000047, -66.256491805999985 ] ] ] ] } },
{ "type": "Feature", "properties": { "SHAPE_Leng": 0.00036401837, "SHAPE_Area": 4.43e-09, "Area": 22, "Station": "Wilkes", "Ice_free": 1, "Name": null, "Status": 1 }, "geometry": { "type": "MultiPolygon", "coordinates": [ [ [ [ 110.532802645000061, -66.256973190999986 ], [ 110.532800124000062, -66.256944227999952 ], [ 110.532953043000077, -66.256941870999981 ], [ 110.532955564000076, -66.256970832999968 ], [ 110.532802645000061, -66.256973190999986 ] ] ] ] } },
{ "type": "Feature", "properties": { "SHAPE_Leng": 0.00048885094, "SHAPE_Area": 6.86e-09, "Area": 34, "Station": "Wilkes", "Ice_free": 1, "Name": null, "Status": 1 }, "geometry": { "type": "MultiPolygon", "coordinates": [ [ [ [ 110.53348883600006, -66.256877447999955 ], [ 110.533465664000062, -66.256847004999941 ], [ 110.533669982000049, -66.25681945599996 ], [ 110.533693154000048, -66.256849898999974 ], [ 110.53348883600006, -66.256877447999955 ] ] ] ] } },
{ "type": "Feature", "properties": { "SHAPE_Leng": 0.00053947712, "SHAPE_Area": 6.26e-09, "Area": 31, "Station": "Wilkes", "Ice_free": 1, "Name": null, "Status": 1 }, "geometry": { "type": "MultiPolygon", "coordinates": [ [ [ [ 110.533776498000066, -66.25683986699994 ], [ 110.533755069000051, -66.256816756999967 ], [ 110.533990141000061, -66.256778144999942 ], [ 110.534011570000075, -66.25680125599996 ], [ 110.533776498000066, -66.25683986699994 ] ] ] ] } },
{ "type": "Feature", "properties": { "SHAPE_Leng": 8.204408e-05, "SHAPE_Area": 3.4e-10, "Area": 2, "Station": "Wilkes", "Ice_free": 1, "Name": null, "Status": 1 }, "geometry": { "type": "MultiPolygon", "coordinates": [ [ [ [ 110.533426357000053, -66.256879529999935 ], [ 110.533409260000042, -66.256882288999975 ], [ 110.533393297000089, -66.256864765999978 ], [ 110.533410394000043, -66.256862006999938 ], [ 110.533426357000053, -66.256879529999935 ] ] ] ] } },
{ "type": "Feature", "properties": { "SHAPE_Leng": 0.00018842127, "SHAPE_Area": 1.57e-09, "Area": 8, "Station": "Wilkes", "Ice_free": 1, "Name": null, "Status": 1 }, "geometry": { "type": "MultiPolygon", "coordinates": [ [ [ [ 110.541585622000071, -66.260543387999974 ], [ 110.541612848000057, -66.260571199999958 ], [ 110.541554585000085, -66.260572101999969 ], [ 110.54152978500008, -66.26054701399994 ], [ 110.541585622000071, -66.260543387999974 ] ] ] ] } },
{ "type": "Feature", "properties": { "SHAPE_Leng": 0.00024688985, "SHAPE_Area": 1.79e-09, "Area": 9, "Station": "Wilkes", "Ice_free": 1, "Name": null, "Status": 1 }, "geometry": { "type": "MultiPolygon", "coordinates": [ [ [ [ 110.540947159000041, -66.260547745999986 ], [ 110.540994091000073, -66.260550701999932 ], [ 110.541036444000042, -66.260542987999941 ], [ 110.541063139000073, -66.260556384999973 ], [ 110.541022130000044, -66.260571135999953 ], [ 110.540986530000055, -66.260564321999937 ], [ 110.540952546000085, -66.260559323999985 ], [ 110.540947159000041, -66.260547745999986 ] ] ] ] } },
{ "type": "Feature", "properties": { "SHAPE_Leng": 0.00043263364, "SHAPE_Area": 5.39e-09, "Area": 27, "Station": "Wilkes", "Ice_free": 1, "Name": null, "Status": 1 }, "geometry": { "type": "MultiPolygon", "coordinates": [ [ [ [ 110.540719195000065, -66.260609581999972 ], [ 110.540718643000048, -66.260628310999948 ], [ 110.540659566000045, -66.260636589999933 ], [ 110.540619912000068, -66.260641806999956 ], [ 110.540613989000065, -66.260624098999983 ], [ 110.540536849000034, -66.260617619999948 ], [ 110.540524993000076, -66.260598776999984 ], [ 110.54069060900008, -66.26059958999997 ], [ 110.540719195000065, -66.260609581999972 ] ] ] ] } },
{ "type": "Feature", "properties": { "SHAPE_Leng": 0.00039240149, "SHAPE_Area": 7.44e-09, "Area": 37, "Station": "Casey", "Ice_free": 1, "Name": "Brownings Hut", "Status": 3 }, "geometry": { "type": "MultiPolygon", "coordinates": [ [ [ [ 110.549745826000049, -66.47791118799995 ], [ 110.549813314000062, -66.477966899999956 ], [ 110.54970695600008, -66.477989285999968 ], [ 110.549639468000066, -66.477933574999952 ], [ 110.549745826000049, -66.47791118799995 ] ] ] ] } },
{ "type": "Feature", "properties": { "SHAPE_Leng": 0.00034291291, "SHAPE_Area": 7.23e-09, "Area": 36, "Station": "Casey", "Ice_free": 1, "Name": "Jacks Donga", "Status": 3 }, "geometry": { "type": "MultiPolygon", "coordinates": [ [ [ [ 110.653711924000049, -66.228548587999967 ], [ 110.653622812000037, -66.228545208999947 ], [ 110.653639996000038, -66.228464742999961 ], [ 110.65372910800005, -66.228468121999981 ], [ 110.653711924000049, -66.228548587999967 ] ] ] ] } },
{ "type": "Feature", "properties": { "SHAPE_Leng": 0.00047066487, "SHAPE_Area": 8.72e-09, "Area": 44, "Station": "Casey", "Ice_free": 1, "Name": "Robinsons Ridge", "Status": 3 }, "geometry": { "type": "MultiPolygon", "coordinates": [ [ [ [ 110.585339382000086, -66.373310618999938 ], [ 110.585522491000063, -66.373293471999943 ], [ 110.585546714000088, -66.373338831999945 ], [ 110.585363606000044, -66.373355978999939 ], [ 110.585339382000086, -66.373310618999938 ] ] ] ] } }
]
}
