{
"type": "FeatureCollection",
"name": "routes_windmill",
"crs": { "type": "name", "properties": { "name": "urn:ogc:def:crs:OGC:1.3:CRS84" } },
"features": [
{ "type": "Feature", "properties": { "osm_id": "656642180", "code": 5153, "fclass": "footway", "name": "Shirley Island Walking Route", "ref": null, "oneway": "B", "maxspeed": 0, "layer": 0, "bridge": "F", "tunnel": "F" }, "geometry": { "type": "MultiLineString", "coordinates": [ [ [ 110.5065834, -66.2818302 ], [ 110.5084888, -66.2832325 ], [ 110.5101174, -66.2836978 ], [ 110.5113674, -66.2839556 ], [ 110.5123437, -66.2840333 ], [ 110.5132712, -66.2839597 ], [ 110.5168761, -66.2830028 ], [ 110.5223853, -66.2828259 ], [ 110.5230497, -66.2827171 ], [ 110.5233152, -66.2824733 ], [ 110.5237077, -66.2824288 ] ] ] } },
{ "type": "Feature", "properties": { "osm_id": "656644122", "code": 5115, "fclass": "tertiary", "name": null, "ref": null, "oneway": "B", "maxspeed": 0, "layer": 0, "bridge": "F", "tunnel": "F" }, "geometry": { "type": "MultiLineString", "coordinates": [ [ [ 110.5237077, -66.2824288 ], [ 110.5258002, -66.2823833 ], [ 110.5271521, -66.2823568 ], [ 110.5279084, -66.2822511 ], [ 110.5289063, -66.2821734 ], [ 110.5295836, -66.2821577 ], [ 110.5301535, -66.2821445 ], [ 110.5308533, -66.2822331 ], [ 110.53249, -66.2822533 ], [ 110.5342144, -66.282155 ], [ 110.5345819, -66.2821702 ], [ 110.5349037, -66.2822198 ], [ 110.5352758, -66.2823154 ], [ 110.5356303, -66.2824703 ], [ 110.5360329, -66.2827463 ], [ 110.5366827, -66.2840148 ], [ 110.5372267, -66.2849307 ], [ 110.5373164, -66.2850031 ], [ 110.5374897, -66.28507 ], [ 110.537881, -66.2851693 ], [ 110.5387017, -66.28533 ], [ 110.538986, -66.2854433 ], [ 110.5391796, -66.2855879 ], [ 110.5434507, -66.2889675 ], [ 110.5441171, -66.2892228 ], [ 110.5446353, -66.2893121 ], [ 110.5456033, -66.2893581 ], [ 110.5488592, -66.2892919 ], [ 110.5559293, -66.2888851 ], [ 110.593376, -66.28583 ], [ 110.6102007, -66.2844583 ], [ 110.6559217, -66.2822165 ], [ 110.7396333, -66.2864345 ] ] ] } },
{ "type": "Feature", "properties": { "osm_id": "668187907", "code": 5121, "fclass": "unclassified", "name": null, "ref": null, "oneway": "B", "maxspeed": 0, "layer": 0, "bridge": "F", "tunnel": "F" }, "geometry": { "type": "MultiLineString", "coordinates": [ [ [ 110.593376, -66.28583 ], [ 110.6021334, -66.2772668 ], [ 110.6022326, -66.2770605 ], [ 110.6020175, -66.2768556 ], [ 110.5927296, -66.2713256 ], [ 110.5794473, -66.2635964 ], [ 110.5741358, -66.261704 ], [ 110.573718, -66.2614823 ], [ 110.5735452, -66.2611839 ], [ 110.5734381, -66.2592456 ], [ 110.5736188, -66.2591066 ], [ 110.5809083, -66.2574412 ], [ 110.5810377, -66.2573844 ], [ 110.5810553, -66.2573032 ], [ 110.5809103, -66.2572494 ], [ 110.5807105, -66.2572275 ], [ 110.5668758, -66.2566089 ], [ 110.5665265, -66.2566649 ], [ 110.5629919, -66.2583184 ], [ 110.5572647, -66.2588316 ], [ 110.556045, -66.258867 ], [ 110.5422356, -66.2583119 ], [ 110.5351076, -66.2571262 ], [ 110.5349171, -66.2570674 ], [ 110.5348957, -66.2569799 ], [ 110.5352659, -66.2567374 ] ] ] } },
{ "type": "Feature", "properties": { "osm_id": "668187908", "code": 5121, "fclass": "unclassified", "name": null, "ref": null, "oneway": "B", "maxspeed": 0, "layer": 0, "bridge": "F", "tunnel": "F" }, "geometry": { "type": "MultiLineString", "coordinates": [ [ [ 110.6559217, -66.2822165 ], [ 110.6560481, -66.2801875 ], [ 110.6537606, -66.2566661 ], [ 110.6541228, -66.2558912 ], [ 110.6600153, -66.2483161 ], [ 110.6655247, -66.2409672 ], [ 110.6655073, -66.2406443 ], [ 110.6627083, -66.2357078 ], [ 110.6605276, -66.2307526 ], [ 110.6603266, -66.2306222 ], [ 110.6532429, -66.2286779 ] ] ] } },
{ "type": "Feature", "properties": { "osm_id": "786955699", "code": 5121, "fclass": "unclassified", "name": null, "ref": null, "oneway": "B", "maxspeed": 0, "layer": 0, "bridge": "F", "tunnel": "F" }, "geometry": { "type": "MultiLineString", "coordinates": [ [ [ 110.5279084, -66.2822511 ], [ 110.5258114, -66.2820457 ], [ 110.5252799, -66.281949 ], [ 110.524207, -66.2816415 ], [ 110.5240757, -66.2813999 ], [ 110.5230162, -66.281415 ], [ 110.5223369, -66.2812179 ], [ 110.5217367, -66.2810438 ] ] ] } },
{ "type": "Feature", "properties": { "osm_id": "786955701", "code": 5121, "fclass": "unclassified", "name": null, "ref": null, "oneway": "B", "maxspeed": 0, "layer": 0, "bridge": "F", "tunnel": "F" }, "geometry": { "type": "MultiLineString", "coordinates": [ [ [ 110.5301535, -66.2821445 ], [ 110.5311291, -66.2814793 ], [ 110.533871, -66.2801374 ], [ 110.5348313, -66.279803 ], [ 110.5364668, -66.2793462 ], [ 110.5366915, -66.2792566 ], [ 110.5372855, -66.2789085 ], [ 110.5377549, -66.2782001 ], [ 110.5376986, -66.2781057 ], [ 110.537594, -66.278055 ], [ 110.5374625, -66.278035 ], [ 110.5373298, -66.2780442 ], [ 110.5371273, -66.2780852 ], [ 110.5369515, -66.2780858 ], [ 110.5366002, -66.278034 ], [ 110.5362582, -66.2779385 ], [ 110.5361938, -66.2779331 ], [ 110.5361281, -66.2779417 ], [ 110.5358733, -66.2780464 ], [ 110.5350456, -66.2780726 ], [ 110.534382, -66.2780075 ] ] ] } },
{ "type": "Feature", "properties": { "osm_id": "881184920", "code": 5121, "fclass": "unclassified", "name": null, "ref": null, "oneway": "B", "maxspeed": 0, "layer": 0, "bridge": "F", "tunnel": "F" }, "geometry": { "type": "MultiLineString", "coordinates": [ [ [ 110.5856297, -66.373182 ], [ 110.5954153, -66.3722299 ], [ 110.5968027, -66.3719707 ], [ 110.5977613, -66.3714779 ], [ 110.5999877, -66.3698795 ], [ 110.6017148, -66.3692997 ], [ 110.6025624, -66.3691858 ], [ 110.6072992, -66.3691689 ], [ 110.6097722, -66.3690267 ], [ 110.6132913, -66.3689234 ], [ 110.6297567, -66.3685537 ], [ 110.6320613, -66.3691664 ], [ 110.6380695, -66.3709683 ], [ 110.6468646, -66.3742081 ], [ 110.6472389, -66.374241 ], [ 110.6475121, -66.3741474 ], [ 110.6670197, -66.3581223 ], [ 110.6747446, -66.3527839 ], [ 110.6748879, -66.3525292 ], [ 110.6745949, -66.35232 ], [ 110.6167372, -66.3247166 ], [ 110.5632698, -66.2911848 ], [ 110.5559293, -66.2888851 ] ] ] } },
{ "type": "Feature", "properties": { "osm_id": "881186491", "code": 5121, "fclass": "unclassified", "name": null, "ref": null, "oneway": "B", "maxspeed": 0, "layer": 0, "bridge": "F", "tunnel": "F" }, "geometry": { "type": "MultiLineString", "coordinates": [ [ [ 111.4781764, -66.6694513 ], [ 111.4781766, -66.6697785 ], [ 111.4780794, -66.6699993 ], [ 111.477816, -66.6702156 ], [ 111.4757286, -66.6710311 ], [ 111.474053, -66.6714934 ], [ 111.4738834, -66.6715785 ], [ 111.4738294, -66.6716667 ], [ 111.4739048, -66.6717453 ], [ 111.4740792, -66.671808 ], [ 111.4757822, -66.6719814 ], [ 111.4827915, -66.6730977 ] ] ] } },
{ "type": "Feature", "properties": { "osm_id": "881186492", "code": 5121, "fclass": "unclassified", "name": null, "ref": null, "oneway": "B", "maxspeed": 0, "layer": 0, "bridge": "F", "tunnel": "F" }, "geometry": { "type": "MultiLineString", "coordinates": [ [ [ 111.2971771, -66.5586147 ], [ 111.2929936, -66.5578859 ], [ 111.2927628, -66.5576908 ], [ 111.2937148, -66.5568241 ] ] ] } },
{ "type": "Feature", "properties": { "osm_id": "881186493", "code": 5115, "fclass": "tertiary", "name": "A-Line", "ref": null, "oneway": "B", "maxspeed": 0, "layer": 0, "bridge": "F", "tunnel": "F" }, "geometry": { "type": "MultiLineString", "coordinates": [ [ [ 111.4863006, -66.6856027 ], [ 111.4914947, -66.6831201 ], [ 111.4936546, -66.6815794 ], [ 111.4938836, -66.6812006 ], [ 111.4937881, -66.6810044 ], [ 111.4827915, -66.6730977 ], [ 111.4781764, -66.6694513 ], [ 111.4547236, -66.6469224 ], [ 111.4543013, -66.6466155 ], [ 111.2971771, -66.5586147 ], [ 111.2937148, -66.5568241 ], [ 111.1457444, -66.4739623 ], [ 110.997774, -66.3908243 ], [ 110.9961403, -66.3899986 ], [ 110.9943292, -66.3893674 ], [ 110.7364919, -66.3189081 ], [ 110.6559217, -66.2822165 ] ] ] } },
{ "type": "Feature", "properties": { "osm_id": "909468078", "code": 5121, "fclass": "unclassified", "name": "B-Line", "ref": null, "oneway": "B", "maxspeed": 0, "layer": 0, "bridge": "F", "tunnel": "F" }, "geometry": { "type": "MultiLineString", "coordinates": [ [ [ 110.9943292, -66.3893674 ], [ 110.9915572, -66.3937438 ], [ 110.9885673, -66.3974103 ], [ 110.9182148, -66.4762565 ], [ 110.9162775, -66.4775186 ], [ 110.9091679, -66.4815984 ], [ 110.8057251, -66.5358047 ], [ 110.804103, -66.5361779 ], [ 110.7389042, -66.5402939 ], [ 110.7377558, -66.5401974 ], [ 110.5761474, -66.4949584 ], [ 110.5604457, -66.4867478 ], [ 110.5515836, -66.4783001 ], [ 110.5513108, -66.4781589 ], [ 110.5510419, -66.4781085 ], [ 110.5500977, -66.4780593 ] ] ] } },
{ "type": "Feature", "properties": { "osm_id": "1150475967", "code": 5153, "fclass": "footway", "name": "Ski Loop", "ref": null, "oneway": "B", "maxspeed": 0, "layer": 0, "bridge": "F", "tunnel": "F" }, "geometry": { "type": "MultiLineString", "coordinates": [ [ [ 110.5258002, -66.2823833 ], [ 110.5257976, -66.2827182 ], [ 110.5284798, -66.2826966 ], [ 110.5292254, -66.2827236 ], [ 110.5322215, -66.2832026 ], [ 110.5348554, -66.2834777 ], [ 110.5355608, -66.2836968 ], [ 110.5358478, -66.2839093 ], [ 110.5359256, -66.284057 ], [ 110.535939, -66.2845889 ] ] ] } },
{ "type": "Feature", "properties": { "osm_id": "1150475968", "code": 5121, "fclass": "unclassified", "name": null, "ref": null, "oneway": "B", "maxspeed": 0, "layer": 0, "bridge": "F", "tunnel": "F" }, "geometry": { "type": "MultiLineString", "coordinates": [ [ [ 110.5237077, -66.2824288 ], [ 110.5225253, -66.2822241 ] ] ] } },
{ "type": "Feature", "properties": { "osm_id": "1150475969", "code": 5121, "fclass": "unclassified", "name": null, "ref": null, "oneway": "B", "maxspeed": 0, "layer": 0, "bridge": "F", "tunnel": "F" }, "geometry": { "type": "MultiLineString", "coordinates": [ [ [ 110.5223369, -66.2812179 ], [ 110.5208918, -66.281306 ] ] ] } },
{ "type": "Feature", "properties": { "osm_id": "1150475970", "code": 5153, "fclass": "footway", "name": "Ski Loop", "ref": null, "oneway": "B", "maxspeed": 0, "layer": 0, "bridge": "F", "tunnel": "F" }, "geometry": { "type": "MultiLineString", "coordinates": [ [ [ 110.535939, -66.2845889 ], [ 110.5345363, -66.2853203 ], [ 110.53253, -66.2858575 ], [ 110.5276752, -66.286824 ], [ 110.5275572, -66.287195 ], [ 110.5278575, -66.28825 ], [ 110.5287024, -66.2889445 ], [ 110.5285174, -66.2893825 ], [ 110.5268812, -66.2896327 ], [ 110.5245128, -66.2895594 ], [ 110.5236411, -66.2894105 ], [ 110.5230913, -66.2890934 ], [ 110.5231422, -66.288964 ], [ 110.5245692, -66.2883643 ], [ 110.5251378, -66.2880407 ], [ 110.5256957, -66.2875327 ], [ 110.5256287, -66.287331 ], [ 110.5249849, -66.287139 ], [ 110.5250117, -66.2869799 ], [ 110.5253121, -66.2867744 ], [ 110.528673, -66.2861929 ], [ 110.5305692, -66.2857043 ], [ 110.533973, -66.2853181 ], [ 110.5356547, -66.2846212 ], [ 110.535939, -66.2845889 ] ] ] } },
{ "type": "Feature", "properties": { "osm_id": "1150475971", "code": 5153, "fclass": "footway", "name": "Shirley Island Walking Route", "ref": null, "oneway": "B", "maxspeed": 0, "layer": 0, "bridge": "F", "tunnel": "F" }, "geometry": { "type": "MultiLineString", "coordinates": [ [ [ 110.5036651, -66.2814508 ], [ 110.5032926, -66.2814233 ] ] ] } },
{ "type": "Feature", "properties": { "osm_id": "1150475972", "code": 5153, "fclass": "footway", "name": "Shirley Island Walking Route", "ref": null, "oneway": "B", "maxspeed": 0, "layer": 0, "bridge": "F", "tunnel": "F" }, "geometry": { "type": "MultiLineString", "coordinates": [ [ [ 110.5065044, -66.28166 ], [ 110.5036651, -66.2814508 ] ] ] } },
{ "type": "Feature", "properties": { "osm_id": "1150475973", "code": 5153, "fclass": "footway", "name": "Shirley Island Walking Route", "ref": null, "oneway": "B", "maxspeed": 0, "layer": 0, "bridge": "F", "tunnel": "F" }, "geometry": { "type": "MultiLineString", "coordinates": [ [ [ 110.4983948, -66.280576 ], [ 110.4980261, -66.2810873 ], [ 110.4983452, -66.2815368 ], [ 110.4995898, -66.2818886 ], [ 110.500499, -66.2819112 ], [ 110.5028138, -66.2815822 ], [ 110.5032926, -66.2814233 ], [ 110.5039182, -66.2810835 ], [ 110.5034466, -66.2808235 ], [ 110.5020741, -66.2805698 ], [ 110.500123, -66.2803501 ], [ 110.4989324, -66.280353 ], [ 110.4983948, -66.280576 ] ] ] } },
{ "type": "Feature", "properties": { "osm_id": "1150475974", "code": 5153, "fclass": "footway", "name": "Shirley Island Walking Route", "ref": null, "oneway": "B", "maxspeed": 0, "layer": 0, "bridge": "F", "tunnel": "F" }, "geometry": { "type": "MultiLineString", "coordinates": [ [ [ 110.5065834, -66.2818302 ], [ 110.5065044, -66.28166 ] ] ] } },
{ "type": "Feature", "properties": { "osm_id": "1150475975", "code": 5121, "fclass": "unclassified", "name": null, "ref": null, "oneway": "B", "maxspeed": 0, "layer": 0, "bridge": "F", "tunnel": "F" }, "geometry": { "type": "MultiLineString", "coordinates": [ [ [ 110.5373164, -66.2850031 ], [ 110.5356708, -66.2850894 ], [ 110.5366827, -66.2840148 ] ] ] } },
{ "type": "Feature", "properties": { "osm_id": "1150475976", "code": 5121, "fclass": "unclassified", "name": null, "ref": null, "oneway": "B", "maxspeed": 0, "layer": 0, "bridge": "F", "tunnel": "F" }, "geometry": { "type": "MultiLineString", "coordinates": [ [ [ 110.5230162, -66.281415 ], [ 110.5226674, -66.2814236 ], [ 110.5224556, -66.2815196 ], [ 110.5224584, -66.2816522 ], [ 110.5224992, -66.2818786 ], [ 110.5226063, -66.2819147 ], [ 110.5231346, -66.2819456 ] ] ] } },
{ "type": "Feature", "properties": { "osm_id": "1150475977", "code": 5121, "fclass": "unclassified", "name": null, "ref": null, "oneway": "B", "maxspeed": 0, "layer": 0, "bridge": "F", "tunnel": "F" }, "geometry": { "type": "MultiLineString", "coordinates": [ [ [ 110.5258114, -66.2820457 ], [ 110.5258002, -66.2823833 ] ] ] } },
{ "type": "Feature", "properties": { "osm_id": "1150596256", "code": 5122, "fclass": "residential", "name": null, "ref": null, "oneway": "B", "maxspeed": 0, "layer": 0, "bridge": "F", "tunnel": "F" }, "geometry": { "type": "MultiLineString", "coordinates": [ [ [ 110.5366915, -66.2792566 ], [ 110.5362127, -66.2791628 ], [ 110.5357116, -66.2791583 ], [ 110.5352226, -66.2792371 ] ] ] } },
{ "type": "Feature", "properties": { "osm_id": "1150596259", "code": 5121, "fclass": "unclassified", "name": null, "ref": null, "oneway": "B", "maxspeed": 0, "layer": 0, "bridge": "F", "tunnel": "F" }, "geometry": { "type": "MultiLineString", "coordinates": [ [ [ 110.5349037, -66.2822198 ], [ 110.5336761, -66.2824638 ], [ 110.5334587, -66.2824775 ], [ 110.5332411, -66.2824433 ], [ 110.53249, -66.2822533 ] ] ] } },
{ "type": "Feature", "properties": { "osm_id": "1150596260", "code": 5122, "fclass": "residential", "name": null, "ref": null, "oneway": "B", "maxspeed": 0, "layer": 0, "bridge": "F", "tunnel": "F" }, "geometry": { "type": "MultiLineString", "coordinates": [ [ [ 110.5224584, -66.2816522 ], [ 110.5230045, -66.2816061 ], [ 110.5232254, -66.2816016 ], [ 110.5233267, -66.2816211 ], [ 110.5233769, -66.281655 ], [ 110.5234172, -66.2817793 ] ] ] } },
{ "type": "Feature", "properties": { "osm_id": "1150596261", "code": 5122, "fclass": "residential", "name": null, "ref": null, "oneway": "B", "maxspeed": 0, "layer": 0, "bridge": "F", "tunnel": "F" }, "geometry": { "type": "MultiLineString", "coordinates": [ [ [ 110.5295836, -66.2821577 ], [ 110.5297977, -66.2818051 ], [ 110.5297317, -66.2817416 ], [ 110.5286849, -66.2816079 ], [ 110.5297377, -66.2815888 ], [ 110.5298162, -66.2815992 ], [ 110.5298471, -66.2816269 ], [ 110.5297317, -66.2817416 ] ] ] } }
]
}
