{
"type": "FeatureCollection",
"name": "sparse_umbilicaria_pseudephebe",
"crs": { "type": "name", "properties": { "name": "urn:ogc:def:crs:OGC:1.3:CRS84" } },
"features": [
{ "type": "Feature", "properties": { "id": 5, "Species": "Sparse Umbilicaria decussata, Pseudephebe minuscula" }, "geometry": { "type": "MultiPolygon", "coordinates": [ [ [ [ 110.495211859149265, -66.341783502071735 ], [ 110.496499319476399, -66.341473520976095 ], [ 110.497014303607259, -66.341473520976081 ], [ 110.497872610492024, -66.341576848433292 ], [ 110.498645086688327, -66.341921270218819 ], [ 110.498902578753729, -66.34247233524583 ], [ 110.498988409442234, -66.342954507220284 ], [ 110.498645086688327, -66.343471109771656 ], [ 110.497615118426609, -66.343505549563673 ], [ 110.495898504657077, -66.343333350130948 ], [ 110.494868536395373, -66.343057828581209 ], [ 110.494525213641467, -66.342644540585738 ], [ 110.495211859149265, -66.341783502071735 ] ] ] ] } },
{ "type": "Feature", "properties": { "id": 5, "Species": "Sparse Umbilicaria decussata, Pseudephebe minuscula" }, "geometry": { "type": "MultiPolygon", "coordinates": [ [ [ [ 110.496756811541857, -66.344366529006422 ], [ 110.497958441180515, -66.344263213032747 ], [ 110.498645086688327, -66.34433209039581 ], [ 110.498988409442234, -66.344745350604683 ], [ 110.498988409442234, -66.345124166485135 ], [ 110.498387594622912, -66.345434102498118 ], [ 110.497443457049656, -66.345675161195359 ], [ 110.496756811541857, -66.346019526746346 ], [ 110.495812673968629, -66.346329451702104 ], [ 110.494696875018406, -66.346260579820495 ], [ 110.493924398822102, -66.346019526746346 ], [ 110.493924398822102, -66.345571850608664 ], [ 110.494439382952976, -66.345055291295822 ], [ 110.496756811541857, -66.344366529006422 ] ] ] ] } },
{ "type": "Feature", "properties": { "id": 5, "Species": "Sparse Umbilicaria decussata, Pseudephebe minuscula" }, "geometry": { "type": "MultiPolygon", "coordinates": [ [ [ [ 110.510146398944173, -66.348498819227089 ], [ 110.508601446551566, -66.347913452814197 ], [ 110.507743139666815, -66.347087029925632 ], [ 110.507313986224446, -66.346398323394737 ], [ 110.507142324847493, -66.345640724380374 ], [ 110.507743139666815, -66.345365228159338 ], [ 110.508944769305472, -66.345434102498118 ], [ 110.510232229632635, -66.345640724380374 ], [ 110.511176367205891, -66.345606287518152 ], [ 110.511863012713661, -66.345089728914118 ], [ 110.511948843402166, -66.344056579809447 ], [ 110.511863012713661, -66.343333350130948 ], [ 110.511519689959798, -66.342610099612259 ], [ 110.511004705828938, -66.34202459583291 ], [ 110.511004705828938, -66.341439078395837 ], [ 110.510918875140447, -66.341025763746515 ], [ 110.51160552064826, -66.340887990684436 ], [ 110.512978811663871, -66.341060206893928 ], [ 110.514180441302543, -66.341714617714615 ], [ 110.514266271991033, -66.342231245785158 ], [ 110.51409461061408, -66.342713422390872 ], [ 110.514352102679496, -66.343436669932345 ], [ 110.515038748187308, -66.344056579809447 ], [ 110.514781256121893, -66.344710912513847 ], [ 110.514695425433402, -66.345330790919093 ], [ 110.514695425433402, -66.345537413651897 ], [ 110.514695425433416, -66.346088399289499 ], [ 110.514695425433402, -66.346536066212977 ], [ 110.514695425433402, -66.347018160123042 ], [ 110.514695425433402, -66.347155899539189 ], [ 110.513322134417777, -66.34691485506481 ], [ 110.512721319598455, -66.346363887572068 ], [ 110.512377996844549, -66.346226143808792 ], [ 110.511090536517401, -66.346226143808792 ], [ 110.510489721698079, -66.346329451702104 ], [ 110.510489721698079, -66.346708243672552 ], [ 110.510661383075004, -66.346983725150906 ], [ 110.511090536517401, -66.347224768963727 ], [ 110.511691351336751, -66.347637981542007 ], [ 110.511863012713661, -66.34794788651061 ], [ 110.510146398944173, -66.348498819227089 ] ] ] ] } },
{ "type": "Feature", "properties": { "id": 5, "Species": "Sparse Umbilicaria decussata, Pseudephebe minuscula" }, "geometry": { "type": "MultiPolygon", "coordinates": [ [ [ [ 110.507313986224446, -66.337787896869798 ], [ 110.507485647601399, -66.337615658210552 ], [ 110.50825812379766, -66.337305625646181 ], [ 110.509288092059379, -66.337202280607286 ], [ 110.510318060321097, -66.337581210336893 ], [ 110.510318060321097, -66.337994581701139 ], [ 110.510489721698079, -66.3384768396906 ], [ 110.510489721698079, -66.338855750183455 ], [ 110.510661383075004, -66.339510218473876 ], [ 110.510318060321097, -66.339958002736708 ], [ 110.50945975343636, -66.340061336432314 ], [ 110.508773107928548, -66.339958002736708 ], [ 110.507914801043754, -66.339372437093772 ], [ 110.507228155535941, -66.33861462598604 ], [ 110.507313986224446, -66.337787896869798 ] ] ] ] } },
{ "type": "Feature", "properties": { "id": 5, "Species": "Sparse Umbilicaria decussata, Pseudephebe minuscula" }, "geometry": { "type": "MultiPolygon", "coordinates": [ [ [ [ 110.497958441180529, -66.326072975952826 ], [ 110.497872610492024, -66.325590479703379 ], [ 110.49821593324593, -66.325107974186352 ], [ 110.498988409442234, -66.324832252587058 ], [ 110.499932547015476, -66.324625459401616 ], [ 110.500962515277195, -66.324590993705201 ], [ 110.501477499408026, -66.324487596332276 ], [ 110.502078314227376, -66.323936136489294 ], [ 110.503279943866033, -66.32348806645345 ], [ 110.504739065570163, -66.323660402028338 ], [ 110.50551154176641, -66.324177401660108 ], [ 110.506455679339666, -66.325142439173476 ], [ 110.506455679339666, -66.325556015330946 ], [ 110.505597372454915, -66.325762800856353 ], [ 110.504996557635565, -66.326176366800553 ], [ 110.504996557635565, -66.326624388890011 ], [ 110.50551154176641, -66.326831165620831 ], [ 110.507142324847479, -66.327003478262938 ], [ 110.507657308978352, -66.327244713976057 ], [ 110.50825812379766, -66.327417023781294 ], [ 110.509459753436332, -66.328002868277551 ], [ 110.509974737567191, -66.328726539672999 ], [ 110.511004705828938, -66.32938127201723 ], [ 110.511691351336751, -66.329829236945187 ], [ 110.511176367205849, -66.330346109626262 ], [ 110.510318060321097, -66.330690685504067 ], [ 110.50885893861701, -66.330518398156116 ], [ 110.507485647601385, -66.330208277951385 ], [ 110.505854864520316, -66.330277193883376 ], [ 110.50422408143929, -66.330104903698839 ], [ 110.502764959735188, -66.329553567165831 ], [ 110.501305838031101, -66.328692079603172 ], [ 110.500876684588704, -66.328002868277565 ], [ 110.500275869769382, -66.327485947372409 ], [ 110.499331732196126, -66.326865628243795 ], [ 110.497958441180529, -66.326072975952826 ] ] ] ] } },
{ "type": "Feature", "properties": { "id": 5, "Species": "Sparse Umbilicaria decussata, Pseudephebe minuscula" }, "geometry": { "type": "MultiPolygon", "coordinates": [ [ [ [ 110.503279943866033, -66.32086842016227 ], [ 110.503880758685384, -66.32045476683156 ], [ 110.504824896258611, -66.320454766831574 ], [ 110.50551154176641, -66.320661594348152 ], [ 110.50636984865119, -66.320971832430899 ], [ 110.507056494159002, -66.3212475963998 ], [ 110.507828970355291, -66.321557827247133 ], [ 110.507657308978352, -66.322040400951508 ], [ 110.507056494159002, -66.322143808396575 ], [ 110.505597372454915, -66.322074870147176 ], [ 110.504910726947102, -66.321730176062701 ], [ 110.503537435931477, -66.32135100710785 ], [ 110.503279943866033, -66.32086842016227 ] ] ] ] } },
{ "type": "Feature", "properties": { "id": 5, "Species": "Sparse Umbilicaria decussata, Pseudephebe minuscula" }, "geometry": { "type": "MultiPolygon", "coordinates": [ [ [ [ 110.514867086810355, -66.318317449467756 ], [ 110.515124578875799, -66.31807612802136 ], [ 110.515725393695121, -66.317972703834911 ], [ 110.516669531268377, -66.318248500719506 ], [ 110.518300314349432, -66.318696664201312 ], [ 110.519158621234169, -66.319110346474986 ], [ 110.519330282611122, -66.319661912246161 ], [ 110.518643637103338, -66.320110050520597 ], [ 110.517012854022283, -66.320144522364487 ], [ 110.515897055072074, -66.31997216267203 ], [ 110.515382070941214, -66.319558494586289 ], [ 110.514781256121893, -66.319041399902304 ], [ 110.514867086810355, -66.318317449467756 ] ] ] ] } },
{ "type": "Feature", "properties": { "id": 5, "Species": "Sparse Umbilicaria decussata, Pseudephebe minuscula" }, "geometry": { "type": "MultiPolygon", "coordinates": [ [ [ [ 110.525252600116005, -66.316248904726976 ], [ 110.526540060443168, -66.316007563416079 ], [ 110.527827520770288, -66.316214427538753 ], [ 110.528428335589638, -66.316455766863101 ], [ 110.528599996966591, -66.316697103869885 ], [ 110.528599996966591, -66.316972914754118 ], [ 110.527827520770288, -66.31735214977742 ], [ 110.526454229754648, -66.317696903923405 ], [ 110.524909277362099, -66.317972703834911 ], [ 110.523450155658026, -66.317834804257515 ], [ 110.522935171527166, -66.317490052003379 ], [ 110.523021002215614, -66.316903962316815 ], [ 110.525252600116005, -66.316248904726976 ] ] ] ] } },
{ "type": "Feature", "properties": { "id": 5, "Species": "Sparse Umbilicaria decussata, Pseudephebe minuscula" }, "geometry": { "type": "MultiPolygon", "coordinates": [ [ [ [ 110.534007330340614, -66.315490395659992 ], [ 110.535466452044687, -66.315421439155102 ], [ 110.535981436175547, -66.315490395659992 ], [ 110.53675391237185, -66.315662786094492 ], [ 110.537183065814219, -66.315938608330157 ], [ 110.537526388568125, -66.316352336007867 ], [ 110.536668081683359, -66.316800533306207 ], [ 110.534951467913828, -66.316628150675868 ], [ 110.533664007586708, -66.316214427538739 ], [ 110.533578176898203, -66.315800697590703 ], [ 110.534007330340614, -66.315490395659992 ] ] ] ] } },
{ "type": "Feature", "properties": { "id": 5, "Species": "Sparse Umbilicaria decussata, Pseudephebe minuscula" }, "geometry": { "type": "MultiPolygon", "coordinates": [ [ [ [ 110.546967764300547, -66.316386813006915 ], [ 110.548598547381573, -66.316662627296523 ], [ 110.548856039447017, -66.316903962316815 ], [ 110.549456854266339, -66.31728319838065 ], [ 110.549456854266339, -66.317765854185041 ], [ 110.548770208758526, -66.318282975117299 ], [ 110.547139425677486, -66.319006926545057 ], [ 110.545680303973384, -66.319868746289046 ], [ 110.543706198138452, -66.320006634705109 ], [ 110.542933721942148, -66.31952402193842 ], [ 110.543019552630639, -66.319041399902318 ], [ 110.544221182269297, -66.317834804257515 ], [ 110.546967764300547, -66.316386813006915 ] ] ] ] } },
{ "type": "Feature", "properties": { "id": 5, "Species": "Sparse Umbilicaria decussata, Pseudephebe minuscula" }, "geometry": { "type": "MultiPolygon", "coordinates": [ [ [ [ 110.487057943744006, -66.318248500719506 ], [ 110.48894621889049, -66.31811060265558 ], [ 110.490147848529162, -66.318248500719506 ], [ 110.491177816790866, -66.318455346396618 ], [ 110.491177816790866, -66.31873113798423 ], [ 110.49083449403696, -66.319282712079044 ], [ 110.489461203021349, -66.319903218464006 ], [ 110.487057943744006, -66.319903218463992 ], [ 110.485856314105348, -66.319420603710995 ], [ 110.485684652728395, -66.31873113798423 ], [ 110.487057943744006, -66.318248500719506 ] ] ] ] } }
]
}
