{
"type": "FeatureCollection",
"name": "sparse_umbilicaria_usnea",
"crs": { "type": "name", "properties": { "name": "urn:ogc:def:crs:OGC:1.3:CRS84" } },
"features": [
{ "type": "Feature", "properties": { "id": 12, "Species": "Sparse Umbilicaria decussata, Pseudephebe minuscula, Usnea sphacelata, bryophytes" }, "geometry": { "type": "MultiPolygon", "coordinates": [ [ [ [ 110.488688726825075, -66.317007390901779 ], [ 110.489117880267443, -66.316386813006915 ], [ 110.489890356463746, -66.316214427538739 ], [ 110.491006155413913, -66.316145473020384 ], [ 110.492207785052585, -66.316110995690266 ], [ 110.494267721576009, -66.316110995690266 ], [ 110.49546935121468, -66.316110995690266 ], [ 110.496413488787951, -66.315904130716248 ], [ 110.497014303607259, -66.315386960831717 ], [ 110.49658515016489, -66.315042174996321 ], [ 110.495297689837727, -66.314524987374512 ], [ 110.494525213641467, -66.314145709687907 ], [ 110.494525213641467, -66.313628503618801 ], [ 110.49469687501842, -66.312904397241965 ], [ 110.495040197772326, -66.311904406522132 ], [ 110.496327658099446, -66.311283702617359 ], [ 110.497700949115099, -66.311628540012208 ], [ 110.498902578753729, -66.312076821553447 ], [ 110.499417562884631, -66.312663023814025 ], [ 110.500361700457844, -66.313180249750019 ], [ 110.502164144915852, -66.313283693660054 ], [ 110.502507467669759, -66.312766469852704 ], [ 110.501649160785007, -66.311904406522132 ], [ 110.500361700457844, -66.311525089290441 ], [ 110.498988409442234, -66.310973344917386 ], [ 110.498387594622912, -66.31052504369714 ], [ 110.498645086688327, -66.309835333900978 ], [ 110.499074240130724, -66.30890419565938 ], [ 110.500705023211751, -66.307766090972606 ], [ 110.502679129046726, -66.307283243116117 ], [ 110.505683203143377, -66.307386711294569 ], [ 110.506541510028129, -66.307248753628684 ], [ 110.507056494159002, -66.306903856152147 ], [ 110.507142324847493, -66.305800152433321 ], [ 110.508944769305472, -66.305179297800407 ], [ 110.510575552386541, -66.30542074309038 ], [ 110.512721319598455, -66.305834643907872 ], [ 110.514008779925589, -66.30628302877173 ], [ 110.515725393695121, -66.306903856152147 ], [ 110.517613668841591, -66.307662624355416 ], [ 110.51864363710331, -66.308283417671618 ], [ 110.518901129168754, -66.309628417272137 ], [ 110.518042822283988, -66.310421588434039 ], [ 110.515553732318153, -66.311490605621927 ], [ 110.513665457171683, -66.312490612803543 ], [ 110.512635488909979, -66.313007842287249 ], [ 110.511948843402166, -66.313145768352086 ], [ 110.510661383075004, -66.313421618211166 ], [ 110.510318060321097, -66.313594022835801 ], [ 110.509631414813285, -66.313800906824369 ], [ 110.508343954486165, -66.314111229614426 ], [ 110.507228155535941, -66.314490507821304 ], [ 110.505940695208821, -66.314904259337766 ], [ 110.505339880389471, -66.314973217261624 ], [ 110.504309912127752, -66.315249047065151 ], [ 110.502936621112127, -66.315869653055046 ], [ 110.502850790423665, -66.316628150675868 ], [ 110.502679129046726, -66.316938438559134 ], [ 110.501820822161932, -66.317352149777406 ], [ 110.500962515277195, -66.317869279222819 ], [ 110.499760885638537, -66.318145077242505 ], [ 110.498988409442234, -66.31842087223535 ], [ 110.498816748065281, -66.318937979688599 ], [ 110.498387594622912, -66.319592967186864 ], [ 110.497100134295749, -66.320385823947717 ], [ 110.495641012591634, -66.320971832430928 ], [ 110.493237753314304, -66.321040773706883 ], [ 110.492636938494982, -66.320627123213626 ], [ 110.492722769183445, -66.320178994161125 ], [ 110.492722769183445, -66.319489549243244 ], [ 110.492379446429538, -66.31883455904925 ], [ 110.491692800921726, -66.31824850071952 ], [ 110.490577001971545, -66.317662428721619 ], [ 110.488688726825075, -66.317007390901779 ] ] ] ] } },
{ "type": "Feature", "properties": { "id": 12, "Species": "Sparse Umbilicaria decussata, Pseudephebe minuscula, Usnea sphacelata, bryophytes" }, "geometry": { "type": "MultiPolygon", "coordinates": [ [ [ [ 110.521561880511499, -66.312318200610505 ], [ 110.522420187396293, -66.312111304417783 ], [ 110.523621817034936, -66.311766473645591 ], [ 110.525166769427543, -66.311352670474776 ], [ 110.527570028704872, -66.311007829295477 ], [ 110.528943319720483, -66.310594013636035 ], [ 110.53100325624392, -66.310387103251742 ], [ 110.534264822406016, -66.310594013636006 ], [ 110.535294790667734, -66.310938860492001 ], [ 110.53804137269897, -66.311490605621927 ], [ 110.540616293353253, -66.31183544017847 ], [ 110.540959616107159, -66.31155957291169 ], [ 110.541474600238033, -66.311007829295477 ], [ 110.541474600238033, -66.310180191164406 ], [ 110.541817922991939, -66.30942149894021 ], [ 110.542332907122784, -66.308938682875947 ], [ 110.544564505023203, -66.308524833154934 ], [ 110.547654409808317, -66.308800733725903 ], [ 110.551259298724361, -66.309628417272137 ], [ 110.552289266986065, -66.310180191164406 ], [ 110.553834219378643, -66.311007829295477 ], [ 110.554864187640362, -66.311697506923494 ], [ 110.555722494525114, -66.312387165629616 ], [ 110.5569241241638, -66.313214731100658 ], [ 110.557782431048551, -66.313559542005478 ], [ 110.557782431048551, -66.314111229614383 ], [ 110.55606581727902, -66.314456028220818 ], [ 110.555550833148175, -66.315214568505255 ], [ 110.55366255800169, -66.315352482461023 ], [ 110.551259298724361, -66.315145611243594 ], [ 110.550057669085689, -66.315076653792715 ], [ 110.546624441546598, -66.315007696152634 ], [ 110.545079489154034, -66.314869780304889 ], [ 110.543534536761456, -66.314524987374497 ], [ 110.542332907122784, -66.314387068877949 ], [ 110.539414663714595, -66.314387068877949 ], [ 110.53804137269897, -66.314524987374497 ], [ 110.536668081683359, -66.314524987374497 ], [ 110.534093161029077, -66.314456028220818 ], [ 110.5318615631287, -66.314456028220818 ], [ 110.528771658343544, -66.314593946339002 ], [ 110.5263683990662, -66.314456028220846 ], [ 110.52327849428103, -66.314111229614426 ], [ 110.522076864642386, -66.313145768352086 ], [ 110.521561880511499, -66.312318200610505 ] ] ] ] } }
]
}
