{
"type": "FeatureCollection",
"name": "spsk",
"crs": { "type": "name", "properties": { "name": "urn:ogc:def:crs:OGC:1.3:CRS84" } },
"features": [
{ "type": "Feature", "properties": { "SPECIES": "SPSK", "ACTIVITY": "MF", "TYPE": null, "ENTRANCES": null, "SLOPE": null, "REMNANTS": null, "NESTNB": 0, "DATE": "2003-02-05", "SNOW": null, "EGGCHICK": null, "CAVITYSIZE": null, "CAVDEPTH": null, "DISTNN": null, "SUBSTRATE": null, "COMMENTS": "nes6cup", "SITEDOTID": 0, "ASPECT": null, "FIRST_FRED": 6513, "METADATA": null }, "geometry": { "type": "Point", "coordinates": [ 110.560979999855348, -66.377216674929571 ] } },
{ "type": "Feature", "properties": { "SPECIES": "SPSK", "ACTIVITY": "MF", "TYPE": null, "ENTRANCES": null, "SLOPE": null, "REMNANTS": null, "NESTNB": 0, "DATE": "2003-02-05", "SNOW": null, "EGGCHICK": null, "CAVITYSIZE": null, "CAVDEPTH": null, "DISTNN": null, "SUBSTRATE": null, "COMMENTS": null, "SITEDOTID": 0, "ASPECT": null, "FIRST_FRED": 6513, "METADATA": null }, "geometry": { "type": "Point", "coordinates": [ 110.561113431905156, -66.377164035355648 ] } },
{ "type": "Feature", "properties": { "SPECIES": "SPSK", "ACTIVITY": "MF", "TYPE": null, "ENTRANCES": null, "SLOPE": null, "REMNANTS": null, "NESTNB": 0, "DATE": "2003-02-05", "SNOW": null, "EGGCHICK": null, "CAVITYSIZE": null, "CAVDEPTH": null, "DISTNN": null, "SUBSTRATE": null, "COMMENTS": "hangout", "SITEDOTID": 0, "ASPECT": null, "FIRST_FRED": 6701, "METADATA": null }, "geometry": { "type": "Point", "coordinates": [ 110.552522659740603, -66.372336905550256 ] } },
{ "type": "Feature", "properties": { "SPECIES": "SPSK", "ACTIVITY": "MF", "TYPE": null, "ENTRANCES": null, "SLOPE": null, "REMNANTS": null, "NESTNB": 0, "DATE": "2003-02-05", "SNOW": "A", "EGGCHICK": "c", "CAVITYSIZE": null, "CAVDEPTH": null, "DISTNN": null, "SUBSTRATE": null, "COMMENTS": "2c", "SITEDOTID": 0, "ASPECT": null, "FIRST_FRED": 6794, "METADATA": null }, "geometry": { "type": "Point", "coordinates": [ 110.542984492971058, -66.369585960403413 ] } },
{ "type": "Feature", "properties": { "SPECIES": "SPSK", "ACTIVITY": "MF", "TYPE": null, "ENTRANCES": null, "SLOPE": null, "REMNANTS": null, "NESTNB": 0, "DATE": "2003-01-29", "SNOW": "A", "EGGCHICK": null, "CAVITYSIZE": null, "CAVDEPTH": null, "DISTNN": null, "SUBSTRATE": null, "COMMENTS": "hangout?", "SITEDOTID": 0, "ASPECT": null, "FIRST_FRED": null, "METADATA": null }, "geometry": { "type": "Point", "coordinates": [ 110.586998333198466, -66.240373341576188 ] } },
{ "type": "Feature", "properties": { "SPECIES": "SPSK", "ACTIVITY": "MF", "TYPE": null, "ENTRANCES": null, "SLOPE": null, "REMNANTS": null, "NESTNB": 0, "DATE": "2003-01-29", "SNOW": "A", "EGGCHICK": "c", "CAVITYSIZE": null, "CAVDEPTH": null, "DISTNN": null, "SUBSTRATE": null, "COMMENTS": "2chicks", "SITEDOTID": 0, "ASPECT": null, "FIRST_FRED": null, "METADATA": null }, "geometry": { "type": "Point", "coordinates": [ 110.583839999864111, -66.239335008242691 ] } },
{ "type": "Feature", "properties": { "SPECIES": "SPSK", "ACTIVITY": "MF", "TYPE": null, "ENTRANCES": null, "SLOPE": null, "REMNANTS": null, "NESTNB": 0, "DATE": "2003-01-29", "SNOW": "A", "EGGCHICK": "c", "CAVITYSIZE": null, "CAVDEPTH": null, "DISTNN": null, "SUBSTRATE": null, "COMMENTS": "2c", "SITEDOTID": 0, "ASPECT": null, "FIRST_FRED": null, "METADATA": null }, "geometry": { "type": "Point", "coordinates": [ 110.584049999864149, -66.242080008243107 ] } },
{ "type": "Feature", "properties": { "SPECIES": "SPSK", "ACTIVITY": null, "TYPE": null, "ENTRANCES": null, "SLOPE": null, "REMNANTS": null, "NESTNB": 0, "DATE": "2003-01-26", "SNOW": null, "EGGCHICK": null, "CAVITYSIZE": null, "CAVDEPTH": null, "DISTNN": null, "SUBSTRATE": null, "COMMENTS": null, "SITEDOTID": 0, "ASPECT": null, "FIRST_FRED": 4781, "METADATA": null }, "geometry": { "type": "Point", "coordinates": [ 110.461114319169937, -66.408987055472437 ] } },
{ "type": "Feature", "properties": { "SPECIES": "SPSK", "ACTIVITY": "MF", "TYPE": null, "ENTRANCES": null, "SLOPE": null, "REMNANTS": null, "NESTNB": 0, "DATE": "2003-01-26", "SNOW": "A", "EGGCHICK": null, "CAVITYSIZE": null, "CAVDEPTH": null, "DISTNN": null, "SUBSTRATE": null, "COMMENTS": "nest", "SITEDOTID": 0, "ASPECT": null, "FIRST_FRED": null, "METADATA": null }, "geometry": { "type": "Point", "coordinates": [ 110.464931317468526, -66.411173262569562 ] } },
{ "type": "Feature", "properties": { "SPECIES": "SPSK", "ACTIVITY": "A", "TYPE": null, "ENTRANCES": null, "SLOPE": null, "REMNANTS": null, "NESTNB": 0, "DATE": "2003-01-26", "SNOW": "A", "EGGCHICK": "c", "CAVITYSIZE": null, "CAVDEPTH": null, "DISTNN": null, "SUBSTRATE": null, "COMMENTS": null, "SITEDOTID": 0, "ASPECT": null, "FIRST_FRED": null, "METADATA": null }, "geometry": { "type": "Point", "coordinates": [ 110.464869999823307, -66.411743341601095 ] } },
{ "type": "Feature", "properties": { "SPECIES": "SPSK", "ACTIVITY": null, "TYPE": null, "ENTRANCES": null, "SLOPE": null, "REMNANTS": null, "NESTNB": 0, "DATE": "2003-01-26", "SNOW": null, "EGGCHICK": null, "CAVITYSIZE": null, "CAVDEPTH": null, "DISTNN": null, "SUBSTRATE": null, "COMMENTS": null, "SITEDOTID": 0, "ASPECT": null, "FIRST_FRED": null, "METADATA": null }, "geometry": { "type": "Point", "coordinates": [ 110.464175551272575, -66.411766031793391 ] } },
{ "type": "Feature", "properties": { "SPECIES": "SPSK", "ACTIVITY": "MF", "TYPE": null, "ENTRANCES": null, "SLOPE": null, "REMNANTS": null, "NESTNB": 0, "DATE": "2003-01-23", "SNOW": "A", "EGGCHICK": null, "CAVITYSIZE": null, "CAVDEPTH": null, "DISTNN": null, "SUBSTRATE": null, "COMMENTS": null, "SITEDOTID": 0, "ASPECT": null, "FIRST_FRED": null, "METADATA": null }, "geometry": { "type": "Point", "coordinates": [ 110.454290189824647, -66.36926991857969 ] } },
{ "type": "Feature", "properties": { "SPECIES": "SPSK", "ACTIVITY": "MF", "TYPE": null, "ENTRANCES": null, "SLOPE": null, "REMNANTS": null, "NESTNB": 0, "DATE": "2003-01-23", "SNOW": null, "EGGCHICK": "c", "CAVITYSIZE": null, "CAVDEPTH": null, "DISTNN": null, "SUBSTRATE": null, "COMMENTS": null, "SITEDOTID": 0, "ASPECT": null, "FIRST_FRED": 6867, "METADATA": null }, "geometry": { "type": "Point", "coordinates": [ 110.444864999817227, -66.368455008261463 ] } },
{ "type": "Feature", "properties": { "SPECIES": "SPSK", "ACTIVITY": "MF", "TYPE": null, "ENTRANCES": null, "SLOPE": null, "REMNANTS": null, "NESTNB": 0, "DATE": "2003-01-23", "SNOW": null, "EGGCHICK": "c", "CAVITYSIZE": null, "CAVDEPTH": null, "DISTNN": null, "SUBSTRATE": null, "COMMENTS": null, "SITEDOTID": 0, "ASPECT": null, "FIRST_FRED": 6775, "METADATA": null }, "geometry": { "type": "Point", "coordinates": [ 110.459864765235849, -66.371147303657381 ] } },
{ "type": "Feature", "properties": { "SPECIES": "SPSK", "ACTIVITY": "MF", "TYPE": null, "ENTRANCES": null, "SLOPE": null, "REMNANTS": null, "NESTNB": 0, "DATE": "2003-01-23", "SNOW": "A", "EGGCHICK": "c?", "CAVITYSIZE": null, "CAVDEPTH": null, "DISTNN": null, "SUBSTRATE": null, "COMMENTS": null, "SITEDOTID": 0, "ASPECT": null, "FIRST_FRED": 6678, "METADATA": null }, "geometry": { "type": "Point", "coordinates": [ 110.451401798594787, -66.372642590864672 ] } },
{ "type": "Feature", "properties": { "SPECIES": "SPSK", "ACTIVITY": "MF", "TYPE": null, "ENTRANCES": null, "SLOPE": null, "REMNANTS": null, "NESTNB": 0, "DATE": "2003-01-23", "SNOW": null, "EGGCHICK": null, "CAVITYSIZE": null, "CAVDEPTH": null, "DISTNN": null, "SUBSTRATE": null, "COMMENTS": "srocksit", "SITEDOTID": 0, "ASPECT": null, "FIRST_FRED": null, "METADATA": null }, "geometry": { "type": "Point", "coordinates": [ 110.448580319559483, -66.368717583544708 ] } },
{ "type": "Feature", "properties": { "SPECIES": "SPSK", "ACTIVITY": "B", "TYPE": null, "ENTRANCES": null, "SLOPE": null, "REMNANTS": null, "NESTNB": 0, "DATE": "2003-01-23", "SNOW": null, "EGGCHICK": null, "CAVITYSIZE": null, "CAVDEPTH": null, "DISTNN": null, "SUBSTRATE": null, "COMMENTS": "1nesting", "SITEDOTID": 0, "ASPECT": null, "FIRST_FRED": null, "METADATA": null }, "geometry": { "type": "Point", "coordinates": [ 110.448374137217428, -66.368981069450584 ] } },
{ "type": "Feature", "properties": { "SPECIES": "SPSK", "ACTIVITY": null, "TYPE": null, "ENTRANCES": null, "SLOPE": null, "REMNANTS": null, "NESTNB": 0, "DATE": "2003-01-14", "SNOW": null, "EGGCHICK": null, "CAVITYSIZE": null, "CAVDEPTH": null, "DISTNN": null, "SUBSTRATE": null, "COMMENTS": "cup", "SITEDOTID": 0, "ASPECT": null, "FIRST_FRED": 2606, "METADATA": null }, "geometry": { "type": "Point", "coordinates": [ 110.509038333170807, -66.450008341606633 ] } },
{ "type": "Feature", "properties": { "SPECIES": "SPSK", "ACTIVITY": null, "TYPE": null, "ENTRANCES": null, "SLOPE": null, "REMNANTS": null, "NESTNB": 0, "DATE": "2003-01-15", "SNOW": null, "EGGCHICK": null, "CAVITYSIZE": null, "CAVDEPTH": null, "DISTNN": null, "SUBSTRATE": null, "COMMENTS": "nestcup", "SITEDOTID": 0, "ASPECT": null, "FIRST_FRED": 2701, "METADATA": null }, "geometry": { "type": "Point", "coordinates": [ 110.506944999836819, -66.44787667493965 ] } },
{ "type": "Feature", "properties": { "SPECIES": "SPSK", "ACTIVITY": null, "TYPE": null, "ENTRANCES": null, "SLOPE": null, "REMNANTS": null, "NESTNB": 0, "DATE": "2003-01-15", "SNOW": null, "EGGCHICK": null, "CAVITYSIZE": null, "CAVDEPTH": null, "DISTNN": null, "SUBSTRATE": null, "COMMENTS": "pairnest", "SITEDOTID": 0, "ASPECT": null, "FIRST_FRED": 2606, "METADATA": null }, "geometry": { "type": "Point", "coordinates": [ 110.509320990387806, -66.450892158614181 ] } },
{ "type": "Feature", "properties": { "SPECIES": "SPSK", "ACTIVITY": "MF", "TYPE": null, "ENTRANCES": null, "SLOPE": null, "REMNANTS": null, "NESTNB": 0, "DATE": "2003-01-15", "SNOW": "A", "EGGCHICK": null, "CAVITYSIZE": null, "CAVDEPTH": null, "DISTNN": null, "SUBSTRATE": null, "COMMENTS": "around", "SITEDOTID": 0, "ASPECT": null, "FIRST_FRED": 2512, "METADATA": null }, "geometry": { "type": "Point", "coordinates": [ 110.509850808059028, -66.451858748130874 ] } },
{ "type": "Feature", "properties": { "SPECIES": "SPSK", "ACTIVITY": null, "TYPE": null, "ENTRANCES": null, "SLOPE": null, "REMNANTS": null, "NESTNB": 0, "DATE": "2003-01-15", "SNOW": null, "EGGCHICK": null, "CAVITYSIZE": null, "CAVDEPTH": null, "DISTNN": null, "SUBSTRATE": null, "COMMENTS": "nbpair", "SITEDOTID": 0, "ASPECT": null, "FIRST_FRED": 2512, "METADATA": null }, "geometry": { "type": "Point", "coordinates": [ 110.510221666504535, -66.452103341606886 ] } },
{ "type": "Feature", "properties": { "SPECIES": "SPSK", "ACTIVITY": null, "TYPE": null, "ENTRANCES": null, "SLOPE": null, "REMNANTS": null, "NESTNB": 0, "DATE": "2003-01-15", "SNOW": null, "EGGCHICK": null, "CAVITYSIZE": null, "CAVDEPTH": null, "DISTNN": null, "SUBSTRATE": null, "COMMENTS": "1pair", "SITEDOTID": 0, "ASPECT": null, "FIRST_FRED": null, "METADATA": null }, "geometry": { "type": "Point", "coordinates": [ 110.510013877932025, -66.44997106781824 ] } },
{ "type": "Feature", "properties": { "SPECIES": "SPSK", "ACTIVITY": null, "TYPE": null, "ENTRANCES": null, "SLOPE": null, "REMNANTS": null, "NESTNB": 0, "DATE": "2003-01-15", "SNOW": null, "EGGCHICK": null, "CAVITYSIZE": null, "CAVDEPTH": null, "DISTNN": null, "SUBSTRATE": null, "COMMENTS": "1pair", "SITEDOTID": 0, "ASPECT": null, "FIRST_FRED": 2512, "METADATA": null }, "geometry": { "type": "Point", "coordinates": [ 110.512916666505404, -66.451401674940158 ] } },
{ "type": "Feature", "properties": { "SPECIES": "SPSK", "ACTIVITY": null, "TYPE": null, "ENTRANCES": null, "SLOPE": null, "REMNANTS": null, "NESTNB": 0, "DATE": "2003-01-15", "SNOW": null, "EGGCHICK": null, "CAVITYSIZE": null, "CAVDEPTH": null, "DISTNN": null, "SUBSTRATE": null, "COMMENTS": "pair", "SITEDOTID": 0, "ASPECT": null, "FIRST_FRED": null, "METADATA": null }, "geometry": { "type": "Point", "coordinates": [ 110.510005131019369, -66.450971698393246 ] } },
{ "type": "Feature", "properties": { "SPECIES": "SPSK", "ACTIVITY": "B", "TYPE": null, "ENTRANCES": null, "SLOPE": null, "REMNANTS": null, "NESTNB": 0, "DATE": "2003-01-04", "SNOW": null, "EGGCHICK": null, "CAVITYSIZE": null, "CAVDEPTH": null, "DISTNN": null, "SUBSTRATE": null, "COMMENTS": "10skuabathinlake", "SITEDOTID": 0, "ASPECT": null, "FIRST_FRED": null, "METADATA": null }, "geometry": { "type": "Point", "coordinates": [ 110.393418551093262, -66.406061779508974 ] } },
{ "type": "Feature", "properties": { "SPECIES": "SPSK", "ACTIVITY": null, "TYPE": null, "ENTRANCES": null, "SLOPE": null, "REMNANTS": null, "NESTNB": 0, "DATE": "2003-01-04", "SNOW": null, "EGGCHICK": null, "CAVITYSIZE": null, "CAVDEPTH": null, "DISTNN": null, "SUBSTRATE": null, "COMMENTS": "nest?eatsofu", "SITEDOTID": 0, "ASPECT": null, "FIRST_FRED": null, "METADATA": null }, "geometry": { "type": "Point", "coordinates": [ 110.390436067349356, -66.412300904350332 ] } },
{ "type": "Feature", "properties": { "SPECIES": "SPSK", "ACTIVITY": null, "TYPE": null, "ENTRANCES": null, "SLOPE": null, "REMNANTS": null, "NESTNB": 0, "DATE": "2003-01-06", "SNOW": null, "EGGCHICK": null, "CAVITYSIZE": null, "CAVDEPTH": null, "DISTNN": null, "SUBSTRATE": null, "COMMENTS": "hauloutpoint", "SITEDOTID": 0, "ASPECT": null, "FIRST_FRED": 4585, "METADATA": null }, "geometry": { "type": "Point", "coordinates": [ 110.438251118058702, -66.412151259956786 ] } },
{ "type": "Feature", "properties": { "SPECIES": "SPSK", "ACTIVITY": "B", "TYPE": null, "ENTRANCES": null, "SLOPE": null, "REMNANTS": null, "NESTNB": 0, "DATE": "2003-01-06", "SNOW": null, "EGGCHICK": "c?", "CAVITYSIZE": null, "CAVDEPTH": null, "DISTNN": null, "SUBSTRATE": null, "COMMENTS": null, "SITEDOTID": 0, "ASPECT": null, "FIRST_FRED": null, "METADATA": null }, "geometry": { "type": "Point", "coordinates": [ 110.419276073387508, -66.405750926740282 ] } },
{ "type": "Feature", "properties": { "SPECIES": "SPSK", "ACTIVITY": "MF", "TYPE": null, "ENTRANCES": null, "SLOPE": null, "REMNANTS": null, "NESTNB": 0, "DATE": "2003-01-08", "SNOW": "A", "EGGCHICK": "e", "CAVITYSIZE": null, "CAVDEPTH": null, "DISTNN": null, "SUBSTRATE": null, "COMMENTS": null, "SITEDOTID": 0, "ASPECT": null, "FIRST_FRED": 5050, "METADATA": null }, "geometry": { "type": "Point", "coordinates": [ 110.392928333133, -66.403813341599829 ] } },
{ "type": "Feature", "properties": { "SPECIES": "SPSK", "ACTIVITY": "MF", "TYPE": null, "ENTRANCES": null, "SLOPE": null, "REMNANTS": null, "NESTNB": 0, "DATE": "2003-01-08", "SNOW": "A", "EGGCHICK": null, "CAVITYSIZE": null, "CAVDEPTH": null, "DISTNN": null, "SUBSTRATE": null, "COMMENTS": "nest?", "SITEDOTID": 0, "ASPECT": null, "FIRST_FRED": null, "METADATA": null }, "geometry": { "type": "Point", "coordinates": [ 110.396438565636132, -66.402948080534031 ] } },
{ "type": "Feature", "properties": { "SPECIES": "SPSK", "ACTIVITY": "MF", "TYPE": null, "ENTRANCES": null, "SLOPE": null, "REMNANTS": null, "NESTNB": 0, "DATE": "2003-01-08", "SNOW": null, "EGGCHICK": null, "CAVITYSIZE": null, "CAVDEPTH": null, "DISTNN": null, "SUBSTRATE": null, "COMMENTS": null, "SITEDOTID": 0, "ASPECT": null, "FIRST_FRED": null, "METADATA": null }, "geometry": { "type": "Point", "coordinates": [ 110.395944137671307, -66.402655895575322 ] } },
{ "type": "Feature", "properties": { "SPECIES": "SPSK", "ACTIVITY": "MF", "TYPE": null, "ENTRANCES": null, "SLOPE": null, "REMNANTS": null, "NESTNB": 0, "DATE": "2003-01-08", "SNOW": null, "EGGCHICK": null, "CAVITYSIZE": null, "CAVDEPTH": null, "DISTNN": null, "SUBSTRATE": null, "COMMENTS": null, "SITEDOTID": 0, "ASPECT": null, "FIRST_FRED": 4960, "METADATA": null }, "geometry": { "type": "Point", "coordinates": [ 110.413439542738928, -66.404788138142891 ] } },
{ "type": "Feature", "properties": { "SPECIES": "SPSK", "ACTIVITY": "MF", "TYPE": null, "ENTRANCES": null, "SLOPE": null, "REMNANTS": null, "NESTNB": 0, "DATE": "2003-01-08", "SNOW": null, "EGGCHICK": "X", "CAVITYSIZE": null, "CAVDEPTH": null, "DISTNN": null, "SUBSTRATE": null, "COMMENTS": null, "SITEDOTID": 0, "ASPECT": null, "FIRST_FRED": 4960, "METADATA": null }, "geometry": { "type": "Point", "coordinates": [ 110.413829141227708, -66.404763621616013 ] } },
{ "type": "Feature", "properties": { "SPECIES": "SPSK", "ACTIVITY": "MF", "TYPE": null, "ENTRANCES": null, "SLOPE": null, "REMNANTS": null, "NESTNB": 0, "DATE": "2003-01-08", "SNOW": null, "EGGCHICK": "X", "CAVITYSIZE": null, "CAVDEPTH": null, "DISTNN": null, "SUBSTRATE": null, "COMMENTS": null, "SITEDOTID": 0, "ASPECT": null, "FIRST_FRED": 4960, "METADATA": null }, "geometry": { "type": "Point", "coordinates": [ 110.414468957968666, -66.405129753463896 ] } },
{ "type": "Feature", "properties": { "SPECIES": "SPSK", "ACTIVITY": "MF", "TYPE": null, "ENTRANCES": null, "SLOPE": null, "REMNANTS": null, "NESTNB": 0, "DATE": "2003-01-08", "SNOW": null, "EGGCHICK": null, "CAVITYSIZE": null, "CAVDEPTH": null, "DISTNN": null, "SUBSTRATE": null, "COMMENTS": "watching", "SITEDOTID": 0, "ASPECT": null, "FIRST_FRED": null, "METADATA": null }, "geometry": { "type": "Point", "coordinates": [ 110.418615237040612, -66.405275161466534 ] } },
{ "type": "Feature", "properties": { "SPECIES": "SPSK", "ACTIVITY": "B", "TYPE": null, "ENTRANCES": null, "SLOPE": null, "REMNANTS": null, "NESTNB": 0, "DATE": "2003-01-08", "SNOW": null, "EGGCHICK": null, "CAVITYSIZE": null, "CAVDEPTH": null, "DISTNN": null, "SUBSTRATE": null, "COMMENTS": "watching", "SITEDOTID": 0, "ASPECT": null, "FIRST_FRED": null, "METADATA": null }, "geometry": { "type": "Point", "coordinates": [ 110.416615696223147, -66.40482602675921 ] } },
{ "type": "Feature", "properties": { "SPECIES": "SPSK", "ACTIVITY": "MF", "TYPE": null, "ENTRANCES": null, "SLOPE": null, "REMNANTS": null, "NESTNB": 0, "DATE": "2003-01-08", "SNOW": null, "EGGCHICK": "e", "CAVITYSIZE": null, "CAVDEPTH": null, "DISTNN": null, "SUBSTRATE": null, "COMMENTS": "nest", "SITEDOTID": 0, "ASPECT": null, "FIRST_FRED": null, "METADATA": null }, "geometry": { "type": "Point", "coordinates": [ 110.418041223322632, -66.40626028671285 ] } },
{ "type": "Feature", "properties": { "SPECIES": "SPSK", "ACTIVITY": "B", "TYPE": null, "ENTRANCES": null, "SLOPE": null, "REMNANTS": null, "NESTNB": 0, "DATE": "2003-01-08", "SNOW": null, "EGGCHICK": "e", "CAVITYSIZE": null, "CAVDEPTH": null, "DISTNN": null, "SUBSTRATE": null, "COMMENTS": "1watchingnest", "SITEDOTID": 0, "ASPECT": null, "FIRST_FRED": null, "METADATA": null }, "geometry": { "type": "Point", "coordinates": [ 110.420261784213409, -66.406611461839319 ] } },
{ "type": "Feature", "properties": { "SPECIES": "SPSK", "ACTIVITY": "MF", "TYPE": null, "ENTRANCES": null, "SLOPE": null, "REMNANTS": null, "NESTNB": 0, "DATE": "2003-01-08", "SNOW": null, "EGGCHICK": "e", "CAVITYSIZE": null, "CAVDEPTH": null, "DISTNN": null, "SUBSTRATE": null, "COMMENTS": "2incolony", "SITEDOTID": 0, "ASPECT": null, "FIRST_FRED": null, "METADATA": null }, "geometry": { "type": "Point", "coordinates": [ 110.419134821030141, -66.406460060883475 ] } },
{ "type": "Feature", "properties": { "SPECIES": "SPSK", "ACTIVITY": null, "TYPE": null, "ENTRANCES": null, "SLOPE": null, "REMNANTS": null, "NESTNB": 0, "DATE": "2003-01-08", "SNOW": null, "EGGCHICK": null, "CAVITYSIZE": null, "CAVDEPTH": null, "DISTNN": null, "SUBSTRATE": null, "COMMENTS": "1incol", "SITEDOTID": 0, "ASPECT": null, "FIRST_FRED": null, "METADATA": null }, "geometry": { "type": "Point", "coordinates": [ 110.420948619749339, -66.40671277433222 ] } },
{ "type": "Feature", "properties": { "SPECIES": "SPSK", "ACTIVITY": null, "TYPE": null, "ENTRANCES": null, "SLOPE": null, "REMNANTS": null, "NESTNB": 0, "DATE": "2003-01-08", "SNOW": null, "EGGCHICK": null, "CAVITYSIZE": null, "CAVDEPTH": null, "DISTNN": null, "SUBSTRATE": null, "COMMENTS": "pairaround", "SITEDOTID": 0, "ASPECT": null, "FIRST_FRED": null, "METADATA": null }, "geometry": { "type": "Point", "coordinates": [ 110.416717945546779, -66.40673438233641 ] } },
{ "type": "Feature", "properties": { "SPECIES": "SPSK", "ACTIVITY": "MF", "TYPE": null, "ENTRANCES": null, "SLOPE": null, "REMNANTS": null, "NESTNB": 0, "DATE": "2003-01-08", "SNOW": null, "EGGCHICK": "c", "CAVITYSIZE": null, "CAVDEPTH": null, "DISTNN": null, "SUBSTRATE": null, "COMMENTS": "pairwatch", "SITEDOTID": 0, "ASPECT": null, "FIRST_FRED": null, "METADATA": null }, "geometry": { "type": "Point", "coordinates": [ 110.414447103087014, -66.406426999388671 ] } },
{ "type": "Feature", "properties": { "SPECIES": "SPSK", "ACTIVITY": "B", "TYPE": null, "ENTRANCES": null, "SLOPE": null, "REMNANTS": null, "NESTNB": 0, "DATE": "2003-01-08", "SNOW": null, "EGGCHICK": "c", "CAVITYSIZE": null, "CAVDEPTH": null, "DISTNN": null, "SUBSTRATE": null, "COMMENTS": null, "SITEDOTID": 0, "ASPECT": null, "FIRST_FRED": 4960, "METADATA": null }, "geometry": { "type": "Point", "coordinates": [ 110.41183618903716, -66.405780652914927 ] } },
{ "type": "Feature", "properties": { "SPECIES": "SPSK", "ACTIVITY": "MF", "TYPE": null, "ENTRANCES": null, "SLOPE": null, "REMNANTS": null, "NESTNB": 0, "DATE": "2003-01-10", "SNOW": "A", "EGGCHICK": "e", "CAVITYSIZE": null, "CAVDEPTH": null, "DISTNN": null, "SUBSTRATE": null, "COMMENTS": null, "SITEDOTID": 0, "ASPECT": null, "FIRST_FRED": null, "METADATA": null }, "geometry": { "type": "Point", "coordinates": [ 110.416276297605904, -66.404063722817781 ] } },
{ "type": "Feature", "properties": { "SPECIES": "SPSK", "ACTIVITY": null, "TYPE": null, "ENTRANCES": null, "SLOPE": null, "REMNANTS": null, "NESTNB": 0, "DATE": "2002-11-24", "SNOW": null, "EGGCHICK": null, "CAVITYSIZE": null, "CAVDEPTH": null, "DISTNN": null, "SUBSTRATE": null, "COMMENTS": "hauloutpont", "SITEDOTID": 0, "ASPECT": null, "FIRST_FRED": null, "METADATA": null }, "geometry": { "type": "Point", "coordinates": [ 110.500686666501295, -66.458756674941171 ] } },
{ "type": "Feature", "properties": { "SPECIES": "SPSK", "ACTIVITY": null, "TYPE": "open grou", "ENTRANCES": 0, "SLOPE": null, "REMNANTS": null, "NESTNB": 0, "DATE": "2002-11-15", "SNOW": null, "EGGCHICK": null, "CAVITYSIZE": null, "CAVDEPTH": null, "DISTNN": 0, "SUBSTRATE": null, "COMMENTS": "skuaobservatory", "SITEDOTID": 0, "ASPECT": null, "FIRST_FRED": null, "METADATA": null }, "geometry": { "type": "Point", "coordinates": [ 110.623277638899268, -66.411285137398053 ] } },
{ "type": "Feature", "properties": { "SPECIES": "SPSK", "ACTIVITY": null, "TYPE": null, "ENTRANCES": null, "SLOPE": null, "REMNANTS": null, "NESTNB": 0, "DATE": "2002-11-18", "SNOW": null, "EGGCHICK": null, "CAVITYSIZE": null, "CAVDEPTH": null, "DISTNN": null, "SUBSTRATE": null, "COMMENTS": "roost", "SITEDOTID": 0, "ASPECT": null, "FIRST_FRED": null, "METADATA": null }, "geometry": { "type": "Point", "coordinates": [ 110.50040833316784, -66.459891674941332 ] } },
{ "type": "Feature", "properties": { "SPECIES": "SPSK", "ACTIVITY": null, "TYPE": null, "ENTRANCES": null, "SLOPE": null, "REMNANTS": null, "NESTNB": 0, "DATE": null, "SNOW": null, "EGGCHICK": null, "CAVITYSIZE": null, "CAVDEPTH": null, "DISTNN": null, "SUBSTRATE": null, "COMMENTS": "roost", "SITEDOTID": 0, "ASPECT": null, "FIRST_FRED": 2032, "METADATA": null }, "geometry": { "type": "Point", "coordinates": [ 110.489849684644369, -66.461624231151433 ] } },
{ "type": "Feature", "properties": { "SPECIES": "SPSK", "ACTIVITY": "MF", "TYPE": null, "ENTRANCES": null, "SLOPE": null, "REMNANTS": null, "NESTNB": 0, "DATE": "2002-11-20", "SNOW": null, "EGGCHICK": null, "CAVITYSIZE": null, "CAVDEPTH": null, "DISTNN": null, "SUBSTRATE": null, "COMMENTS": "hangout", "SITEDOTID": 0, "ASPECT": null, "FIRST_FRED": 2602, "METADATA": null }, "geometry": { "type": "Point", "coordinates": [ 110.487377255598616, -66.449776236267951 ] } },
{ "type": "Feature", "properties": { "SPECIES": "SPSK", "ACTIVITY": "MF", "TYPE": null, "ENTRANCES": null, "SLOPE": null, "REMNANTS": null, "NESTNB": 0, "DATE": "2002-11-20", "SNOW": "BI", "EGGCHICK": null, "CAVITYSIZE": null, "CAVDEPTH": null, "DISTNN": null, "SUBSTRATE": null, "COMMENTS": null, "SITEDOTID": 0, "ASPECT": null, "FIRST_FRED": 2035, "METADATA": null }, "geometry": { "type": "Point", "coordinates": [ 110.503169999835407, -66.4600300082747 ] } },
{ "type": "Feature", "properties": { "SPECIES": "SPSK", "ACTIVITY": null, "TYPE": null, "ENTRANCES": null, "SLOPE": null, "REMNANTS": null, "NESTNB": 0, "DATE": "2002-11-21", "SNOW": "A", "EGGCHICK": null, "CAVITYSIZE": null, "CAVDEPTH": null, "DISTNN": null, "SUBSTRATE": null, "COMMENTS": "hagout", "SITEDOTID": 0, "ASPECT": null, "FIRST_FRED": 1557, "METADATA": null }, "geometry": { "type": "Point", "coordinates": [ 110.490136666497676, -66.470570008276155 ] } },
{ "type": "Feature", "properties": { "SPECIES": "SPSK", "ACTIVITY": null, "TYPE": null, "ENTRANCES": null, "SLOPE": null, "REMNANTS": null, "NESTNB": 0, "DATE": "2002-12-11", "SNOW": null, "EGGCHICK": null, "CAVITYSIZE": null, "CAVDEPTH": null, "DISTNN": null, "SUBSTRATE": null, "COMMENTS": null, "SITEDOTID": 0, "ASPECT": null, "FIRST_FRED": 9139, "METADATA": null }, "geometry": { "type": "Point", "coordinates": [ 110.411323333140061, -66.327136674922087 ] } },
{ "type": "Feature", "properties": { "SPECIES": "SPSK", "ACTIVITY": "B", "TYPE": null, "ENTRANCES": null, "SLOPE": null, "REMNANTS": null, "NESTNB": 0, "DATE": "2002-12-05", "SNOW": null, "EGGCHICK": null, "CAVITYSIZE": null, "CAVDEPTH": null, "DISTNN": null, "SUBSTRATE": null, "COMMENTS": "roosting", "SITEDOTID": 0, "ASPECT": null, "FIRST_FRED": 11534, "METADATA": null }, "geometry": { "type": "Point", "coordinates": [ 110.501080124901705, -66.281301376530052 ] } },
{ "type": "Feature", "properties": { "SPECIES": "SPSK", "ACTIVITY": "B", "TYPE": "open grou", "ENTRANCES": 0, "SLOPE": null, "REMNANTS": null, "NESTNB": 0, "DATE": "2002-12-05", "SNOW": "A", "EGGCHICK": null, "CAVITYSIZE": null, "CAVDEPTH": null, "DISTNN": 0, "SUBSTRATE": null, "COMMENTS": "nestinwetarea", "SITEDOTID": 0, "ASPECT": null, "FIRST_FRED": 11534, "METADATA": null }, "geometry": { "type": "Point", "coordinates": [ 110.502076801118179, -66.281005329606955 ] } },
{ "type": "Feature", "properties": { "SPECIES": "SPSK", "ACTIVITY": null, "TYPE": null, "ENTRANCES": null, "SLOPE": null, "REMNANTS": null, "NESTNB": 0, "DATE": "2002-12-05", "SNOW": null, "EGGCHICK": null, "CAVITYSIZE": null, "CAVDEPTH": null, "DISTNN": null, "SUBSTRATE": null, "COMMENTS": "roosting", "SITEDOTID": 0, "ASPECT": null, "FIRST_FRED": null, "METADATA": null }, "geometry": { "type": "Point", "coordinates": [ 110.491808333166944, -66.282248341582275 ] } },
{ "type": "Feature", "properties": { "SPECIES": "SPSK", "ACTIVITY": "B", "TYPE": null, "ENTRANCES": null, "SLOPE": null, "REMNANTS": null, "NESTNB": 0, "DATE": "2002-12-05", "SNOW": null, "EGGCHICK": null, "CAVITYSIZE": null, "CAVDEPTH": null, "DISTNN": null, "SUBSTRATE": null, "COMMENTS": "roosting", "SITEDOTID": 0, "ASPECT": null, "FIRST_FRED": 11627, "METADATA": null }, "geometry": { "type": "Point", "coordinates": [ 110.491662600225524, -66.27970220879493 ] } },
{ "type": "Feature", "properties": { "SPECIES": "SPSK", "ACTIVITY": null, "TYPE": null, "ENTRANCES": null, "SLOPE": null, "REMNANTS": null, "NESTNB": 0, "DATE": "2002-12-05", "SNOW": null, "EGGCHICK": null, "CAVITYSIZE": null, "CAVDEPTH": null, "DISTNN": null, "SUBSTRATE": null, "COMMENTS": "roosting", "SITEDOTID": 0, "ASPECT": null, "FIRST_FRED": null, "METADATA": null }, "geometry": { "type": "Point", "coordinates": [ 110.490949954298401, -66.280623430547664 ] } },
{ "type": "Feature", "properties": { "SPECIES": "SPSK", "ACTIVITY": null, "TYPE": null, "ENTRANCES": null, "SLOPE": null, "REMNANTS": null, "NESTNB": 0, "DATE": "2002-12-05", "SNOW": null, "EGGCHICK": null, "CAVITYSIZE": null, "CAVDEPTH": null, "DISTNN": null, "SUBSTRATE": null, "COMMENTS": "roosting", "SITEDOTID": 0, "ASPECT": null, "FIRST_FRED": 11627, "METADATA": null }, "geometry": { "type": "Point", "coordinates": [ 110.490694344324481, -66.279832710838051 ] } },
{ "type": "Feature", "properties": { "SPECIES": "SPSK", "ACTIVITY": "B", "TYPE": "open grou", "ENTRANCES": 0, "SLOPE": null, "REMNANTS": null, "NESTNB": 0, "DATE": "2002-12-05", "SNOW": null, "EGGCHICK": null, "CAVITYSIZE": null, "CAVDEPTH": null, "DISTNN": 0, "SUBSTRATE": null, "COMMENTS": "2nestcups1egg", "SITEDOTID": 0, "ASPECT": null, "FIRST_FRED": null, "METADATA": null }, "geometry": { "type": "Point", "coordinates": [ 110.488742347942349, -66.281722081325171 ] } },
{ "type": "Feature", "properties": { "SPECIES": "SPSK", "ACTIVITY": "MF", "TYPE": null, "ENTRANCES": null, "SLOPE": null, "REMNANTS": null, "NESTNB": 0, "DATE": "2002-12-05", "SNOW": "A", "EGGCHICK": null, "CAVITYSIZE": null, "CAVDEPTH": null, "DISTNN": null, "SUBSTRATE": null, "COMMENTS": "nest", "SITEDOTID": 0, "ASPECT": null, "FIRST_FRED": 11436, "METADATA": null }, "geometry": { "type": "Point", "coordinates": [ 110.487212750652063, -66.282390115286319 ] } },
{ "type": "Feature", "properties": { "SPECIES": "SPSK", "ACTIVITY": "B", "TYPE": null, "ENTRANCES": null, "SLOPE": null, "REMNANTS": null, "NESTNB": 0, "DATE": "2002-12-05", "SNOW": "A", "EGGCHICK": null, "CAVITYSIZE": null, "CAVDEPTH": null, "DISTNN": null, "SUBSTRATE": null, "COMMENTS": "nestwithegg", "SITEDOTID": 0, "ASPECT": null, "FIRST_FRED": 11436, "METADATA": null }, "geometry": { "type": "Point", "coordinates": [ 110.486708711981251, -66.282325839900082 ] } },
{ "type": "Feature", "properties": { "SPECIES": "SPSK", "ACTIVITY": null, "TYPE": null, "ENTRANCES": null, "SLOPE": null, "REMNANTS": null, "NESTNB": 0, "DATE": "2002-12-06", "SNOW": "A", "EGGCHICK": null, "CAVITYSIZE": null, "CAVDEPTH": null, "DISTNN": null, "SUBSTRATE": null, "COMMENTS": "roost", "SITEDOTID": 0, "ASPECT": null, "FIRST_FRED": 10104, "METADATA": null }, "geometry": { "type": "Point", "coordinates": [ 110.476889999828458, -66.306855008252541 ] } },
{ "type": "Feature", "properties": { "SPECIES": "SPSK", "ACTIVITY": "B", "TYPE": null, "ENTRANCES": null, "SLOPE": null, "REMNANTS": null, "NESTNB": 0, "DATE": "2002-12-06", "SNOW": "A", "EGGCHICK": null, "CAVITYSIZE": null, "CAVDEPTH": null, "DISTNN": null, "SUBSTRATE": null, "COMMENTS": "cup", "SITEDOTID": 0, "ASPECT": null, "FIRST_FRED": null, "METADATA": null }, "geometry": { "type": "Point", "coordinates": [ 110.482168333163514, -66.30679500825255 ] } },
{ "type": "Feature", "properties": { "SPECIES": "SPSK", "ACTIVITY": "B", "TYPE": null, "ENTRANCES": 0, "SLOPE": null, "REMNANTS": null, "NESTNB": 0, "DATE": "2002-12-06", "SNOW": "A", "EGGCHICK": "e", "CAVITYSIZE": null, "CAVDEPTH": null, "DISTNN": 0, "SUBSTRATE": null, "COMMENTS": "nestcup2eggs", "SITEDOTID": 0, "ASPECT": null, "FIRST_FRED": 10200, "METADATA": null }, "geometry": { "type": "Point", "coordinates": [ 110.483198526009915, -66.307180049993434 ] } },
{ "type": "Feature", "properties": { "SPECIES": "SPSK", "ACTIVITY": "B", "TYPE": null, "ENTRANCES": 0, "SLOPE": null, "REMNANTS": null, "NESTNB": 0, "DATE": "2002-12-06", "SNOW": "A", "EGGCHICK": null, "CAVITYSIZE": null, "CAVDEPTH": null, "DISTNN": 0, "SUBSTRATE": null, "COMMENTS": "cup", "SITEDOTID": 0, "ASPECT": null, "FIRST_FRED": 10200, "METADATA": null }, "geometry": { "type": "Point", "coordinates": [ 110.483856666497402, -66.307336674919284 ] } },
{ "type": "Feature", "properties": { "SPECIES": "SPSK", "ACTIVITY": "B", "TYPE": null, "ENTRANCES": null, "SLOPE": null, "REMNANTS": null, "NESTNB": 0, "DATE": "2002-12-06", "SNOW": "A", "EGGCHICK": "e", "CAVITYSIZE": null, "CAVDEPTH": null, "DISTNN": null, "SUBSTRATE": null, "COMMENTS": "2eggscup", "SITEDOTID": 0, "ASPECT": null, "FIRST_FRED": 10200, "METADATA": null }, "geometry": { "type": "Point", "coordinates": [ 110.485284999831194, -66.307068341585918 ] } },
{ "type": "Feature", "properties": { "SPECIES": "SPSK", "ACTIVITY": null, "TYPE": null, "ENTRANCES": null, "SLOPE": null, "REMNANTS": null, "NESTNB": 0, "DATE": "2002-12-06", "SNOW": null, "EGGCHICK": null, "CAVITYSIZE": null, "CAVDEPTH": null, "DISTNN": null, "SUBSTRATE": null, "COMMENTS": "cup", "SITEDOTID": 0, "ASPECT": null, "FIRST_FRED": 10200, "METADATA": null }, "geometry": { "type": "Point", "coordinates": [ 110.483966666497437, -66.307621674919361 ] } },
{ "type": "Feature", "properties": { "SPECIES": "SPSK", "ACTIVITY": null, "TYPE": null, "ENTRANCES": null, "SLOPE": null, "REMNANTS": null, "NESTNB": 0, "DATE": "2002-12-06", "SNOW": null, "EGGCHICK": null, "CAVITYSIZE": null, "CAVDEPTH": null, "DISTNN": null, "SUBSTRATE": null, "COMMENTS": "cupanothercouple", "SITEDOTID": 0, "ASPECT": null, "FIRST_FRED": 10200, "METADATA": null }, "geometry": { "type": "Point", "coordinates": [ 110.484096666497464, -66.307571674919345 ] } },
{ "type": "Feature", "properties": { "SPECIES": "SPSK", "ACTIVITY": "B", "TYPE": null, "ENTRANCES": null, "SLOPE": null, "REMNANTS": null, "NESTNB": 0, "DATE": "2002-12-06", "SNOW": null, "EGGCHICK": null, "CAVITYSIZE": null, "CAVDEPTH": null, "DISTNN": null, "SUBSTRATE": null, "COMMENTS": "cupdifcouple", "SITEDOTID": 0, "ASPECT": null, "FIRST_FRED": 10200, "METADATA": null }, "geometry": { "type": "Point", "coordinates": [ 110.484193333164185, -66.307953341586042 ] } },
{ "type": "Feature", "properties": { "SPECIES": "SPSK", "ACTIVITY": null, "TYPE": null, "ENTRANCES": null, "SLOPE": null, "REMNANTS": null, "NESTNB": 0, "DATE": "2002-12-04", "SNOW": null, "EGGCHICK": null, "CAVITYSIZE": null, "CAVDEPTH": null, "DISTNN": null, "SUBSTRATE": null, "COMMENTS": "haulout", "SITEDOTID": 0, "ASPECT": null, "FIRST_FRED": 9050, "METADATA": null }, "geometry": { "type": "Point", "coordinates": [ 110.436989999815125, -66.327183341588807 ] } },
{ "type": "Feature", "properties": { "SPECIES": "SPSK", "ACTIVITY": "A", "TYPE": "2 boulder", "ENTRANCES": 1, "SLOPE": "5", "REMNANTS": null, "NESTNB": 0, "DATE": "2002-12-04", "SNOW": "AS", "EGGCHICK": null, "CAVITYSIZE": "l", "CAVDEPTH": "45", "DISTNN": 0, "SUBSTRATE": "gravel", "COMMENTS": null, "SITEDOTID": 0, "ASPECT": "NW", "FIRST_FRED": 9435, "METADATA": null }, "geometry": { "type": "Point", "coordinates": [ 110.459093333155792, -66.320365008254541 ] } }
]
}
