{
"type": "FeatureCollection",
"name": "umbilicaria_usnea_pseudephebe",
"crs": { "type": "name", "properties": { "name": "urn:ogc:def:crs:OGC:1.3:CRS84" } },
"features": [
{ "type": "Feature", "properties": { "id": 15, "Species": "Umbilicaria decussata, Usnea sphacelata, Pseudephebe minuscula" }, "geometry": { "type": "MultiPolygon", "coordinates": [ [ [ [ 110.497959722768755, -66.286325608306242 ], [ 110.498231643834274, -66.285833494795185 ], [ 110.498571545166158, -66.285614774590442 ], [ 110.499047407030844, -66.285423392852096 ], [ 110.499863170227428, -66.285095306486241 ], [ 110.50067893342397, -66.284767215843644 ], [ 110.501086815022248, -66.284275071860648 ], [ 110.50149469662054, -66.283509495426401 ], [ 110.502378440083504, -66.283126698477076 ], [ 110.504077946742996, -66.282634522416672 ], [ 110.506457256066369, -66.282634522416686 ], [ 110.507612920594823, -66.282907954749433 ], [ 110.50808878245951, -66.283263412341554 ], [ 110.509244446987978, -66.283646207211746 ], [ 110.510128190450914, -66.283919628554884 ], [ 110.510672032581965, -66.284630510146968 ], [ 110.510468091782826, -66.285368712088101 ], [ 110.510060210184534, -66.285833494795185 ], [ 110.509244446987978, -66.286270929502408 ], [ 110.508360703525028, -66.286571661453365 ], [ 110.506933117930998, -66.286817712194889 ], [ 110.506253315267216, -66.287009083330744 ], [ 110.505029670472339, -66.286927067307857 ], [ 110.504009966476616, -66.286872389810767 ], [ 110.503602084878352, -66.287227791418417 ], [ 110.503330163812834, -66.287719877666376 ], [ 110.502446420349884, -66.288075267305842 ], [ 110.50149469662054, -66.288075267305857 ], [ 110.500339032092072, -66.287829228859238 ], [ 110.499319328096362, -66.287337144749515 ], [ 110.498231643834274, -66.286735695548316 ], [ 110.497959722768755, -66.286325608306242 ] ] ] ] } },
{ "type": "Feature", "properties": { "id": 15, "Species": "Umbilicaria decussata, Usnea sphacelata, Pseudephebe minuscula" }, "geometry": { "type": "MultiPolygon", "coordinates": [ [ [ [ 110.507069078463758, -66.281677485861323 ], [ 110.507816861393962, -66.281404040162343 ], [ 110.508428683791408, -66.281404040162343 ], [ 110.509244446987978, -66.281568107938156 ], [ 110.509652328586256, -66.281759518991805 ], [ 110.510536072049206, -66.281841551854967 ], [ 110.511215874713002, -66.282087648840459 ], [ 110.511283854979368, -66.282415774411916 ], [ 110.51094395364747, -66.282853268520498 ], [ 110.510604052315585, -66.28323606962806 ], [ 110.509584348319876, -66.283318097679427 ], [ 110.508632624590547, -66.283072012723366 ], [ 110.508020802193087, -66.282579835593694 ], [ 110.507340999529305, -66.282169680634297 ], [ 110.507069078463758, -66.281677485861323 ] ] ] ] } },
{ "type": "Feature", "properties": { "id": 15, "Species": "Umbilicaria decussata, Usnea sphacelata, Pseudephebe minuscula" }, "geometry": { "type": "MultiPolygon", "coordinates": [ [ [ [ 110.524166331816048, -66.285723266027816 ], [ 110.524132125325423, -66.285860834687142 ], [ 110.524132125325423, -66.286243590055975 ], [ 110.523452322661598, -66.286626339603814 ], [ 110.522772519997787, -66.28706376053087 ], [ 110.52127695413742, -66.287555849986191 ], [ 110.519237546145987, -66.287501173855219 ], [ 110.518149861883884, -66.287227791418445 ], [ 110.518149861883884, -66.286681017635473 ], [ 110.518421782949403, -66.285970193957922 ], [ 110.518693705675659, -66.285314032003143 ], [ 110.518557743482162, -66.285259350203759 ], [ 110.518081881617476, -66.285122647180103 ], [ 110.517674000019213, -66.285040625009501 ], [ 110.516722276289869, -66.284767215843644 ], [ 110.516178434158803, -66.284439120924205 ], [ 110.516314394691591, -66.284193046927896 ], [ 110.516926217089008, -66.28386494452387 ], [ 110.516926217089008, -66.283646207211746 ], [ 110.515226710429474, -66.283810260374054 ], [ 110.513391243237209, -66.283837602463805 ], [ 110.512711440573383, -66.283454810504338 ], [ 110.512847401106157, -66.283044669801953 ], [ 110.512575480040638, -66.282415774411916 ], [ 110.511827697110434, -66.281841551854967 ], [ 110.511283854979368, -66.281157936493614 ], [ 110.512643460307018, -66.280556339618769 ], [ 110.514003065634626, -66.280009420893165 ], [ 110.516110453892423, -66.279708610529426 ], [ 110.518081881617476, -66.279462490285624 ], [ 110.520053309342515, -66.279380449669659 ], [ 110.522024737067568, -66.279380449669659 ], [ 110.523656263460722, -66.279435143443337 ], [ 110.526239513583178, -66.279489837098197 ], [ 110.528074980775472, -66.279571877357697 ], [ 110.52916266503756, -66.279653917349833 ], [ 110.529638526902261, -66.279708610529426 ], [ 110.530862171697095, -66.279708610529426 ], [ 110.532085816491943, -66.279544530634226 ], [ 110.532697638889388, -66.279106979018934 ], [ 110.53344542181955, -66.27872411511737 ], [ 110.534193204749755, -66.278313897333206 ], [ 110.534805027147186, -66.278122460079885 ], [ 110.536164632474808, -66.277848975764329 ], [ 110.538543941798153, -66.277329347380544 ], [ 110.54092325112147, -66.277055854449941 ], [ 110.542554777514596, -66.277274649032094 ], [ 110.542826698580143, -66.277657534975916 ], [ 110.542622757780975, -66.278587376598651 ], [ 110.541942955117193, -66.279161673386724 ], [ 110.541467093252507, -66.279407796571334 ], [ 110.540243448457645, -66.280118805588828 ], [ 110.538136060199847, -66.280364919416371 ], [ 110.536708474605859, -66.280364919416371 ], [ 110.53487300741358, -66.280501648280904 ], [ 110.533649362618718, -66.280720412919521 ], [ 110.532425717823841, -66.281212626405676 ], [ 110.532969559954893, -66.281650141425075 ], [ 110.534125224483375, -66.282251712160829 ], [ 110.534193204749755, -66.282661865783609 ], [ 110.533309461286805, -66.282962640859537 ], [ 110.531677934893679, -66.283072012723366 ], [ 110.531406013828132, -66.283072012723366 ], [ 110.530454290098803, -66.283017326850867 ], [ 110.528822763705676, -66.282989983870081 ], [ 110.527939020242712, -66.283017326850867 ], [ 110.52637547411598, -66.283126698477076 ], [ 110.525491730653016, -66.28320872688488 ], [ 110.524540006923687, -66.283290755025334 ], [ 110.523656263460722, -66.283154041309373 ], [ 110.522500598932254, -66.283126698477076 ], [ 110.521752816002049, -66.28323606962806 ], [ 110.521616855469304, -66.283700891717999 ], [ 110.522500598932254, -66.284028996260503 ], [ 110.523588283194343, -66.28441177948784 ], [ 110.524336066124505, -66.284712533654059 ], [ 110.524879908255585, -66.285013284226551 ], [ 110.524607987190052, -66.285587434431207 ], [ 110.524166331816048, -66.285723266027816 ] ] ] ] } },
{ "type": "Feature", "properties": { "id": 15, "Species": "Umbilicaria decussata, Usnea sphacelata, Pseudephebe minuscula" }, "geometry": { "type": "MultiPolygon", "coordinates": [ [ [ [ 110.524607987190052, -66.277958369847028 ], [ 110.524947888521965, -66.277657534975916 ], [ 110.526171533316798, -66.277575488478135 ], [ 110.527259217578887, -66.277575488478135 ], [ 110.528482862373778, -66.277630186173027 ], [ 110.529298625570334, -66.277739581206333 ], [ 110.530250349299649, -66.277985718293436 ], [ 110.530590250631548, -66.278313897333206 ], [ 110.530590250631548, -66.27869676747305 ], [ 110.529978428234145, -66.279079631790495 ], [ 110.528754783439297, -66.279189020526076 ], [ 110.527667099177208, -66.279052284532341 ], [ 110.526647395181485, -66.27872411511737 ], [ 110.525627691185775, -66.278560028805785 ], [ 110.524607987190052, -66.278368593423949 ], [ 110.524607987190052, -66.277958369847028 ] ] ] ] } },
{ "type": "Feature", "properties": { "id": 15, "Species": "Umbilicaria decussata, Usnea sphacelata, Pseudephebe minuscula" }, "geometry": { "type": "MultiPolygon", "coordinates": [ [ [ [ 110.524064145059, -66.287528511935534 ], [ 110.526171533316798, -66.287473835745146 ], [ 110.526715375447878, -66.287719877666376 ], [ 110.527259217578887, -66.288075267305842 ], [ 110.527531138644434, -66.288430651926518 ], [ 110.527531138644434, -66.288594673904882 ], [ 110.527531138644434, -66.289059397037889 ], [ 110.526715375447878, -66.28952411158869 ], [ 110.524743947722826, -66.2897701334647 ], [ 110.522024737067568, -66.289660790705668 ], [ 110.521344934403757, -66.289414767760604 ], [ 110.520937052805479, -66.289141406111625 ], [ 110.520937052805479, -66.288813368212999 ], [ 110.520937052805479, -66.288348640536441 ], [ 110.522024737067568, -66.287829228859238 ], [ 110.524064145059, -66.287528511935534 ] ] ] ] } },
{ "type": "Feature", "properties": { "id": 15, "Species": "Umbilicaria decussata, Usnea sphacelata, Pseudephebe minuscula" }, "geometry": { "type": "MultiPolygon", "coordinates": [ [ [ [ 110.528890743972056, -66.286681017635473 ], [ 110.53065823089797, -66.286216250579798 ], [ 110.531406013828132, -66.285997533701376 ], [ 110.532425717823841, -66.285806154873541 ], [ 110.533309461286805, -66.285560094242271 ], [ 110.533377441553171, -66.284985943413929 ], [ 110.532969559954893, -66.284275071860634 ], [ 110.533037540221272, -66.283782918254587 ], [ 110.534533106081682, -66.283591522586704 ], [ 110.536232612741188, -66.283618864914075 ], [ 110.537048375937758, -66.283946970525832 ], [ 110.537388277269642, -66.284493803707775 ], [ 110.537524237802444, -66.284849238905252 ], [ 110.537592218068824, -66.285149987844235 ], [ 110.538068079933467, -66.285423392852096 ], [ 110.539291724728315, -66.285806154873541 ], [ 110.539631626060242, -66.286134231973122 ], [ 110.53997152739214, -66.286653678634494 ], [ 110.540311428724024, -66.287473835745146 ], [ 110.540311428724024, -66.287856566583201 ], [ 110.540107487924885, -66.287993254757581 ], [ 110.538747882597278, -66.287883904277464 ], [ 110.537252316736897, -66.287555849986163 ], [ 110.536232612741188, -66.287747215509143 ], [ 110.536096652208428, -66.288129942189542 ], [ 110.5365725140731, -66.288485326038085 ], [ 110.537116356204137, -66.288786031528446 ], [ 110.536844435138633, -66.289223414918126 ], [ 110.536096652208428, -66.28952411158869 ], [ 110.536504533806735, -66.289934146712412 ], [ 110.537456257536064, -66.290098158891112 ], [ 110.538815862863672, -66.290289505081759 ], [ 110.540515369523177, -66.290344175154715 ], [ 110.541806994584434, -66.290508184660823 ], [ 110.541806994584434, -66.290863534923446 ], [ 110.541263152453368, -66.291355550079288 ], [ 110.53990354712576, -66.291656221271637 ], [ 110.538000099667101, -66.291628887675358 ], [ 110.537116356204123, -66.291464885474028 ], [ 110.536028671942049, -66.291218880167733 ], [ 110.534601086348061, -66.290945538117555 ], [ 110.533105520487652, -66.290480849817385 ], [ 110.531881875692804, -66.29020749974967 ], [ 110.530930151963474, -66.289852140222195 ], [ 110.529842467701386, -66.289387431729352 ], [ 110.528414882107398, -66.288540000030892 ], [ 110.528074980775472, -66.288047929819456 ], [ 110.528278921574611, -66.287555849986163 ], [ 110.528482862373778, -66.287091099086368 ], [ 110.528890743972056, -66.286681017635473 ] ] ] ] } },
{ "type": "Feature", "properties": { "id": 15, "Species": "Umbilicaria decussata, Usnea sphacelata, Pseudephebe minuscula" }, "geometry": { "type": "MultiPolygon", "coordinates": [ [ [ [ 110.545138027637094, -66.286954406011873 ], [ 110.545817830300905, -66.286708356606752 ], [ 110.546429652698308, -66.286599000543418 ], [ 110.547313396161272, -66.286434965557518 ], [ 110.54942078441907, -66.28618891107395 ], [ 110.551052310812224, -66.286134231973122 ], [ 110.552275955607072, -66.28618891107395 ], [ 110.552139995074327, -66.286489644004959 ], [ 110.551732113476021, -66.286681017635473 ], [ 110.551528172676882, -66.286981744686145 ], [ 110.552479896406226, -66.2873371447495 ], [ 110.553431620135555, -66.2873371447495 ], [ 110.55499516626233, -66.2873371447495 ], [ 110.556286791323558, -66.287555849986191 ], [ 110.556218811057178, -66.288020592303383 ], [ 110.555335067594228, -66.288348640536441 ], [ 110.553567580668314, -66.288485326038099 ], [ 110.552615856938971, -66.288457988997166 ], [ 110.551528172676882, -66.288321303347033 ], [ 110.550372508148413, -66.288430651926532 ], [ 110.548944922554426, -66.288704021296539 ], [ 110.547517336960397, -66.288840704867908 ], [ 110.546157731632803, -66.288622010797354 ], [ 110.545749850034525, -66.288430651926532 ], [ 110.545138027637094, -66.287911241942055 ], [ 110.544934086837955, -66.287473835745146 ], [ 110.545138027637094, -66.286954406011873 ] ] ] ] } }
]
}
