{
"type": "FeatureCollection",
"name": "umbilicaria_pseudephebe_buellia_bryophytes",
"crs": { "type": "name", "properties": { "name": "urn:ogc:def:crs:OGC:1.3:CRS84" } },
"features": [
{ "type": "Feature", "properties": { "id": 3, "Species": "Umbilicaria decussata, Pseudephebe minuscula, Buellia frigida, bryophytes" }, "geometry": { "type": "MultiPolygon", "coordinates": [ [ [ [ 110.603946496652227, -66.366154484022601 ], [ 110.603841324252087, -66.366044861037281 ], [ 110.603573103350612, -66.365971742148787 ], [ 110.602907915514919, -66.365894321916755 ], [ 110.602596779269163, -66.365881418521496 ], [ 110.602113981646497, -66.365868515119629 ], [ 110.60141660730261, -66.365877117388266 ], [ 110.600858707827513, -66.365890020785741 ], [ 110.600300808352429, -66.366010452175132 ], [ 110.599936027926418, -66.3661867970945 ], [ 110.599839468401882, -66.366341635513223 ], [ 110.59989311258218, -66.366496472975754 ], [ 110.600033851951153, -66.36654101530857 ], [ 110.599056263369533, -66.366556687286248 ], [ 110.596824665469114, -66.366556687286248 ], [ 110.594593067568738, -66.366694319452961 ], [ 110.592618961733763, -66.366797543082157 ], [ 110.590816517275783, -66.36724484056441 ], [ 110.590595554369031, -66.36731570315051 ], [ 110.590580482882487, -66.367219035157362 ], [ 110.590301533144924, -66.367055600295856 ], [ 110.58985092203045, -66.366935173926663 ], [ 110.589271564883205, -66.366866358598855 ], [ 110.588155765933038, -66.366900766286363 ], [ 110.587104339999172, -66.366986785298593 ], [ 110.586546440524089, -66.367124415104243 ], [ 110.586500091904696, -66.367304021325111 ], [ 110.586095829409558, -66.367520096586986 ], [ 110.584636707705442, -66.367898568683529 ], [ 110.583778400820677, -66.368105005600739 ], [ 110.582834263247463, -66.368930736270912 ], [ 110.581975956362697, -66.369343591406931 ], [ 110.581117649477932, -66.369137164688851 ], [ 110.581289310854899, -66.368483468867353 ], [ 110.581718464297253, -66.368001787354615 ], [ 110.58206178705116, -66.367554503377306 ], [ 110.582748432558972, -66.367038396564226 ], [ 110.583692570132229, -66.366487870919585 ], [ 110.585666675967161, -66.36607496875294 ], [ 110.587812443179089, -66.365868515119629 ], [ 110.590129871767971, -66.365799696864073 ], [ 110.59193231622595, -66.365730878419626 ], [ 110.594163914126369, -66.36569646912659 ], [ 110.598712940615599, -66.36569646912659 ], [ 110.603948612612669, -66.365524421952955 ], [ 110.604463596743528, -66.36583410601547 ], [ 110.603946496652227, -66.366154484022601 ] ] ] ] } },
{ "type": "Feature", "properties": { "id": 3, "Species": "Umbilicaria decussata, Pseudephebe minuscula, Buellia frigida, bryophytes" }, "geometry": { "type": "MultiPolygon", "coordinates": [ [ [ [ 110.587686558371686, -66.367625610778703 ], [ 110.587812443179132, -66.367631918482914 ], [ 110.588348884982111, -66.367649121807233 ], [ 110.589443226260158, -66.367649121807233 ], [ 110.590030576090271, -66.367573170644235 ], [ 110.589614887637111, -66.367795349587482 ], [ 110.589099903506252, -66.368001787354615 ], [ 110.588327427309949, -66.368173817528756 ], [ 110.587640781802136, -66.367932974954456 ], [ 110.587640781802136, -66.367726536620651 ], [ 110.587686558371686, -66.367625610778703 ] ] ] ] } }
]
}
