{
"type": "FeatureCollection",
"name": "umbilicaria_pseudephebe_usnea",
"crs": { "type": "name", "properties": { "name": "urn:ogc:def:crs:OGC:1.3:CRS84" } },
"features": [
{ "type": "Feature", "properties": { "id": 26, "Species": "Umbilicaria decussata, Pseudephebe minuscula, Usnea sphacelata" }, "geometry": { "type": "MultiPolygon", "coordinates": [ [ [ [ 110.563152798228103, -66.258341885565486 ], [ 110.562201074498759, -66.257849224931419 ], [ 110.561657232367693, -66.257137587012252 ], [ 110.562065113966, -66.256206953258328 ], [ 110.563696640359112, -66.255331031274224 ], [ 110.565600087817785, -66.254564574566402 ], [ 110.566551811547114, -66.254236085985269 ], [ 110.567911416874736, -66.253688595503291 ], [ 110.569542943267876, -66.253414845802837 ], [ 110.571038509128286, -66.253250594555524 ], [ 110.572534074988653, -66.252867337482854 ], [ 110.573485798717982, -66.252484074583023 ], [ 110.573485798717982, -66.251881792538327 ], [ 110.573349838185223, -66.251115230942034 ], [ 110.57470944351283, -66.250567672673213 ], [ 110.577292693635329, -66.250239132003216 ], [ 110.577292693635329, -66.250239132003216 ], [ 110.578380377897417, -66.249308243520119 ], [ 110.579196141093988, -66.248377320664531 ], [ 110.579468062159506, -66.247446363435401 ], [ 110.581099588552618, -66.246515371831663 ], [ 110.580827667487114, -66.245420043581646 ], [ 110.580827667487114, -66.244434207475479 ], [ 110.58123554908542, -66.244050816359064 ], [ 110.582731114945787, -66.243503104652902 ], [ 110.584362641338927, -66.24290060803645 ], [ 110.586673970395879, -66.242188548022796 ], [ 110.587625694125208, -66.242133773342857 ], [ 110.589801062649386, -66.241202585582272 ], [ 110.591024707444248, -66.240271363440314 ], [ 110.591840470640832, -66.239887909035446 ], [ 110.592384312771884, -66.239887909035446 ], [ 110.594695641828835, -66.240545255874665 ], [ 110.596055247156428, -66.24054525587465 ], [ 110.598502536746167, -66.240161805633761 ], [ 110.600405984204841, -66.240052247351343 ], [ 110.602853273794537, -66.240107026552025 ], [ 110.604892681785955, -66.240216584596524 ], [ 110.60638824764635, -66.240161805633761 ], [ 110.609651300432631, -66.239997468031675 ], [ 110.610331103096428, -66.240271363440314 ], [ 110.612506471620634, -66.240709589907624 ], [ 110.614409919079264, -66.241366915332421 ], [ 110.614681840144812, -66.242188548022796 ], [ 110.614002037481001, -66.243119699380586 ], [ 110.611282826825757, -66.244215127551257 ], [ 110.608563616170542, -66.245310508139738 ], [ 110.60557248444978, -66.246186778352495 ], [ 110.601493668466929, -66.246898725478616 ], [ 110.59904637887719, -66.247446363435387 ], [ 110.596735049820253, -66.247555889599411 ], [ 110.594423720763302, -66.24766541528767 ], [ 110.592928154902921, -66.248213036592446 ], [ 110.591160667977007, -66.248870166458104 ], [ 110.589801062649386, -66.249363002617699 ], [ 110.588305496789033, -66.249965344840916 ], [ 110.586538009863119, -66.25067718527842 ], [ 110.585314365068257, -66.251334250919541 ], [ 110.582867075478532, -66.25193654604611 ], [ 110.581915351749203, -66.252046052704898 ], [ 110.580011904290529, -66.25193654604611 ], [ 110.577700575233592, -66.252100805855903 ], [ 110.576205009373226, -66.252374569827026 ], [ 110.575389246176655, -66.253688595503291 ], [ 110.574301561914567, -66.254236085985283 ], [ 110.572262153923134, -66.254455078848352 ], [ 110.570222745931702, -66.255331031274224 ], [ 110.569950824866154, -66.255604760164331 ], [ 110.570358706464461, -66.256261697371599 ], [ 110.568591219538547, -66.256644902834978 ], [ 110.566415851014369, -66.256973360023338 ], [ 110.565600087817785, -66.257301812931019 ], [ 110.564920285154002, -66.257685002579777 ], [ 110.563152798228103, -66.258341885565486 ] ] ] ] } },
{ "type": "Feature", "properties": { "id": 26, "Species": "Umbilicaria decussata, Pseudephebe minuscula, Usnea sphacelata" }, "geometry": { "type": "MultiPolygon", "coordinates": [ [ [ [ 110.518965625080483, -66.257247071077018 ], [ 110.52127695413742, -66.256261697371599 ], [ 110.523044441063334, -66.255987975616193 ], [ 110.525763651718592, -66.255604760164346 ], [ 110.528074980775529, -66.255440523187048 ], [ 110.530794191430772, -66.255440523187033 ], [ 110.531881875692861, -66.255714250888005 ], [ 110.532153796758379, -66.255987975616193 ], [ 110.532017836225634, -66.256425928997928 ], [ 110.531338033561809, -66.256754389040069 ], [ 110.530250349299706, -66.257028102471892 ], [ 110.529026704504858, -66.257411296282356 ], [ 110.527939020242769, -66.258013446212914 ], [ 110.52780305971001, -66.258506103636634 ], [ 110.526579414915162, -66.258506103636634 ], [ 110.524268085858182, -66.258506103636634 ], [ 110.522364638399509, -66.258615581756217 ], [ 110.519237546146002, -66.258615581756217 ], [ 110.518013901351139, -66.258451364398496 ], [ 110.518013901351139, -66.257903965477496 ], [ 110.518965625080483, -66.257247071077018 ] ] ] ] } },
{ "type": "Feature", "properties": { "id": 26, "Species": "Umbilicaria decussata, Pseudephebe minuscula, Usnea sphacelata" }, "geometry": { "type": "MultiPolygon", "coordinates": [ [ [ [ 110.531338033561809, -66.259600863430521 ], [ 110.532969559954964, -66.259436652493335 ], [ 110.534329165282557, -66.259491389591275 ], [ 110.535552810077448, -66.259765073297601 ], [ 110.535688770610193, -66.259984018122509 ], [ 110.535008967946382, -66.260202961045096 ], [ 110.534193204749812, -66.260312431793025 ], [ 110.533241481020468, -66.260476637023189 ], [ 110.532017836225634, -66.260695575665608 ], [ 110.530658230898013, -66.260586106582195 ], [ 110.530658230898013, -66.260093489821585 ], [ 110.531338033561809, -66.259600863430521 ] ] ] ] } },
{ "type": "Feature", "properties": { "id": 26, "Species": "Umbilicaria decussata, Pseudephebe minuscula, Usnea sphacelata" }, "geometry": { "type": "MultiPolygon", "coordinates": [ [ [ [ 110.534465125815316, -66.261078713712436 ], [ 110.535688770610193, -66.260367166988644 ], [ 110.537728178601625, -66.260202961045096 ], [ 110.539495665527511, -66.260367166988644 ], [ 110.540175468191322, -66.260859778399023 ], [ 110.53963162606027, -66.261571311212492 ], [ 110.538272020732649, -66.261899704195841 ], [ 110.536096652208471, -66.261899704195841 ], [ 110.534465125815316, -66.261626043673616 ], [ 110.534465125815316, -66.261078713712436 ] ] ] ] } },
{ "type": "Feature", "properties": { "id": 26, "Species": "Umbilicaria decussata, Pseudephebe minuscula, Usnea sphacelata" }, "geometry": { "type": "MultiPolygon", "coordinates": [ [ [ [ 110.541263152453411, -66.260312431793025 ], [ 110.543438520977602, -66.260202961045096 ], [ 110.544254284174187, -66.260038754031484 ], [ 110.54615773163286, -66.260038754031484 ], [ 110.546837534296671, -66.260202961045096 ], [ 110.546837534296671, -66.260421902065374 ], [ 110.545477928969035, -66.260969246293513 ], [ 110.544118323641428, -66.261297647123584 ], [ 110.541942955117236, -66.261407113115808 ], [ 110.541263152453411, -66.261078713712436 ], [ 110.541263152453411, -66.260312431793025 ] ] ] ] } },
{ "type": "Feature", "properties": { "id": 26, "Species": "Umbilicaria decussata, Pseudephebe minuscula, Usnea sphacelata" }, "geometry": { "type": "MultiPolygon", "coordinates": [ [ [ [ 110.535960691675726, -66.258670320637648 ], [ 110.537728178601625, -66.258341885565514 ], [ 110.538679902330927, -66.258396625041456 ], [ 110.539223744461992, -66.258889274974393 ], [ 110.538407981265408, -66.259546126570356 ], [ 110.536912415405055, -66.259600863430506 ], [ 110.535960691675726, -66.259327177940719 ], [ 110.535960691675726, -66.258670320637648 ] ] ] ] } },
{ "type": "Feature", "properties": { "id": 26, "Species": "Umbilicaria decussata, Pseudephebe minuscula, Usnea sphacelata" }, "geometry": { "type": "MultiPolygon", "coordinates": [ [ [ [ 110.538000099667144, -66.255878486081656 ], [ 110.539223744461992, -66.255768996071453 ], [ 110.540039507658562, -66.255768996071453 ], [ 110.540855270855147, -66.256152209026183 ], [ 110.540719310322359, -66.256535416154279 ], [ 110.539903547125817, -66.257028102471892 ], [ 110.538815862863729, -66.257685002579805 ], [ 110.536504533806777, -66.257301812931033 ], [ 110.536504533806777, -66.256644902835006 ], [ 110.537320297003319, -66.256206953258356 ], [ 110.538000099667144, -66.255878486081656 ] ] ] ] } },
{ "type": "Feature", "properties": { "id": 26, "Species": "Umbilicaria decussata, Pseudephebe minuscula, Usnea sphacelata" }, "geometry": { "type": "MultiPolygon", "coordinates": [ [ [ [ 110.549012902820863, -66.253852843896553 ], [ 110.547381376427694, -66.253907593123117 ], [ 110.545749850034582, -66.253907593123117 ], [ 110.543846402575895, -66.253743345086633 ], [ 110.543574481510362, -66.253031591227554 ], [ 110.544390244706946, -66.252593578863312 ], [ 110.544390244706946, -66.252046052704912 ], [ 110.545477928969035, -66.251169986114817 ], [ 110.546837534296671, -66.250786697407918 ], [ 110.546837534296671, -66.250786697407918 ], [ 110.548333100157038, -66.250786697407918 ], [ 110.549828666017405, -66.250786697407918 ], [ 110.552955758270954, -66.250841453294271 ], [ 110.553635560934737, -66.251498514653917 ], [ 110.553907482000284, -66.251827038911614 ], [ 110.554859205729628, -66.252155558887992 ], [ 110.555403047860651, -66.252155558888006 ], [ 110.55635477158998, -66.251772285165998 ], [ 110.557442455852083, -66.251279496103564 ], [ 110.557714376917602, -66.250567672673213 ], [ 110.558666100646917, -66.25018437480864 ], [ 110.560297627040086, -66.250567672673213 ], [ 110.561113390236656, -66.250841453294257 ], [ 110.562201074498745, -66.250348646035619 ], [ 110.563968561424659, -66.25018437480864 ], [ 110.566959693145421, -66.250129617495134 ], [ 110.568727180071292, -66.250129617495119 ], [ 110.568863140604066, -66.250841453294257 ], [ 110.566687772079874, -66.251717531301438 ], [ 110.563288758760848, -66.25231981727066 ], [ 110.560841469171109, -66.252484074583037 ], [ 110.557578416384828, -66.253031591227554 ], [ 110.556626692655499, -66.253305345090226 ], [ 110.555131126795146, -66.253305345090226 ], [ 110.554859205729628, -66.252922088850013 ], [ 110.554315363598562, -66.252812585996821 ], [ 110.552411916139889, -66.25297684009827 ], [ 110.551596152943318, -66.253360095506011 ], [ 110.551596152943318, -66.253414845802851 ], [ 110.549012902820863, -66.253852843896553 ] ] ] ] } },
{ "type": "Feature", "properties": { "id": 26, "Species": "Umbilicaria decussata, Pseudephebe minuscula, Usnea sphacelata" }, "geometry": { "type": "MultiPolygon", "coordinates": [ [ [ [ 110.612098590022342, -66.248377320664545 ], [ 110.613050313751671, -66.248322559426114 ], [ 110.613866076948241, -66.248213036592475 ], [ 110.615361642808608, -66.248213036592475 ], [ 110.616721248136244, -66.248486842784587 ], [ 110.616857208669003, -66.248924926507144 ], [ 110.616857208669003, -66.248924926507144 ], [ 110.6157695244069, -66.249363002617699 ], [ 110.613458195349935, -66.249691554705308 ], [ 110.612098590022342, -66.249965344840916 ], [ 110.60937937936707, -66.250567672673213 ], [ 110.607204010842892, -66.250458159592284 ], [ 110.607068050310147, -66.249636796321397 ], [ 110.609651300432603, -66.249034446248416 ], [ 110.612098590022342, -66.248377320664545 ] ] ] ] } },
{ "type": "Feature", "properties": { "id": 26, "Species": "Umbilicaria decussata, Pseudephebe minuscula, Usnea sphacelata" }, "geometry": { "type": "MultiPolygon", "coordinates": [ [ [ [ 110.603261155392801, -66.246898725478644 ], [ 110.607339971375652, -66.245912947182148 ], [ 110.6085636161705, -66.245858180591213 ], [ 110.609651300432603, -66.246022480007127 ], [ 110.610738984694692, -66.246405841147748 ], [ 110.611010905760239, -66.246789196459957 ], [ 110.611010905760239, -66.247501126576893 ], [ 110.610059182030895, -66.248651125072556 ], [ 110.608019774039477, -66.248870166458104 ], [ 110.606388247646322, -66.248870166458104 ], [ 110.603804997523866, -66.248760646003205 ], [ 110.602445392196216, -66.248158274997223 ], [ 110.603261155392801, -66.246898725478644 ] ] ] ] } }
]
}
