{
"type": "FeatureCollection",
"name": "usnea_umbilicaria_pseudephebe_bryophytes",
"crs": { "type": "name", "properties": { "name": "urn:ogc:def:crs:OGC:1.3:CRS84" } },
"features": [
{ "type": "Feature", "properties": { "id": 16, "Species": "Usnea sphacelata, Umbilicaria decussata, Pseudephebe minuscula, bryophytes" }, "geometry": { "type": "MultiPolygon", "coordinates": [ [ [ [ 110.525423750386636, -66.283454810504338 ], [ 110.527735079443588, -66.28323606962806 ], [ 110.529026704504801, -66.28318138411197 ], [ 110.530522270365168, -66.28323606962806 ], [ 110.531473994094512, -66.283290755025348 ], [ 110.531745915160059, -66.283536837842874 ], [ 110.531881875692804, -66.28375557610542 ], [ 110.531609954627299, -66.284275071860648 ], [ 110.531406013828132, -66.284712533654059 ], [ 110.531270053295373, -66.285232009658429 ], [ 110.531066112496234, -66.285587434431207 ], [ 110.530250349299649, -66.285970193957922 ], [ 110.52923064530394, -66.285970193957922 ], [ 110.528550842640158, -66.285806154873555 ], [ 110.527803059709967, -66.285587434431207 ], [ 110.526783355714244, -66.285396052484927 ], [ 110.526171533316798, -66.285122647180103 ], [ 110.525627691185775, -66.284603168918522 ], [ 110.525151829321089, -66.284001654378642 ], [ 110.525423750386636, -66.283454810504338 ] ] ] ] } },
{ "type": "Feature", "properties": { "id": 16, "Species": "Usnea sphacelata, Umbilicaria decussata, Pseudephebe minuscula, bryophytes" }, "geometry": { "type": "MultiPolygon", "coordinates": [ [ [ [ 110.537796158867963, -66.283318097679427 ], [ 110.538204040466226, -66.282880611649816 ], [ 110.538340000998986, -66.282661865783624 ], [ 110.538747882597292, -66.28247046159133 ], [ 110.539835566859381, -66.282197024506189 ], [ 110.541263152453368, -66.281950928589993 ], [ 110.542894678846523, -66.281759518991805 ], [ 110.544390244706889, -66.281732174644688 ], [ 110.545749850034525, -66.281950928589993 ], [ 110.546837534296614, -66.282060304849765 ], [ 110.548808962021667, -66.282443118016474 ], [ 110.550100587082895, -66.283154041309388 ], [ 110.550032606816515, -66.283700891717999 ], [ 110.550100587082895, -66.283974312467095 ], [ 110.550304527882034, -66.284165705224268 ], [ 110.551936054275188, -66.284466462330826 ], [ 110.553567580668314, -66.284712533654059 ], [ 110.554315363598519, -66.285095306486241 ], [ 110.55411142279938, -66.285587434431235 ], [ 110.553499600401935, -66.28588817454937 ], [ 110.552139995074327, -66.28602487341513 ], [ 110.550916350279479, -66.285997533701376 ], [ 110.54942078441907, -66.2861068923782 ], [ 110.547381376427651, -66.286298268919197 ], [ 110.545885810567285, -66.286298268919197 ], [ 110.544934086837955, -66.286270929502408 ], [ 110.54418630390775, -66.285942854184768 ], [ 110.543982363108626, -66.285478073497259 ], [ 110.543710442043107, -66.285040625009501 ], [ 110.543234580178407, -66.285149987844235 ], [ 110.542350836715471, -66.285505413775283 ], [ 110.541535073518887, -66.285751474941137 ], [ 110.540583349789557, -66.285833494795185 ], [ 110.540175468191279, -66.285560094242271 ], [ 110.539699606326636, -66.285177328478667 ], [ 110.539223744461935, -66.284739874763716 ], [ 110.538272020732606, -66.284056338112663 ], [ 110.537796158867963, -66.283700891717999 ], [ 110.537796158867963, -66.283318097679427 ] ] ] ] } }
]
}
