{
"type": "FeatureCollection",
"name": "usnea_sphacelata_dominated",
"crs": { "type": "name", "properties": { "name": "urn:ogc:def:crs:OGC:1.3:CRS84" } },
"features": [
{ "type": "Feature", "properties": { "id": 23, "Species": "Usnea sphacelata dominated" }, "geometry": { "type": "MultiPolygon", "coordinates": [ [ [ [ 110.582459193880254, -66.27021756561976 ], [ 110.583818799207904, -66.269889281048563 ], [ 110.585042444002767, -66.269779851907288 ], [ 110.586266088797615, -66.27027227929895 ], [ 110.586538009863119, -66.271038258327962 ], [ 110.587761654657982, -66.272077764035501 ], [ 110.587625694125222, -66.272898396129492 ], [ 110.586673970395893, -66.273719001483073 ], [ 110.585314365068271, -66.274594284387149 ], [ 110.584090720273437, -66.27541483447942 ], [ 110.581643430683698, -66.275578941289268 ], [ 110.579604022692266, -66.274703692611013 ], [ 110.578652298962936, -66.273445469336323 ], [ 110.579060180561228, -66.272460729007094 ], [ 110.580419785888836, -66.271475950171123 ], [ 110.582459193880254, -66.27021756561976 ] ] ] ] } },
{ "type": "Feature", "properties": { "id": 28, "Species": "Usnea sphacelata dominated" }, "geometry": { "type": "MultiPolygon", "coordinates": [ [ [ [ 110.609107458301565, -66.24542004358166 ], [ 110.615089721743075, -66.243229244338906 ], [ 110.615633563874113, -66.242736288279275 ], [ 110.6157695244069, -66.24218854802281 ], [ 110.616313366537938, -66.241531244011867 ], [ 110.617265090267267, -66.240928700286048 ], [ 110.619032577193153, -66.240873922869923 ], [ 110.620392182520789, -66.240928700286048 ], [ 110.621343906250132, -66.241476467904363 ], [ 110.62270351157774, -66.241859898158694 ], [ 110.625150801167464, -66.24218854802281 ], [ 110.62773405128992, -66.242626741179677 ], [ 110.629501538215834, -66.242791061650635 ], [ 110.632220748871077, -66.243064926723008 ], [ 110.633852275264204, -66.243612647945795 ], [ 110.63344439366594, -66.244215127551286 ], [ 110.632628630469355, -66.244762823793209 ], [ 110.631269025141748, -66.244762823793181 ], [ 110.629501538215834, -66.244762823793209 ], [ 110.629229617150315, -66.24492713034617 ], [ 110.628413853953745, -66.245310508139767 ], [ 110.625558682765742, -66.244981898959253 ], [ 110.625558682765742, -66.245639113038038 ], [ 110.626646367027831, -66.246022480007127 ], [ 110.626646367027831, -66.246679666965491 ], [ 110.625286761700224, -66.247501126576893 ], [ 110.623111393176032, -66.247774940500165 ], [ 110.62012026145527, -66.247884465236879 ], [ 110.618352774529356, -66.248158274997223 ], [ 110.615497603341353, -66.248213036592475 ], [ 110.613594155882694, -66.247884465236908 ], [ 110.613050313751657, -66.247117782088679 ], [ 110.612234550555087, -66.246351075627388 ], [ 110.610603024161932, -66.2460772462412 ], [ 110.609107458301565, -66.24542004358166 ] ], [ [ 110.615407569725747, -66.244041510911728 ], [ 110.613363797563153, -66.244407426928746 ], [ 110.613477340461074, -66.245596617315442 ], [ 110.615748198419553, -66.246008247075579 ], [ 110.61756488478629, -66.245367931211831 ], [ 110.617905513480068, -66.244727599088165 ], [ 110.615407569725747, -66.244041510911728 ] ], [ [ 110.62040345723436, -66.243035214487165 ], [ 110.619040942459307, -66.243446886059687 ], [ 110.618813856663422, -66.243904291036472 ], [ 110.619381571153042, -66.244224469583941 ], [ 110.621425343315678, -66.244361687716989 ], [ 110.622901400988638, -66.243950031077858 ], [ 110.623128486784495, -66.243584108423832 ], [ 110.62278785809076, -66.243126697639596 ], [ 110.62222014360114, -66.242989472786519 ], [ 110.62040345723436, -66.243035214487165 ] ] ] ] } },
{ "type": "Feature", "properties": { "id": 28, "Species": "Usnea sphacelata dominated" }, "geometry": { "type": "MultiPolygon", "coordinates": [ [ [ [ 110.624742919569158, -66.238354033119023 ], [ 110.626374445962313, -66.23824446698427 ], [ 110.626510406495072, -66.238244466984298 ], [ 110.627054248626123, -66.238354033119023 ], [ 110.627598090757161, -66.238682728667783 ], [ 110.627462130224401, -66.23895663835323 ], [ 110.625966564364035, -66.239120982736779 ], [ 110.624606959036399, -66.238901856654067 ], [ 110.624742919569158, -66.238354033119023 ] ] ] ] } },
{ "type": "Feature", "properties": { "id": 28, "Species": "Usnea sphacelata dominated" }, "geometry": { "type": "MultiPolygon", "coordinates": [ [ [ [ 110.627326169691656, -66.23923054506426 ], [ 110.628957696084768, -66.23923054506426 ], [ 110.629093656617528, -66.23923054506426 ], [ 110.629501538215834, -66.239394887663209 ], [ 110.629773459281338, -66.239778349563309 ], [ 110.629365577683075, -66.240107026552053 ], [ 110.627326169691656, -66.239942688593047 ], [ 110.62691828809335, -66.239559229191372 ], [ 110.627326169691656, -66.23923054506426 ] ] ] ] } },
{ "type": "Feature", "properties": { "id": 28, "Species": "Usnea sphacelata dominated" }, "geometry": { "type": "MultiPolygon", "coordinates": [ [ [ [ 110.626374445962313, -66.240435699257844 ], [ 110.627326169691656, -66.240380920770946 ], [ 110.627870011822679, -66.240326142165145 ], [ 110.629093656617528, -66.240545255874679 ], [ 110.629365577683075, -66.240873922869923 ], [ 110.628957696084768, -66.241257362284657 ], [ 110.627326169691656, -66.2412025855823 ], [ 110.626374445962313, -66.240928700286048 ], [ 110.626374445962313, -66.240435699257844 ] ] ] ] } },
{ "type": "Feature", "properties": { "id": 28, "Species": "Usnea sphacelata dominated" }, "geometry": { "type": "MultiPolygon", "coordinates": [ [ [ [ 110.629093656617528, -66.2414216916779 ], [ 110.630453261945163, -66.241312138868025 ], [ 110.631269025141748, -66.241531244011881 ], [ 110.630861143543441, -66.242024223626075 ], [ 110.629501538215834, -66.242024223626075 ], [ 110.629093656617528, -66.241750347252278 ], [ 110.629093656617528, -66.2414216916779 ] ] ] ] } },
{ "type": "Feature", "properties": { "id": 28, "Species": "Usnea sphacelata dominated" }, "geometry": { "type": "MultiPolygon", "coordinates": [ [ [ [ 110.636707446452206, -66.243393560884172 ], [ 110.639018775509143, -66.243229244338906 ], [ 110.640378380836793, -66.243229244338877 ], [ 110.641737986164401, -66.24333878882139 ], [ 110.642009907229905, -66.243503104652902 ], [ 110.642145867762665, -66.244050816359092 ], [ 110.64187394669716, -66.244215127551271 ], [ 110.639562617640209, -66.244543746723863 ], [ 110.636843406984966, -66.244434207475493 ], [ 110.636163604321169, -66.243941274969529 ], [ 110.636707446452206, -66.243393560884172 ] ] ] ] } },
{ "type": "Feature", "properties": { "id": 28, "Species": "Usnea sphacelata dominated" }, "geometry": { "type": "MultiPolygon", "coordinates": [ [ [ [ 110.565328166752266, -66.248486842784587 ], [ 110.567775456341963, -66.247555889599425 ], [ 110.567911416874722, -66.247282073297271 ], [ 110.568863140604051, -66.247063018114588 ], [ 110.569814864333381, -66.247063018114602 ], [ 110.570630627529965, -66.247282073297271 ], [ 110.570902548595484, -66.247610652503042 ], [ 110.570902548595484, -66.248158274997209 ], [ 110.570766588062725, -66.248596364428849 ], [ 110.570222745931659, -66.249034446248416 ], [ 110.570222745931659, -66.249582037818513 ], [ 110.568455259005788, -66.249910587051659 ], [ 110.566959693145378, -66.249527279196712 ], [ 110.565464127285026, -66.249527279196712 ], [ 110.564784324621201, -66.249089205940606 ], [ 110.565328166752266, -66.248486842784587 ] ] ] ] } },
{ "type": "Feature", "properties": { "id": 28, "Species": "Usnea sphacelata dominated" }, "geometry": { "type": "MultiPolygon", "coordinates": [ [ [ [ 110.54996462655015, -66.256973360023338 ], [ 110.552683837205407, -66.257082844801531 ], [ 110.553499600401977, -66.257137587012281 ], [ 110.553635560934737, -66.257411296282356 ], [ 110.553635560934737, -66.257685002579805 ], [ 110.552955758270912, -66.258013446212914 ], [ 110.550916350279493, -66.258396625041456 ], [ 110.55037250814847, -66.258451364398496 ], [ 110.548197139624278, -66.258341885565514 ], [ 110.548605021222542, -66.257739743482588 ], [ 110.54996462655015, -66.256973360023338 ] ] ] ] } },
{ "type": "Feature", "properties": { "id": 28, "Species": "Usnea sphacelata dominated" }, "geometry": { "type": "MultiPolygon", "coordinates": [ [ [ [ 110.557442455852083, -66.253852843896553 ], [ 110.559889745441765, -66.253579095979887 ], [ 110.56152127183492, -66.253743345086633 ], [ 110.563424719293593, -66.253907593123117 ], [ 110.564104521957375, -66.254181337472218 ], [ 110.564240482490177, -66.254619322247066 ], [ 110.562608956097023, -66.255002552681987 ], [ 110.560977429703868, -66.255276285139487 ], [ 110.558530140114172, -66.255659505585626 ], [ 110.556626692655499, -66.256097464675065 ], [ 110.554043442533043, -66.256316441365968 ], [ 110.552547876672648, -66.256042720205087 ], [ 110.552683837205407, -66.255604760164346 ], [ 110.553227679336459, -66.254947805833737 ], [ 110.557442455852083, -66.253852843896553 ] ] ] ] } },
{ "type": "Feature", "properties": { "id": 28, "Species": "Usnea sphacelata dominated" }, "geometry": { "type": "MultiPolygon", "coordinates": [ [ [ [ 110.557714376917588, -66.256425928997956 ], [ 110.559345903310742, -66.256371185241392 ], [ 110.559481863843502, -66.256535416154279 ], [ 110.559345903310742, -66.257137587012281 ], [ 110.559073982245195, -66.257520779158057 ], [ 110.558258219048639, -66.257958705904656 ], [ 110.556898613721003, -66.258560842755884 ], [ 110.556218811057221, -66.258287145970669 ], [ 110.556082850524461, -66.257356554666146 ], [ 110.557714376917588, -66.256425928997956 ] ] ] ] } },
{ "type": "Feature", "properties": { "id": 28, "Species": "Usnea sphacelata dominated" }, "geometry": { "type": "MultiPolygon", "coordinates": [ [ [ [ 110.559209942777954, -66.260367166988644 ], [ 110.559345903310742, -66.259765073297601 ], [ 110.560161666507284, -66.259272440486086 ], [ 110.561521271834906, -66.258944013261342 ], [ 110.562337035031504, -66.259327177940719 ], [ 110.561929153433198, -66.25981980968217 ], [ 110.561385311302175, -66.260038754031484 ], [ 110.561249350769415, -66.260257696478519 ], [ 110.559209942777954, -66.260367166988644 ] ] ] ] } },
{ "type": "Feature", "properties": { "id": 28, "Species": "Usnea sphacelata dominated" }, "geometry": { "type": "MultiPolygon", "coordinates": [ [ [ [ 110.56709565367818, -66.257356554666146 ], [ 110.568591219538547, -66.256973360023338 ], [ 110.568591219538547, -66.256973360023338 ], [ 110.569814864333381, -66.256973360023338 ], [ 110.570766588062725, -66.2571923291041 ], [ 110.572126193390332, -66.25746603777965 ], [ 110.572398114455879, -66.257739743482588 ], [ 110.572126193390332, -66.258287145970684 ], [ 110.571718311792068, -66.258889274974393 ], [ 110.570086785398914, -66.259217702912551 ], [ 110.56913506166957, -66.258889274974393 ], [ 110.567775456341963, -66.258287145970669 ], [ 110.566959693145378, -66.257794484266469 ], [ 110.56709565367818, -66.257356554666146 ] ] ] ] } },
{ "type": "Feature", "properties": { "id": 23, "Species": "Usnea sphacelata dominated" }, "geometry": { "type": "MultiPolygon", "coordinates": [ [ [ [ 110.560225721335399, -66.277455171528246 ], [ 110.560679892927098, -66.277089735108888 ], [ 110.561134064518754, -66.276815654313637 ], [ 110.561815321906295, -66.275993394026685 ], [ 110.56249657929385, -66.274622900542965 ], [ 110.564767437252286, -66.273800568648269 ], [ 110.568400809985818, -66.273800568648284 ], [ 110.571352925331837, -66.274805637317215 ], [ 110.572261268515192, -66.275627936391061 ], [ 110.573169611698589, -66.276724293385541 ], [ 110.574986298065326, -66.277820602643715 ], [ 110.575440469657025, -66.278642803261349 ], [ 110.574986298065326, -66.279830378973998 ], [ 110.574532126473642, -66.281200589033986 ], [ 110.574305040677828, -66.282296703386194 ], [ 110.571352925331837, -66.282753403613171 ], [ 110.570671667944296, -66.2821140209753 ], [ 110.569990410556755, -66.280835206976832 ], [ 110.569082067373358, -66.279921728631578 ], [ 110.567265381006621, -66.279373625714015 ], [ 110.566129952027381, -66.280743860633891 ], [ 110.567038295210764, -66.281657309147789 ], [ 110.567946638394162, -66.282753403613171 ], [ 110.567038295210764, -66.283484106741582 ], [ 110.564767437252286, -66.284397455823409 ], [ 110.563177836681376, -66.284397455823409 ], [ 110.561588236110467, -66.283210095554182 ], [ 110.56090697872294, -66.281748652176191 ], [ 110.560225721335399, -66.279373625714015 ], [ 110.560225721335399, -66.277455171528246 ] ] ] ] } }
]
}
