{
"type": "FeatureCollection",
"name": "vegetation_free_rock",
"crs": { "type": "name", "properties": { "name": "urn:ogc:def:crs:OGC:1.3:CRS84" } },
"features": [
{ "type": "Feature", "properties": { "id": 2, "Species": "Vegetation-free rock" }, "geometry": { "type": "MultiPolygon", "coordinates": [ [ [ [ 110.603004475039441, -66.372164586200014 ], [ 110.604892750185925, -66.371648574292394 ], [ 110.60626604120155, -66.371029345980801 ], [ 110.606609363955457, -66.371029345980801 ], [ 110.60738184015176, -66.371442166554885 ], [ 110.607124348086302, -66.37182057944193 ], [ 110.606609363955457, -66.372026984063325 ], [ 110.605836887759139, -66.372439788207174 ], [ 110.605150242251341, -66.372955783826498 ], [ 110.605321903628322, -66.373746956478058 ], [ 110.60437776605508, -66.37436611765429 ], [ 110.603176136416394, -66.374056538978181 ], [ 110.602231998843138, -66.373609363028322 ], [ 110.601631184023816, -66.373162179099893 ], [ 110.601717014712278, -66.372749386853499 ], [ 110.603004475039441, -66.372164586200014 ] ] ] ] } },
{ "type": "Feature", "properties": { "id": 2, "Species": "Vegetation-free rock" }, "geometry": { "type": "MultiPolygon", "coordinates": [ [ [ [ 110.613218326968152, -66.372474188245619 ], [ 110.614248295229856, -66.37192378196508 ], [ 110.61502077142616, -66.371751777523741 ], [ 110.616565723818738, -66.371682975416732 ], [ 110.61725236932655, -66.371751777523741 ], [ 110.61725236932655, -66.372164586200014 ], [ 110.616737385195691, -66.372646187729629 ], [ 110.616308231753294, -66.373093380864262 ], [ 110.615535755557019, -66.373540566020168 ], [ 110.614419956606824, -66.373953345236359 ], [ 110.613561649722044, -66.373781354722482 ], [ 110.613132496279647, -66.372852585552437 ], [ 110.613218326968152, -66.372474188245619 ] ] ] ] } },
{ "type": "Feature", "properties": { "id": 2, "Species": "Vegetation-free rock" }, "geometry": { "type": "MultiPolygon", "coordinates": [ [ [ [ 110.49744345704967, -66.348739848486971 ], [ 110.498130102557482, -66.348498819227089 ], [ 110.499074240130739, -66.348602117764813 ], [ 110.499589224261584, -66.34877428104943 ], [ 110.500018377703952, -66.34925633196228 ], [ 110.500361700457859, -66.349876098100097 ], [ 110.500962515277209, -66.350564709188447 ], [ 110.501734991473512, -66.351218872217814 ], [ 110.501649160785021, -66.351666447621511 ], [ 110.500275869769396, -66.351804161524072 ], [ 110.499074240130739, -66.351666447621511 ], [ 110.498215933245973, -66.350977866770222 ], [ 110.497357626361207, -66.350220406006585 ], [ 110.496928472918839, -66.349531785468997 ], [ 110.49744345704967, -66.348739848486971 ] ] ] ] } },
{ "type": "Feature", "properties": { "id": 2, "Species": "Vegetation-free rock" }, "geometry": { "type": "MultiPolygon", "coordinates": [ [ [ [ 110.511519689959812, -66.348188921062402 ], [ 110.512721319598469, -66.348085620823696 ], [ 110.513579626483235, -66.348085620823696 ], [ 110.514094610614094, -66.348223354380806 ], [ 110.514266271991048, -66.348429953298989 ], [ 110.51435210267951, -66.348705415877305 ], [ 110.51495291749886, -66.349118604074988 ], [ 110.515467901629705, -66.349531785468983 ], [ 110.515725393695149, -66.350013821829648 ], [ 110.515897055072116, -66.350392558188048 ], [ 110.515725393695149, -66.350805718604605 ], [ 110.514781256121893, -66.351012296261601 ], [ 110.513665457171726, -66.350943437231592 ], [ 110.512635488910007, -66.350358127846278 ], [ 110.511863012713718, -66.349600648373183 ], [ 110.511348028582859, -66.348980875431735 ], [ 110.511176367205906, -66.348567684966142 ], [ 110.511519689959812, -66.348188921062402 ] ] ] ] } },
{ "type": "Feature", "properties": { "id": 2, "Species": "Vegetation-free rock" }, "geometry": { "type": "MultiPolygon", "coordinates": [ [ [ [ 110.521218557757649, -66.350909007645726 ], [ 110.520617742938299, -66.350495848930009 ], [ 110.521046896380682, -66.350013821829663 ], [ 110.52147604982305, -66.349635079754421 ], [ 110.522506018084769, -66.349049739847857 ], [ 110.523965139788871, -66.348395520264106 ], [ 110.526282568377752, -66.347603547420363 ], [ 110.527999182147283, -66.346983725150906 ], [ 110.529715795916815, -66.346501630579311 ], [ 110.531947393817191, -66.34643275917017 ], [ 110.533406515521264, -66.346191707749853 ], [ 110.533921499652124, -66.34595065401416 ], [ 110.533921499652124, -66.345434102498146 ], [ 110.534436483782983, -66.344504282976459 ], [ 110.534779806536889, -66.343849944884965 ], [ 110.535466452044702, -66.34316114951676 ], [ 110.536238928241005, -66.3428511854341 ], [ 110.538041372699013, -66.342747863222584 ], [ 110.538813848895288, -66.34309226894031 ], [ 110.540187139910898, -66.344091018798139 ], [ 110.540015478533959, -66.34502085363026 ], [ 110.54010130922245, -66.345709597963122 ], [ 110.540358801287866, -66.34595065401416 ], [ 110.541045446795678, -66.346467194898352 ], [ 110.541302938861122, -66.34691485506481 ], [ 110.541388769549584, -66.347569113251481 ], [ 110.541131277484155, -66.349049739847857 ], [ 110.540015478533959, -66.349703942375143 ], [ 110.538127203387489, -66.349910529103369 ], [ 110.537440557879677, -66.349290763816001 ], [ 110.534007330340629, -66.348705415877305 ], [ 110.531518240374794, -66.348464386286665 ], [ 110.529715795916815, -66.348498819227089 ], [ 110.528085012835732, -66.348843146032479 ], [ 110.52722670595098, -66.34925633196228 ], [ 110.526969213885565, -66.350013821829648 ], [ 110.52782752077033, -66.35025483653736 ], [ 110.529286642474403, -66.350702429138295 ], [ 110.53023078004766, -66.350977866770222 ], [ 110.531089086932425, -66.351528732963104 ], [ 110.531089086932425, -66.352079587061453 ], [ 110.530831594866982, -66.352836991699078 ], [ 110.529801626605263, -66.353491095485225 ], [ 110.52834250490119, -66.353973055783342 ], [ 110.526797552508611, -66.354179607362411 ], [ 110.524909277362127, -66.354007481164643 ], [ 110.523879309100423, -66.353456669395342 ], [ 110.522677679461751, -66.352802564711567 ], [ 110.522076864642401, -66.352251726486898 ], [ 110.521561880511555, -66.35156316169855 ], [ 110.521218557757649, -66.350909007645726 ] ] ] ] } },
{ "type": "Feature", "properties": { "id": 2, "Species": "Vegetation-free rock" }, "geometry": { "type": "MultiPolygon", "coordinates": [ [ [ [ 110.556494970721431, -66.345675161195359 ], [ 110.556237478655987, -66.34539966535236 ], [ 110.55640914003294, -66.345089728914118 ], [ 110.557954092425518, -66.344986415917447 ], [ 110.55881239931027, -66.344951978157411 ], [ 110.56001402894897, -66.344951978157383 ], [ 110.561043997210689, -66.344917540350067 ], [ 110.561473150653057, -66.344538721350801 ], [ 110.561387319964595, -66.34412545773958 ], [ 110.561043997210689, -66.343471109771656 ], [ 110.560614843768306, -66.342885626076765 ], [ 110.561644812029996, -66.342059037609772 ], [ 110.563618917864972, -66.341955712137462 ], [ 110.565249700946012, -66.342403452779095 ], [ 110.566108007830763, -66.343333350130919 ], [ 110.566708822650128, -66.34422877428031 ], [ 110.567738790911847, -66.345124166485135 ], [ 110.568940420550504, -66.345812907982776 ], [ 110.569541235369826, -66.346329451702132 ], [ 110.569541235369826, -66.346880419950907 ], [ 110.569541235369826, -66.347500244771908 ], [ 110.569970388812223, -66.348154487696732 ], [ 110.57039954225462, -66.348774281049415 ], [ 110.569712896746779, -66.349084171985041 ], [ 110.568167944354201, -66.349394059093598 ], [ 110.566365499896222, -66.349669511088393 ], [ 110.5645630554382, -66.349600648373183 ], [ 110.563790579241939, -66.349497353945978 ], [ 110.560872335833707, -66.348843146032479 ], [ 110.558898229998775, -66.348120054283868 ], [ 110.557868261737056, -66.347431376103373 ], [ 110.557095785540781, -66.34667380827517 ], [ 110.556494970721431, -66.345675161195359 ] ] ] ] } },
{ "type": "Feature", "properties": { "id": 2, "Species": "Vegetation-free rock" }, "geometry": { "type": "MultiPolygon", "coordinates": [ [ [ [ 110.503806025677434, -66.287637863959915 ], [ 110.504621788874005, -66.28761052599836 ], [ 110.505301591537787, -66.287774553322194 ], [ 110.505981394201612, -66.288129942189528 ], [ 110.50632129553351, -66.288403314826184 ], [ 110.506593216599057, -66.289059397037875 ], [ 110.506253315267131, -66.289496775676199 ], [ 110.505233611271422, -66.289934146712397 ], [ 110.504417848074837, -66.29001615293538 ], [ 110.503941986210179, -66.289961482149778 ], [ 110.50292228221447, -66.289578783324586 ], [ 110.502446420349813, -66.28930542345735 ], [ 110.502310459817068, -66.289032060620556 ], [ 110.502310459817068, -66.288758694814135 ], [ 110.502514400616207, -66.288403314826184 ], [ 110.50292228221447, -66.288047929819442 ], [ 110.503466124345508, -66.287883904277464 ], [ 110.503806025677434, -66.287637863959915 ] ] ] ] } },
{ "type": "Feature", "properties": { "id": 2, "Species": "Vegetation-free rock" }, "geometry": { "type": "MultiPolygon", "coordinates": [ [ [ [ 110.511147894446552, -66.291382883972474 ], [ 110.512575480040539, -66.291218880167705 ], [ 110.513187302437984, -66.291300882203728 ], [ 110.51379912483543, -66.291546886708304 ], [ 110.513935085368189, -66.291765555359845 ], [ 110.51379912483543, -66.29214822092726 ], [ 110.513595184036262, -66.292530880674775 ], [ 110.512983361638845, -66.292776873153556 ], [ 110.512099618175895, -66.293022863227236 ], [ 110.510943953647427, -66.292940866803235 ], [ 110.51033213125001, -66.292640210962276 ], [ 110.510128190450843, -66.292148220927245 ], [ 110.51040011151639, -66.291847555614225 ], [ 110.511147894446552, -66.291382883972474 ] ] ] ] } },
{ "type": "Feature", "properties": { "id": 2, "Species": "Vegetation-free rock" }, "geometry": { "type": "MultiPolygon", "coordinates": [ [ [ [ 110.516178434158746, -66.29113687786446 ], [ 110.51713015788809, -66.290945538117541 ], [ 110.51808188161742, -66.290836200466018 ], [ 110.518557743482106, -66.290945538117526 ], [ 110.519237546145888, -66.291437551669887 ], [ 110.519917348809713, -66.291929555601399 ], [ 110.519849368543333, -66.292394217147333 ], [ 110.519373506678662, -66.292722208366129 ], [ 110.517674000019142, -66.292831537822224 ], [ 110.516722276289812, -66.292640210962276 ], [ 110.515770552560468, -66.292175553959368 ], [ 110.515634592027723, -66.29162888767533 ], [ 110.516178434158746, -66.29113687786446 ] ] ] ] } },
{ "type": "Feature", "properties": { "id": 2, "Species": "Vegetation-free rock" }, "geometry": { "type": "MultiPolygon", "coordinates": [ [ [ [ 110.519849368543333, -66.2907541969156 ], [ 110.520121289608838, -66.290535519474574 ], [ 110.520393210674357, -66.290426180041365 ], [ 110.521684835735613, -66.290344175154686 ], [ 110.522840500264095, -66.29039884510884 ], [ 110.523792223993425, -66.290590189013002 ], [ 110.523996164792564, -66.290808865978917 ], [ 110.523996164792564, -66.291082209513803 ], [ 110.523860204259805, -66.291437551669887 ], [ 110.52318040159598, -66.291710888375121 ], [ 110.521684835735613, -66.29162888767533 ], [ 110.520461190940765, -66.291328216156359 ], [ 110.519849368543333, -66.291109543703968 ], [ 110.519849368543333, -66.2907541969156 ] ] ] ] } },
{ "type": "Feature", "properties": { "id": 2, "Species": "Vegetation-free rock" }, "geometry": { "type": "MultiPolygon", "coordinates": [ [ [ [ 110.539155764195556, -66.296165858023727 ], [ 110.539767586593001, -66.295728595306059 ], [ 110.540855270855062, -66.295673936931962 ], [ 110.54194295511715, -66.295810582644592 ], [ 110.542758718313735, -66.296083871843095 ], [ 110.543846402575824, -66.296548456666855 ], [ 110.544390244706889, -66.297040360657618 ], [ 110.544526205239649, -66.29758690936572 ], [ 110.543778422309444, -66.297942159657836 ], [ 110.542146895916318, -66.298024139782001 ], [ 110.540991231387821, -66.297887506093332 ], [ 110.539903547125746, -66.297395618668702 ], [ 110.539359704994695, -66.296876393729505 ], [ 110.539155764195556, -66.296165858023727 ] ] ] ] } },
{ "type": "Feature", "properties": { "id": 2, "Species": "Vegetation-free rock" }, "geometry": { "type": "MultiPolygon", "coordinates": [ [ [ [ 110.544390244706889, -66.295182006220685 ], [ 110.545681869768117, -66.294881377161516 ], [ 110.547041475095753, -66.294881377161502 ], [ 110.548061179091462, -66.295100016833558 ], [ 110.549488764685449, -66.295400643279947 ], [ 110.549964626550135, -66.295564619827445 ], [ 110.55016856734926, -66.295974556519965 ], [ 110.550100587082881, -66.296466471733211 ], [ 110.549828666017333, -66.296876393729505 ], [ 110.548944922554412, -66.297286309045845 ], [ 110.547517336960397, -66.29747760057414 ], [ 110.545273988169839, -66.297422946000168 ], [ 110.544730146038773, -66.297095016062841 ], [ 110.544662165772394, -66.296849065804253 ], [ 110.544594185506028, -66.296493800074131 ], [ 110.544118323641371, -66.296193186691198 ], [ 110.54364246177667, -66.295810582644592 ], [ 110.544390244706889, -66.295182006220685 ] ] ] ] } },
{ "type": "Feature", "properties": { "id": 3, "Species": "Vegetation-free rock" }, "geometry": { "type": "MultiPolygon", "coordinates": [ [ [ [ 110.549760685750954, -66.29381548154862 ], [ 110.550644429213918, -66.293569499224603 ], [ 110.551460192410502, -66.29367882499885 ], [ 110.552547876672591, -66.294088792421235 ], [ 110.553159699070036, -66.294526083641671 ], [ 110.553431620135541, -66.295018027179239 ], [ 110.55370354120106, -66.295619278439091 ], [ 110.553363639869161, -66.296165858023713 ], [ 110.551800093742386, -66.296220515328997 ], [ 110.551596152943247, -66.296001885395299 ], [ 110.55016856734926, -66.295345984193304 ], [ 110.54935280415269, -66.294936037257656 ], [ 110.549216843619945, -66.294471422654794 ], [ 110.549760685750954, -66.29381548154862 ] ] ] ] } }
]
}
