{
"type": "FeatureCollection",
"name": "xanthoria_buellia",
"crs": { "type": "name", "properties": { "name": "urn:ogc:def:crs:OGC:1.3:CRS84" } },
"features": [
{ "type": "Feature", "properties": { "id": 20, "Species": "Xanthoria candelaria, Buellia frigida" }, "geometry": { "type": "MultiPolygon", "coordinates": [ [ [ [ 110.530608571697258, -66.250326317112254 ], [ 110.53059025063159, -66.250540294447589 ], [ 110.531066112496248, -66.250950964710171 ], [ 110.531813895426438, -66.251169986114817 ], [ 110.532969559954893, -66.251142608543304 ], [ 110.534193204749755, -66.25073194140262 ], [ 110.534737046880821, -66.250348646035619 ], [ 110.534397145548922, -66.250102238793758 ], [ 110.533266702847769, -66.249681981328294 ], [ 110.533989263950616, -66.24955465852247 ], [ 110.535144928479085, -66.249472520455967 ], [ 110.536436553540312, -66.248979686437238 ], [ 110.537524237802401, -66.248295178762319 ], [ 110.539903547125746, -66.247857084097319 ], [ 110.541399112986113, -66.247939227426841 ], [ 110.54201093538353, -66.248568984062388 ], [ 110.542350836715457, -66.249116585742115 ], [ 110.5428266985801, -66.249472520455967 ], [ 110.54364246177667, -66.250321267572119 ], [ 110.543370540711166, -66.251224741168627 ], [ 110.543030639379239, -66.25193654604611 ], [ 110.542622757780961, -66.252374569827055 ], [ 110.541739014318011, -66.252922088850028 ], [ 110.541399112986113, -66.253469595980775 ], [ 110.540515369523163, -66.25377071983371 ], [ 110.538951823396417, -66.254017091219509 ], [ 110.537320297003276, -66.254318208531899 ], [ 110.536436553540312, -66.254646696042798 ], [ 110.535484829810983, -66.254975179272733 ], [ 110.534125224483361, -66.255112046021722 ], [ 110.533513402085916, -66.255029926061511 ], [ 110.532697638889346, -66.254838311780503 ], [ 110.53262965862298, -66.254564574566416 ], [ 110.533173500754032, -66.254236085985283 ], [ 110.534873007413537, -66.253989716740008 ], [ 110.536300593007553, -66.253798094551058 ], [ 110.536980395671364, -66.253469595980775 ], [ 110.537184336470517, -66.25311371769854 ], [ 110.536912415404998, -66.252648330825082 ], [ 110.536096652208414, -66.252456698438635 ], [ 110.535008967946325, -66.252456698438635 ], [ 110.533513402085916, -66.252593578863312 ], [ 110.532221777024702, -66.252757834391815 ], [ 110.531338033561738, -66.252839961754702 ], [ 110.53011438876689, -66.252922088850013 ], [ 110.528414882107356, -66.253113717698511 ], [ 110.527463158378026, -66.253113717698525 ], [ 110.526851335980609, -66.253086342237935 ], [ 110.526579414915062, -66.252675706761352 ], [ 110.526783355714244, -66.252128182386812 ], [ 110.527735079443573, -66.251635400281586 ], [ 110.528007000509078, -66.251416382920524 ], [ 110.528550842640115, -66.251115230942048 ], [ 110.52916266503756, -66.250814075365952 ], [ 110.530454290098788, -66.250376024469361 ], [ 110.530608571697258, -66.250326317112254 ] ] ] ] } },
{ "type": "Feature", "properties": { "id": 20, "Species": "Xanthoria candelaria, Buellia frigida" }, "geometry": { "type": "MultiPolygon", "coordinates": [ [ [ [ 110.555335067594228, -66.26761852894613 ], [ 110.555674968926112, -66.267454370257596 ], [ 110.556150830790784, -66.2672628504355 ], [ 110.556694672921822, -66.267043968855802 ], [ 110.557646396651165, -66.267043968855802 ], [ 110.558870041446042, -66.26715340988342 ], [ 110.559481863843445, -66.26718077006602 ], [ 110.559617824376204, -66.26715340988342 ], [ 110.559821765175343, -66.266961887773093 ], [ 110.560841469171066, -66.266715642920218 ], [ 110.561725212634016, -66.266934527352774 ], [ 110.562744916629725, -66.267016608524642 ], [ 110.563696640359069, -66.267126049671091 ], [ 110.564988265420325, -66.267591169239012 ], [ 110.564988265420325, -66.267892124383053 ], [ 110.564512403555639, -66.268329870901127 ], [ 110.563628660092689, -66.268740251352881 ], [ 110.562337035031447, -66.269369488393238 ], [ 110.560365607306409, -66.269506276974127 ], [ 110.558054278249458, -66.269369488393238 ], [ 110.556830633454609, -66.269068550900343 ], [ 110.555810929458872, -66.268685534345622 ], [ 110.555131126795075, -66.268193075931407 ], [ 110.555335067594228, -66.26761852894613 ] ] ] ] } },
{ "type": "Feature", "properties": { "id": 20, "Species": "Xanthoria candelaria, Buellia frigida" }, "geometry": { "type": "MultiPolygon", "coordinates": [ [ [ [ 110.560433587572788, -66.264143608368911 ], [ 110.562337035031447, -66.263869972217975 ], [ 110.563084817961652, -66.263869972217975 ], [ 110.563356739027185, -66.264006790664936 ], [ 110.563628660092689, -66.264225698634647 ], [ 110.563696640359069, -66.26452669398725 ], [ 110.563696640359069, -66.26493713640005 ], [ 110.563628660092689, -66.265374934270056 ], [ 110.562880877162485, -66.265812724532026 ], [ 110.561249350769359, -66.266113700923967 ], [ 110.559957725708102, -66.266004255379315 ], [ 110.558938021712422, -66.265621192228537 ], [ 110.558530140114115, -66.265019224080206 ], [ 110.558734080913254, -66.264718234612047 ], [ 110.560433587572788, -66.264143608368911 ] ] ] ] } },
{ "type": "Feature", "properties": { "id": 20, "Species": "Xanthoria candelaria, Buellia frigida" }, "geometry": { "type": "MultiPolygon", "coordinates": [ [ [ [ 110.565056245686705, -66.264690871754809 ], [ 110.566279890481553, -66.264581420028648 ], [ 110.566551811547072, -66.264855048452432 ], [ 110.566483831280692, -66.265183398638072 ], [ 110.565872008883247, -66.265484382548792 ], [ 110.564988265420325, -66.265484382548777 ], [ 110.564648364088399, -66.265156036286058 ], [ 110.565056245686705, -66.264690871754809 ] ] ] ] } },
{ "type": "Feature", "properties": { "id": 20, "Species": "Xanthoria candelaria, Buellia frigida" }, "geometry": { "type": "MultiPolygon", "coordinates": [ [ [ [ 110.566959693145378, -66.264034154265175 ], [ 110.567299594477277, -66.263733153028014 ], [ 110.567503535276401, -66.263596333095037 ], [ 110.569203041935921, -66.263295326627102 ], [ 110.570902548595441, -66.263295326627102 ], [ 110.57199023285753, -66.26332269100007 ], [ 110.572398114455837, -66.263541604913826 ], [ 110.572398114455837, -66.263869972217975 ], [ 110.571582351259252, -66.264198335242455 ], [ 110.570630627529923, -66.264471967826978 ], [ 110.569678903800579, -66.264800323005446 ], [ 110.569135061669556, -66.265210760960372 ], [ 110.567911416874665, -66.265429658468847 ], [ 110.567095653678123, -66.265292847748952 ], [ 110.566891712878956, -66.264800323005446 ], [ 110.566959693145378, -66.264034154265175 ] ] ] ] } },
{ "type": "Feature", "properties": { "id": 20, "Species": "Xanthoria candelaria, Buellia frigida" }, "geometry": { "type": "MultiPolygon", "coordinates": [ [ [ [ 110.571650331525632, -66.264690871754809 ], [ 110.572262153923077, -66.264663508867841 ], [ 110.572466094722202, -66.264471967826978 ], [ 110.572670035521341, -66.264225698634647 ], [ 110.573213877652407, -66.263979427034997 ], [ 110.574505502713649, -66.263760516925444 ], [ 110.575933088307622, -66.263623697141071 ], [ 110.577360673901637, -66.26365106115739 ], [ 110.578244417364587, -66.263787880793174 ], [ 110.578176437098222, -66.264280425329872 ], [ 110.577632594967156, -66.264690871754809 ], [ 110.577156733102498, -66.265019224080206 ], [ 110.576952792303331, -66.265374934270056 ], [ 110.576748851504206, -66.265758001165352 ], [ 110.575593186975738, -66.265840086170797 ], [ 110.574641463246394, -66.26581272453204 ], [ 110.573621759250685, -66.265894809359182 ], [ 110.572194173656698, -66.266031616810068 ], [ 110.571038509128201, -66.26581272453204 ], [ 110.570834568329047, -66.265566468445797 ], [ 110.571038509128201, -66.265019224080206 ], [ 110.571650331525632, -66.264690871754809 ] ] ] ] } },
{ "type": "Feature", "properties": { "id": 20, "Species": "Xanthoria candelaria, Buellia frigida" }, "geometry": { "type": "MultiPolygon", "coordinates": [ [ [ [ 110.570630627529923, -66.266305229482967 ], [ 110.572262153923077, -66.266277868349434 ], [ 110.573825700049824, -66.266305229482967 ], [ 110.574845404045533, -66.266387312705348 ], [ 110.576137029106789, -66.266442034705022 ], [ 110.577496634434411, -66.266660921514926 ], [ 110.578380377897361, -66.266934527352774 ], [ 110.578992200294749, -66.267235490342046 ], [ 110.578992200294763, -66.267673248271251 ], [ 110.57844835816374, -66.267864764973083 ], [ 110.577564614700776, -66.267864764973083 ], [ 110.576272989639548, -66.267810046064 ], [ 110.574641463246394, -66.267864764973083 ], [ 110.574029640848948, -66.267727967477498 ], [ 110.573621759250685, -66.267344930537561 ], [ 110.572466094722202, -66.267180770066005 ], [ 110.570834568329047, -66.266961887773093 ], [ 110.570562647263543, -66.266715642920218 ], [ 110.570630627529923, -66.266305229482967 ] ] ] ] } },
{ "type": "Feature", "properties": { "id": 20, "Species": "Xanthoria candelaria, Buellia frigida" }, "geometry": { "type": "MultiPolygon", "coordinates": [ [ [ [ 110.55887004144607, -66.260668208439327 ], [ 110.56063752837197, -66.260367166988644 ], [ 110.561861173166818, -66.260230328776657 ], [ 110.563152798228089, -66.260093489821585 ], [ 110.563900581158251, -66.259984018122509 ], [ 110.565056245686748, -66.259600863430506 ], [ 110.565872008883275, -66.259409283899771 ], [ 110.566959693145378, -66.259245071714176 ], [ 110.567707476075583, -66.259245071714176 ], [ 110.568931120870431, -66.259381915276492 ], [ 110.569678903800636, -66.259436652493335 ], [ 110.570018805132534, -66.259737705060715 ], [ 110.570358706464461, -66.26012085767205 ], [ 110.570494666997206, -66.260394534541859 ], [ 110.570358706464461, -66.260805044273454 ], [ 110.569339002468752, -66.261133447243566 ], [ 110.567707476075583, -66.261325013666237 ], [ 110.566211910215216, -66.261680776015822 ], [ 110.564240482490177, -66.261927070084596 ], [ 110.562676936363403, -66.261872338277357 ], [ 110.562472995564278, -66.261489212297903 ], [ 110.562676936363403, -66.261160813964537 ], [ 110.561793192900453, -66.261188180655765 ], [ 110.560841469171109, -66.261352380179133 ], [ 110.559957725708159, -66.26143447953956 ], [ 110.559277923044363, -66.26143447953956 ], [ 110.558394179581413, -66.261352380179133 ], [ 110.558258219048653, -66.261160813964537 ], [ 110.558258219048653, -66.260887145417229 ], [ 110.55887004144607, -66.260668208439327 ] ] ] ] } },
{ "type": "Feature", "properties": { "id": 20, "Species": "Xanthoria candelaria, Buellia frigida" }, "geometry": { "type": "MultiPolygon", "coordinates": [ [ [ [ 110.5495567449519, -66.247309455061313 ], [ 110.552139995074384, -66.247145164031096 ], [ 110.553091718803714, -66.247418981820047 ], [ 110.552955758270954, -66.247692796635405 ], [ 110.552547876672648, -66.248240417345485 ], [ 110.551868074008866, -66.248568984062388 ], [ 110.550644429213975, -66.248842786388977 ], [ 110.549148863353608, -66.248623744765581 ], [ 110.548876942288103, -66.248076132381328 ], [ 110.5495567449519, -66.247309455061313 ] ] ] ] } },
{ "type": "Feature", "properties": { "id": 20, "Species": "Xanthoria candelaria, Buellia frigida" }, "geometry": { "type": "MultiPolygon", "coordinates": [ [ [ [ 110.555946889991716, -66.246268927123737 ], [ 110.561657232367693, -66.24555696221492 ], [ 110.565736048350544, -66.244899745995014 ], [ 110.571174469661031, -66.244132972089005 ], [ 110.574437522447312, -66.243311402745391 ], [ 110.575389246176655, -66.242763674979813 ], [ 110.575933088307707, -66.241887285810947 ], [ 110.575933088307707, -66.241065643305944 ], [ 110.57484540404559, -66.240572644954511 ], [ 110.574573482980071, -66.239915298829104 ], [ 110.57484540404559, -66.239422277992247 ], [ 110.574981364578377, -66.238764901885702 ], [ 110.574573482980071, -66.237833589740418 ], [ 110.574301561914567, -66.236683097852634 ], [ 110.576340969905985, -66.236463950591528 ], [ 110.581371509618165, -66.237230957676545 ], [ 110.586673970395879, -66.238326641629953 ], [ 110.591432589042554, -66.239093592080536 ], [ 110.589393181051122, -66.239915298829118 ], [ 110.589665102116641, -66.240956088949503 ], [ 110.589801062649386, -66.24128475059122 ], [ 110.587489733592449, -66.241558632021025 ], [ 110.585858207199294, -66.242325484202183 ], [ 110.584770522937205, -66.242927994558556 ], [ 110.582867075478532, -66.243201858143948 ], [ 110.58069170695434, -66.243311402745377 ], [ 110.580283825356076, -66.243804347563369 ], [ 110.580283825356076, -66.243804347563369 ], [ 110.579875943757784, -66.244516361956386 ], [ 110.579875943757784, -66.24599509684549 ], [ 110.579468062159506, -66.246542754428319 ], [ 110.578924220028441, -66.246926107658965 ], [ 110.576884812037051, -66.247966608477185 ], [ 110.572262153923134, -66.248295178762319 ], [ 110.571038509128286, -66.248021370488729 ], [ 110.570766588062739, -66.247364218500152 ], [ 110.570494666997206, -66.246761814130949 ], [ 110.568319298473028, -66.246871343268566 ], [ 110.566823732612662, -66.247473745021026 ], [ 110.566143929948851, -66.247966608477185 ], [ 110.565736048350544, -66.248185655809721 ], [ 110.56532816675228, -66.248568984062388 ], [ 110.564512403555696, -66.249007066357692 ], [ 110.563560679826367, -66.249171345255931 ], [ 110.561657232367693, -66.249390382121859 ], [ 110.559481863843502, -66.249609417084812 ], [ 110.558530140114172, -66.24933562308378 ], [ 110.557442455852083, -66.249445141040979 ], [ 110.556082850524476, -66.249937965961166 ], [ 110.554995166262387, -66.24955465852247 ], [ 110.55553900839341, -66.248788026161535 ], [ 110.556490732122739, -66.247638033910206 ], [ 110.555810929458957, -66.247199927826799 ], [ 110.555946889991716, -66.246268927123737 ] ] ] ] } },
{ "type": "Feature", "properties": { "id": 20, "Species": "Xanthoria candelaria, Buellia frigida" }, "geometry": { "type": "MultiPolygon", "coordinates": [ [ [ [ 110.5405833497896, -66.254701443545088 ], [ 110.543846402575909, -66.254427704844531 ], [ 110.544798126305238, -66.254372956747673 ], [ 110.54615773163286, -66.254208711743615 ], [ 110.548061179091519, -66.253989716740008 ], [ 110.548740981755316, -66.253934967691805 ], [ 110.551460192410559, -66.253606470905311 ], [ 110.551868074008866, -66.253715970309813 ], [ 110.551732113476106, -66.254208711743615 ], [ 110.551460192410559, -66.254537200681483 ], [ 110.551324231877786, -66.25513941928233 ], [ 110.551052310812281, -66.255960603277131 ], [ 110.549828666017433, -66.2566175312094 ], [ 110.547925218558774, -66.256727017533393 ], [ 110.54710945536219, -66.256289069383655 ], [ 110.546293692165605, -66.255741623494586 ], [ 110.543846402575909, -66.255522641809478 ], [ 110.541535073518943, -66.255632132889858 ], [ 110.540719310322402, -66.25530365822172 ], [ 110.5405833497896, -66.254701443545088 ] ] ] ] } }
]
}
