{
"type": "FeatureCollection",
"name": "xanthoria_candellariella_buellia_usnea",
"crs": { "type": "name", "properties": { "name": "urn:ogc:def:crs:OGC:1.3:CRS84" } },
"features": [
{ "type": "Feature", "properties": { "id": 17, "Species": "Xanthoria candelaria, Candelariella hallettensis, Buellia frigida, Usnea antarctica" }, "geometry": { "type": "MultiPolygon", "coordinates": [ [ [ [ 110.535144928479085, -66.281568107938156 ], [ 110.535552810077391, -66.281185281464488 ], [ 110.53582473114291, -66.281075901402673 ], [ 110.536504533806735, -66.28099386604444 ], [ 110.537116356204137, -66.28099386604444 ], [ 110.537728178601569, -66.281048556312967 ], [ 110.538543941798153, -66.281157936493614 ], [ 110.539223744461935, -66.28134935066609 ], [ 110.539699606326636, -66.28145872953975 ], [ 110.54092325112147, -66.281513418798383 ], [ 110.542758718313763, -66.281568107938156 ], [ 110.542282856449077, -66.281868896083267 ], [ 110.540855270855104, -66.282005616779287 ], [ 110.539291724728315, -66.282251712160843 ], [ 110.538543941798153, -66.282443118016474 ], [ 110.537932119400722, -66.282989983870067 ], [ 110.537184336470517, -66.283126698477076 ], [ 110.536504533806735, -66.282771238954339 ], [ 110.535348869278224, -66.282607179020047 ], [ 110.535144928479085, -66.282415774411916 ], [ 110.535076948212719, -66.282005616779287 ], [ 110.535144928479085, -66.281568107938156 ] ] ] ] } }
]
}
